{"version": 0.6, "generator": "Overpass API 0.7.62.8 e802775f", "osm3s": {"timestamp_osm_base": "2025-08-31T22:51:30Z", "copyright": "The data included in this document is from www.openstreetmap.org. The data is made available under ODbL."}, "elements": [{"type": "node", "id": 2026340014, "lat": -33.5007631, "lon": -70.6683298, "tags": {"addr:city": "Pedro Aguirre Cerda", "addr:housenumber": "5531", "addr:street": "Avenida Jos\u00e9 Joaqu\u00edn Prieto Vial", "brand": "Santa Isabel", "brand:wikidata": "Q7419620", "brand:wikipedia": "es:Santa Isabel (supermercado)", "name": "Santa Isabel", "opening_hours": "Mo-Sa 08:00-22:00; Su,PH 09:00-22:00", "operator": "Cencosud", "phone": "600 400 2000", "shop": "supermarket", "source": "http://www.santaisabel.cl/locales/", "website": "https://www.santaisabel.cl/", "wheelchair": "yes"}}, {"type": "node", "id": 3259783761, "lat": -33.4798379, "lon": -70.6627716}, {"type": "node", "id": 3259783762, "lat": -33.478884, "lon": -70.6628146}, {"type": "node", "id": 3259783763, "lat": -33.4788662, "lon": -70.6632341}, {"type": "node", "id": 3259783764, "lat": -33.479776, "lon": -70.6631859}, {"type": "node", "id": 3264483322, "lat": -33.4978717, "lon": -70.6876981}, {"type": "node", "id": 3264483323, "lat": -33.4978526, "lon": -70.6874077}, {"type": "node", "id": 3264483324, "lat": -33.4981155, "lon": -70.6875171}, {"type": "node", "id": 3264483325, "lat": -33.4980277, "lon": -70.6877692}, {"type": "node", "id": 3264552070, "lat": -33.479815, "lon": -70.6761561}, {"type": "node", "id": 3264552071, "lat": -33.479933, "lon": -70.6761661}, {"type": "node", "id": 3264552072, "lat": -33.4799548, "lon": -70.6758852}, {"type": "node", "id": 3264552073, "lat": -33.4798374, "lon": -70.6758771}, {"type": "node", "id": 3894475838, "lat": -33.479011, "lon": -70.6628086}, {"type": "node", "id": 3937088972, "lat": -33.5079526, "lon": -70.6741577, "tags": {"name": "Almacen el Lucho", "operator": "El Lucho", "shop": "supermarket"}}, {"type": "node", "id": 5254200826, "lat": -33.4975709, "lon": -70.6780198}, {"type": "node", "id": 5254200827, "lat": -33.4977335, "lon": -70.6775942}, {"type": "node", "id": 5254200828, "lat": -33.4980542, "lon": -70.6777662}, {"type": "node", "id": 5254200829, "lat": -33.4978884, "lon": -70.678183}, {"type": "node", "id": 6484524874, "lat": -33.4915634, "lon": -70.6675059, "tags": {"addr:floor": "2", "addr:housenumber": "4676", "addr:street": "Avenida Club H\u00edpico", "air_conditioning": "yes", "branch": "N\u00facleo Ochagav\u00eda", "brand": "Supermercados Erbi", "check_date": "2023-06-27", "currency:CLP": "yes", "internet_access": "no", "name": "Supermercados Erbi N\u00facleo Ochagav\u00eda", "opening_hours": "Mo-Sa 08:00-20:00; Su,PH 09:00-18:30", "organic": "no", "payment:apple_pay": "yes", "payment:cash": "yes", "payment:contactless": "yes", "payment:credit_cards": "yes", "payment:debit_cards": "yes", "payment:google_pay": "yes", "payment:mastercard_contactless": "yes", "payment:nfc": "yes", "payment:prepaid_cards": "yes", "second_hand": "no", "shop": "supermarket", "source": "local knowledge", "stroller": "yes", "toilets": "no", "toilets:wheelchair": "no", "website": "https://www.erbi.cl/", "wheelchair": "yes"}}, {"type": "node", "id": 7178261833, "lat": -33.4798687, "lon": -70.6628177}, {"type": "node", "id": 12542320279, "lat": -33.4978216, "lon": -70.6875077}, {"type": "node", "id": 12542320280, "lat": -33.4979251, "lon": -70.6875573}, {"type": "node", "id": 12557903444, "lat": -33.4789473, "lon": -70.6628116, "tags": {"access": "permissive", "barrier": "gate"}}, {"type": "way", "id": 319554384, "nodes": [3259783761, 3894475838, 12557903444, 3259783762, 3259783763, 3259783764, 7178261833, 3259783761], "tags": {"addr:city": "Pedro Aguirre Cerda", "addr:housenumber": "2020", "addr:postcode": "8460077", "addr:street": "Avenida Alcalde Carlos Valdovinos", "air_conditioning": "yes", "branch": "Carlos Valdovinos", "brand": "Santa Isabel", "brand:wikidata": "Q7419620", "brand:wikipedia": "es:Santa Isabel (supermercado)", "check_date": "2023-08-15", "contact:facebook": "https://www.facebook.com/SantaIsabelChile", "contact:instagram": "https://www.instagram.com/SantaIsabelCL", "contact:twitter": "https://twitter.com/SantaIsabelCL", "internet_access": "no", "name": "Santa Isabel", "opening_hours": "Mo-Sa 08:30-22:00; Su,PH 09:00-22:00", "operator": "Cencosud", "organic": "yes", "payment:apple_pay": "yes", "payment:cash": "yes", "payment:coins": "yes", "payment:contactless": "yes", "payment:credit_cards": "yes", "payment:debit_cards": "yes", "payment:google_pay": "yes", "payment:mastercard": "yes", "payment:prepaid_cards": "yes", "payment:visa": "yes", "payment:visa_debit": "yes", "phone": "+566004002000", "second_hand": "no", "shop": "supermarket", "source": "survey", "stroller": "yes", "toilets": "no", "toilets:wheelchair": "no", "website": "https://www.santaisabel.cl/", "wheelchair": "yes"}}, {"type": "way", "id": 319951697, "nodes": [3264483322, 12542320280, 12542320279, 3264483323, 3264483324, 3264483325, 3264483322], "tags": {"addr:housenumber": "5960", "addr:street": "Avenida Central Cardenal Ra\u00fal Silva Henr\u00edquez", "brand": "Lider", "brand:wikidata": "Q6711261", "brand:wikipedia": "es:L\u00edder (supermercado)", "building": "yes", "name": "Lider Express", "operator": "Walmart", "shop": "supermarket", "website": "https://www.lider.cl/supermercado/", "wheelchair": "yes", "wikidata": "Q5283104", "wikipedia": "es:Walmart Chile"}}, {"type": "way", "id": 319957295, "nodes": [3264552070, 3264552071, 3264552072, 3264552073, 3264552070], "tags": {"addr:country": "CL", "addr:housenumber": "3350", "addr:street": "Quiapo", "fixme": "Correcciones masivas de nombres con may\u00fasculas", "name": "ERBI", "shop": "supermarket", "source": "www.erbi.cl/locales.html", "website": "https://www.erbi.cl/", "wheelchair": "yes"}}, {"type": "way", "id": 543511691, "nodes": [5254200826, 5254200827, 5254200828, 5254200829, 5254200826], "tags": {"addr:housenumber": "5500", "addr:street": "Avenida Clotario Blest", "building": "commercial", "name": "Super Vecino", "shop": "supermarket", "wheelchair": "yes"}}]}