{"version": 0.6, "generator": "Overpass API 0.7.62.8 e802775f", "osm3s": {"timestamp_osm_base": "2025-09-02T15:01:13Z", "copyright": "The data included in this document is from www.openstreetmap.org. The data is made available under ODbL."}, "elements": [{"type": "node", "id": 1278625542, "lat": -33.4811621, "lon": -70.7512137, "tags": {"addr:city": "Maip\u00fa", "addr:housename": "Mall Arauco Maip\u00fa", "addr:housenumber": "399", "addr:street": "Avenida Am\u00e9rico Vespucio", "amenity": "restaurant", "name": "Mamut"}}, {"type": "node", "id": 1278625615, "lat": -33.4813638, "lon": -70.7510879, "tags": {"addr:city": "Maip\u00fa", "addr:housename": "Mall Arauco Maip\u00fa", "addr:housenumber": "399", "addr:street": "Avenida Am\u00e9rico Vespucio", "amenity": "restaurant", "cuisine": "steak_house", "name": "Bariloche", "wheelchair": "yes"}}, {"type": "node", "id": 2190287496, "lat": -33.498411, "lon": -70.7570571, "tags": {"amenity": "restaurant", "name": "Parrilladas Amancay de Maipu"}}, {"type": "node", "id": 2312067470, "lat": -33.561226, "lon": -70.7590979, "tags": {"amenity": "restaurant", "name": "Taquer\u00eda Lonqu\u00e9n"}}, {"type": "node", "id": 2312067474, "lat": -33.56848, "lon": -70.7654376, "tags": {"addr:city": "Maip\u00fa", "addr:street": "Camino a Lonqu\u00e9n", "amenity": "restaurant", "contact:website": "https://mipiace.cl/", "cuisine": "italian", "name": "Mi Piace"}}, {"type": "node", "id": 2465546116, "lat": -33.5527515, "lon": -70.7803991, "tags": {"amenity": "restaurant", "name": "Bauerland"}}, {"type": "node", "id": 2473021874, "lat": -33.5281225, "lon": -70.767585, "tags": {"amenity": "restaurant"}}, {"type": "node", "id": 2612688181, "lat": -33.5038106, "lon": -70.760177, "tags": {"amenity": "restaurant", "name": "Rinconcito Peruano"}}, {"type": "node", "id": 2652175869, "lat": -33.5252424, "lon": -70.763153, "tags": {"amenity": "restaurant", "capacity": "20", "cuisine": "regional", "name": "T\u00eda Lucy"}}, {"type": "node", "id": 2698760713, "lat": -33.5282619, "lon": -70.7668213}, {"type": "node", "id": 2698760717, "lat": -33.5283292, "lon": -70.7668226}, {"type": "node", "id": 2698760741, "lat": -33.5283918, "lon": -70.76682}, {"type": "node", "id": 2698760746, "lat": -33.5283278, "lon": -70.7669089}, {"type": "node", "id": 2698760749, "lat": -33.5283906, "lon": -70.7669072}, {"type": "node", "id": 2698760772, "lat": -33.5282622, "lon": -70.7669106}, {"type": "node", "id": 3892544812, "lat": -33.4966991, "lon": -70.7687763, "tags": {"addr:city": "Maipu", "addr:housenumber": "3295", "addr:street": "Avenida de la Victoria", "amenity": "restaurant", "name": "Restaurante Kako burger"}}, {"type": "node", "id": 3892554269, "lat": -33.4987473, "lon": -70.7702203, "tags": {"addr:city": "Maipu", "addr:street": "Blanco Encalada", "amenity": "restaurant", "name": "Restaurante Oasis"}}, {"type": "node", "id": 4015651454, "lat": -33.5249039, "lon": -70.7894327, "tags": {"amenity": "restaurant"}}, {"type": "node", "id": 4015651456, "lat": -33.5248958, "lon": -70.7868239, "tags": {"amenity": "restaurant"}}, {"type": "node", "id": 4423871287, "lat": -33.4838562, "lon": -70.7533953, "tags": {"addr:city": "Maip\u00fa", "addr:street": "Avenida Am\u00e9rico Vespucio", "amenity": "restaurant", "cuisine": "sushi", "name": "Cerezzo Sushi Bar", "source": "Reconocimiento cortogr\u00e1fico de campo 2016 por KG"}}, {"type": "node", "id": 4435228782, "lat": -33.4886287, "lon": -70.7384005, "tags": {"amenity": "restaurant", "name": "Comida China Para Llevar", "source": "Reconocimiento cortogr\u00e1fico de campo 2016 por KG"}}, {"type": "node", "id": 4436619828, "lat": -33.5012707, "lon": -70.7455662, "tags": {"amenity": "restaurant", "cuisine": "chinese", "name": "Hong Tuo", "source": "Reconocimiento cortogr\u00e1fico de campo 2016 por KG"}}, {"type": "node", "id": 4441197302, "lat": -33.4999403, "lon": -70.7535188, "tags": {"source": "Reconocimiento cortogr\u00e1fico de campo 2016 por KG"}}, {"type": "node", "id": 4441197303, "lat": -33.4999401, "lon": -70.7534316, "tags": {"source": "Reconocimiento cortogr\u00e1fico de campo 2016 por KG"}}, {"type": "node", "id": 4441197304, "lat": -33.5000474, "lon": -70.7534313, "tags": {"source": "Reconocimiento cortogr\u00e1fico de campo 2016 por KG"}}, {"type": "node", "id": 4441197305, "lat": -33.5000473, "lon": -70.7534029, "tags": {"source": "Reconocimiento cortogr\u00e1fico de campo 2016 por KG"}}, {"type": "node", "id": 4441197306, "lat": -33.5001429, "lon": -70.7534026, "tags": {"source": "Reconocimiento cortogr\u00e1fico de campo 2016 por KG"}}, {"type": "node", "id": 4441197307, "lat": -33.5001432, "lon": -70.7535377, "tags": {"source": "Reconocimiento cortogr\u00e1fico de campo 2016 por KG"}}, {"type": "node", "id": 4441197308, "lat": -33.5000464, "lon": -70.753538, "tags": {"source": "Reconocimiento cortogr\u00e1fico de campo 2016 por KG"}}, {"type": "node", "id": 4441197309, "lat": -33.5000464, "lon": -70.7535184, "tags": {"source": "Reconocimiento cortogr\u00e1fico de campo 2016 por KG"}}, {"type": "node", "id": 4441197324, "lat": -33.5000856, "lon": -70.7542604, "tags": {"amenity": "restaurant", "cuisine": "sushi", "name": "Suchi Thai", "source": "Reconocimiento cortogr\u00e1fico de campo 2016 por KG"}}, {"type": "node", "id": 4441197329, "lat": -33.5001658, "lon": -70.7551147, "tags": {"source": "Reconocimiento cortogr\u00e1fico de campo 2016 por KG"}}, {"type": "node", "id": 4441197330, "lat": -33.5001649, "lon": -70.7549935, "tags": {"source": "Reconocimiento cortogr\u00e1fico de campo 2016 por KG"}}, {"type": "node", "id": 4441197331, "lat": -33.5000077, "lon": -70.7549953, "tags": {"source": "Reconocimiento cortogr\u00e1fico de campo 2016 por KG"}}, {"type": "node", "id": 4441197332, "lat": -33.5000084, "lon": -70.7550857, "tags": {"source": "Reconocimiento cortogr\u00e1fico de campo 2016 por KG"}}, {"type": "node", "id": 4441197333, "lat": -33.5001076, "lon": -70.7550846, "tags": {"source": "Reconocimiento cortogr\u00e1fico de campo 2016 por KG"}}, {"type": "node", "id": 4441197334, "lat": -33.5001078, "lon": -70.7551154, "tags": {"source": "Reconocimiento cortogr\u00e1fico de campo 2016 por KG"}}, {"type": "node", "id": 4441405158, "lat": -33.5001464, "lon": -70.7560714, "tags": {"addr:city": "Maip\u00fa", "addr:street": "Avenida Central Gonzalo P\u00e9rez Llona", "amenity": "restaurant", "name": "El Parr\u00f3n", "source": "Reconocimiento cortogr\u00e1fico de campo 2016 por KG"}}, {"type": "node", "id": 4446979502, "lat": -33.5461685, "lon": -70.7839098}, {"type": "node", "id": 4446979503, "lat": -33.5462415, "lon": -70.7840181}, {"type": "node", "id": 4446979504, "lat": -33.5463252, "lon": -70.783937}, {"type": "node", "id": 4446979505, "lat": -33.5462522, "lon": -70.7838287}, {"type": "node", "id": 4447816746, "lat": -33.5148389, "lon": -70.7338219}, {"type": "node", "id": 4447816747, "lat": -33.5149164, "lon": -70.7337731}, {"type": "node", "id": 4447816748, "lat": -33.5149566, "lon": -70.7338649}, {"type": "node", "id": 4447816749, "lat": -33.5148791, "lon": -70.7339137}, {"type": "node", "id": 4452262187, "lat": -33.4784058, "lon": -70.7491309, "tags": {"amenity": "restaurant", "name": "China Express", "source": "Reconocimiento cartogr\u00e1fico de campo 2016 por KG."}}, {"type": "node", "id": 4452572040, "lat": -33.4745406, "lon": -70.7493402, "tags": {"addr:street": "Avenida Arquitecto Hugo Bravo", "amenity": "restaurant", "name": "Emperatriz Restaurante", "source": "Reconocimiento cartogr\u00e1fico de campo 2016 por KG."}}, {"type": "node", "id": 4452572050, "lat": -33.4748691, "lon": -70.7429344}, {"type": "node", "id": 4452572051, "lat": -33.4749678, "lon": -70.7429413}, {"type": "node", "id": 4452572052, "lat": -33.4749741, "lon": -70.74281}, {"type": "node", "id": 4452572053, "lat": -33.4748754, "lon": -70.7428031}, {"type": "node", "id": 4454237589, "lat": -33.4845178, "lon": -70.7531977}, {"type": "node", "id": 4454237590, "lat": -33.4846058, "lon": -70.7531318}, {"type": "node", "id": 4454237591, "lat": -33.4845481, "lon": -70.7530211}, {"type": "node", "id": 4454237592, "lat": -33.4844601, "lon": -70.753087}, {"type": "node", "id": 4455193336, "lat": -33.4809982, "lon": -70.7520305, "tags": {"addr:city": "Maip\u00fa", "addr:housename": "Mall Arauco Maip\u00fa", "addr:housenumber": "399", "addr:street": "Avenida Am\u00e9rico Vespucio", "amenity": "restaurant", "name": "Rinc\u00f3n Jumbo", "source": "Reconocimiento cartogr\u00e1fico de campo 2016 por KG."}}, {"type": "node", "id": 4455267908, "lat": -33.4898434, "lon": -70.7664136, "tags": {"addr:street": "La Sinfonia", "amenity": "restaurant", "name": "La Cromo XXI", "source": "Reconocimiento cartogr\u00e1fico de campo 2016 por KG."}}, {"type": "node", "id": 4455267909, "lat": -33.4902828, "lon": -70.7673712, "tags": {"addr:street": "Teatro Alameda", "amenity": "restaurant", "name": "Pollo Asado y Papas Fritas", "source": "Reconocimiento cartogr\u00e1fico de campo 2016 por KG."}}, {"type": "node", "id": 4455365546, "lat": -33.5594122, "lon": -70.7830322, "tags": {"amenity": "restaurant", "cuisine": "sushi", "name": "Comida China Para Llevar", "source": "Reconocimiento cartogr\u00e1fico de campo 2016 por KG"}}, {"type": "node", "id": 4455403238, "lat": -33.488095, "lon": -70.7628055, "tags": {"addr:street": "Pasaje El Molino", "amenity": "restaurant", "cuisine": "chinese", "name": "Ju Bao Lou", "source": "Reconocimiento cartogr\u00e1fico de campo 2016 por KG."}}, {"type": "node", "id": 4455411687, "lat": -33.5573994, "lon": -70.7902743, "tags": {"addr:street": "Avenida Parque Central Oriente", "amenity": "restaurant", "name": "Regalones", "source": "Reconocimiento cartogr\u00e1fico de campo 2016 por KG"}}, {"type": "node", "id": 4455582246, "lat": -33.4895666, "lon": -70.7663812, "tags": {"addr:street": "La Sinfonia", "amenity": "restaurant", "cuisine": "chinese", "name": "Jian Hao", "source": "Reconocimiento cartogr\u00e1fico de campo 2016 por KG."}}, {"type": "node", "id": 4455668594, "lat": -33.4890014, "lon": -70.7746564, "tags": {"amenity": "restaurant", "cuisine": "tea;chicken;pizza;friture;regional;sandwich;sausage;breakfast;coffee_shop", "name": "Gustito", "opening_hours": "24/7", "source": "Reconocimiento cartogr\u00e1fico de campo 2016 por KG."}}, {"type": "node", "id": 4455743691, "lat": -33.486513, "lon": -70.7700935, "tags": {"addr:city": "Maip\u00fa", "addr:street": "Avenida El Rosal", "amenity": "restaurant", "cuisine": "chinese", "name": "Tong Xing", "source": "Reconocimiento cartogr\u00e1fico de campo 2016 por KG."}}, {"type": "node", "id": 4455743697, "lat": -33.4874956, "lon": -70.7720614}, {"type": "node", "id": 4455743698, "lat": -33.4875743, "lon": -70.7719993}, {"type": "node", "id": 4455743699, "lat": -33.4873951, "lon": -70.7716725}, {"type": "node", "id": 4455743700, "lat": -33.4873163, "lon": -70.7717345}, {"type": "node", "id": 4455758298, "lat": -33.4899823, "lon": -70.7824459, "tags": {"amenity": "restaurant", "cuisine": "chinese", "name": "Hong Xi", "source": "Reconocimiento cartogr\u00e1fico de campo 2016 por KG."}}, {"type": "node", "id": 4456916018, "lat": -33.4837767, "lon": -70.7654754, "tags": {"addr:street": "Avenida El Rosal", "amenity": "restaurant", "cuisine": "chinese", "name": "Fu Wha", "source": "Reconocimiento cartogr\u00e1fico de campo 2016 por KG."}}, {"type": "node", "id": 4456948893, "lat": -33.5109427, "lon": -70.759782, "tags": {"amenity": "restaurant", "name": "El Aji Seco", "source": "Reconocimiento cartogr\u00e1fico 2016 por KG"}}, {"type": "node", "id": 4456963645, "lat": -33.5109091, "lon": -70.7535318, "tags": {"amenity": "restaurant", "source": "Reconocimiento cartogr\u00e1fico 2016 por KG"}}, {"type": "node", "id": 4456963646, "lat": -33.5109514, "lon": -70.7534173, "tags": {"amenity": "restaurant", "name": "Restaurant Li Du", "source": "Reconocimiento cartogr\u00e1fico 2016 por KG"}}, {"type": "node", "id": 4457003433, "lat": -33.5034152, "lon": -70.7571351}, {"type": "node", "id": 4457003434, "lat": -33.5035181, "lon": -70.7571364}, {"type": "node", "id": 4457003435, "lat": -33.5035209, "lon": -70.7568246}, {"type": "node", "id": 4457003436, "lat": -33.503418, "lon": -70.7568233}, {"type": "node", "id": 4457003437, "lat": -33.5034149, "lon": -70.7571937}, {"type": "node", "id": 4457003438, "lat": -33.5032696, "lon": -70.7571929}, {"type": "node", "id": 4457003439, "lat": -33.5032705, "lon": -70.7569416}, {"type": "node", "id": 4457003440, "lat": -33.5034159, "lon": -70.7569424}, {"type": "node", "id": 4457003441, "lat": -33.5032715, "lon": -70.757108}, {"type": "node", "id": 4457015732, "lat": -33.4990503, "lon": -70.757174}, {"type": "node", "id": 4457015733, "lat": -33.4990471, "lon": -70.756874}, {"type": "node", "id": 4457015734, "lat": -33.4989024, "lon": -70.7568763}, {"type": "node", "id": 4457015735, "lat": -33.4989057, "lon": -70.7571763}, {"type": "node", "id": 4457028144, "lat": -33.4978216, "lon": -70.7572056}, {"type": "node", "id": 4457028145, "lat": -33.4979492, "lon": -70.757202}, {"type": "node", "id": 4457028146, "lat": -33.4979449, "lon": -70.7569782}, {"type": "node", "id": 4457028147, "lat": -33.4978172, "lon": -70.7569817}, {"type": "node", "id": 4457028148, "lat": -33.4976302, "lon": -70.7572105}, {"type": "node", "id": 4457028149, "lat": -33.4977659, "lon": -70.7572054}, {"type": "node", "id": 4457028150, "lat": -33.4977613, "lon": -70.7570301}, {"type": "node", "id": 4457028151, "lat": -33.4976256, "lon": -70.7570352}, {"type": "node", "id": 4457028169, "lat": -33.4954138, "lon": -70.7571409}, {"type": "node", "id": 4457028170, "lat": -33.4955726, "lon": -70.7571493}, {"type": "node", "id": 4457028171, "lat": -33.4955785, "lon": -70.7569904}, {"type": "node", "id": 4457028172, "lat": -33.4954196, "lon": -70.756982}, {"type": "node", "id": 4457072234, "lat": -33.4812934, "lon": -70.7605754, "tags": {"amenity": "restaurant", "name": "Nueva Zheng Jing", "source": "Reconocimiento cartogr\u00e1fico de campo 2016 por KG."}}, {"type": "node", "id": 4457097633, "lat": -33.4819087, "lon": -70.7628808, "tags": {"addr:street": "Avenida El Rosal", "amenity": "restaurant", "cuisine": "chinese", "name": "Ju Xian", "source": "Reconocimiento cartogr\u00e1fico de campo 2016 por KG."}}, {"type": "node", "id": 4457139295, "lat": -33.5098525, "lon": -70.7903958, "tags": {"amenity": "restaurant", "name": "He Tai", "source": "Reconocimiento cartogr\u00e1fico 2016 por KG"}}, {"type": "node", "id": 4457178992, "lat": -33.5020203, "lon": -70.7576233, "tags": {"addr:street": "Avenida Los Pajaritos", "amenity": "restaurant", "name": "Sushi Ok", "source": "Reconocimiento cartogr\u00e1fico de campo 2016 por KG."}}, {"type": "node", "id": 4457178997, "lat": -33.5004312, "lon": -70.7578229}, {"type": "node", "id": 4457178998, "lat": -33.5004274, "lon": -70.7576462}, {"type": "node", "id": 4457178999, "lat": -33.5005637, "lon": -70.757642}, {"type": "node", "id": 4457179000, "lat": -33.5005675, "lon": -70.7578187}, {"type": "node", "id": 4457208617, "lat": -33.495661, "lon": -70.757858}, {"type": "node", "id": 4457208618, "lat": -33.4956603, "lon": -70.7576715}, {"type": "node", "id": 4457208619, "lat": -33.4955491, "lon": -70.7576723}, {"type": "node", "id": 4457208620, "lat": -33.4955505, "lon": -70.7578586}, {"type": "node", "id": 4457208621, "lat": -33.4955504, "lon": -70.7578255}, {"type": "node", "id": 4458124784, "lat": -33.5098549, "lon": -70.7731979}, {"type": "node", "id": 4458124785, "lat": -33.5098856, "lon": -70.7731966}, {"type": "node", "id": 4458124786, "lat": -33.5098811, "lon": -70.7730432}, {"type": "node", "id": 4458124787, "lat": -33.5098503, "lon": -70.7730445}, {"type": "node", "id": 4458141619, "lat": -33.5181833, "lon": -70.7850652, "tags": {"amenity": "restaurant", "name": "Shitsu-Sushi", "source": "Reconocimiento cartogr\u00e1fico 2016 por KG"}}, {"type": "node", "id": 4458178786, "lat": -33.5093407, "lon": -70.7685406, "tags": {"addr:street": "Camino a Rinconada", "amenity": "restaurant", "name": "Pollos a las Brasas", "source": "Reconocimiento cartogr\u00e1fico de campo 2016 por KG."}}, {"type": "node", "id": 4458178998, "lat": -33.5089469, "lon": -70.7579664, "tags": {"addr:street": "Chacabuco", "amenity": "restaurant", "name": "Chez Pollo", "source": "Reconocimiento cartogr\u00e1fico de campo 2016 por KG."}}, {"type": "node", "id": 4458179001, "lat": -33.508945, "lon": -70.7581719, "tags": {"addr:street": "Chacabuco", "amenity": "restaurant", "name": "Golden", "source": "Reconocimiento cartogr\u00e1fico de campo 2016 por KG."}}, {"type": "node", "id": 4458179007, "lat": -33.5089022, "lon": -70.7585438, "tags": {"addr:street": "Chacabuco", "amenity": "restaurant", "name": "Lomitos", "source": "Reconocimiento cartogr\u00e1fico de campo 2016 por KG."}}, {"type": "node", "id": 4458225679, "lat": -33.519879, "lon": -70.7953015, "tags": {"amenity": "restaurant", "name": "Restaurant Sol", "source": "Reconocimiento cartogr\u00e1fico 2016 por KG"}}, {"type": "node", "id": 4458252505, "lat": -33.4698907, "lon": -70.7479074, "tags": {"source": "Reconocimiento cartogr\u00e1fico 2016 por KG."}}, {"type": "node", "id": 4458252506, "lat": -33.4697877, "lon": -70.7478997, "tags": {"source": "Reconocimiento cartogr\u00e1fico 2016 por KG."}}, {"type": "node", "id": 4458252507, "lat": -33.4697942, "lon": -70.7477744, "tags": {"source": "Reconocimiento cartogr\u00e1fico 2016 por KG."}}, {"type": "node", "id": 4458252508, "lat": -33.4698972, "lon": -70.7477821, "tags": {"source": "Reconocimiento cartogr\u00e1fico 2016 por KG."}}, {"type": "node", "id": 4458279836, "lat": -33.5308183, "lon": -70.7928378, "tags": {"amenity": "restaurant", "name": "Tele Chino", "source": "Reconocimiento cartogr\u00e1fico 2016 por KG"}}, {"type": "node", "id": 4458319664, "lat": -33.5184273, "lon": -70.7878619, "tags": {"amenity": "restaurant", "name": "Sushi Ryu", "source": "Reconocimiento cartogr\u00e1fico 2016 por KG"}}, {"type": "node", "id": 4458520730, "lat": -33.522779, "lon": -70.7972173, "tags": {"source": "Reconocimiento cartogr\u00e1fico 2016 por KG"}}, {"type": "node", "id": 4458520731, "lat": -33.522889, "lon": -70.7972107, "tags": {"source": "Reconocimiento cartogr\u00e1fico 2016 por KG"}}, {"type": "node", "id": 4458520732, "lat": -33.5228843, "lon": -70.7970986, "tags": {"source": "Reconocimiento cartogr\u00e1fico 2016 por KG"}}, {"type": "node", "id": 4458520733, "lat": -33.5227743, "lon": -70.7971052, "tags": {"source": "Reconocimiento cartogr\u00e1fico 2016 por KG"}}, {"type": "node", "id": 4462108800, "lat": -33.5099991, "lon": -70.7752927, "tags": {"addr:street": "Avenida El Olimpo", "amenity": "restaurant", "name": "Pollo a las Brasas", "source": "Reconocimiento cartogr\u00e1fico de campo 2016 por KG."}}, {"type": "node", "id": 4462153581, "lat": -33.5091299, "lon": -70.758519}, {"type": "node", "id": 4462153582, "lat": -33.5092754, "lon": -70.758517}, {"type": "node", "id": 4462153583, "lat": -33.5092741, "lon": -70.758388}, {"type": "node", "id": 4462153584, "lat": -33.5091286, "lon": -70.75839}, {"type": "node", "id": 4462153585, "lat": -33.5091714, "lon": -70.7585179}, {"type": "node", "id": 4462323261, "lat": -33.5291466, "lon": -70.7715356, "tags": {"amenity": "restaurant", "name": "Churrasqueria El Sur", "source": "Reconocimiento cartogr\u00e1fico 2016 por KG"}}, {"type": "node", "id": 4462403032, "lat": -33.5145279, "lon": -70.7757039, "tags": {"amenity": "restaurant", "name": "Mei Wei Qlan", "source": "Reconocimiento cartogr\u00e1fico 2016 por KG"}}, {"type": "node", "id": 4463742797, "lat": -33.5010839, "lon": -70.7601171, "tags": {"source": "Reconocimiento cortogr\u00e1fico de campo 2016 por KG"}}, {"type": "node", "id": 4463742798, "lat": -33.5011918, "lon": -70.7601129, "tags": {"source": "Reconocimiento cortogr\u00e1fico de campo 2016 por KG"}}, {"type": "node", "id": 4463742799, "lat": -33.5011891, "lon": -70.7600122, "tags": {"source": "Reconocimiento cortogr\u00e1fico de campo 2016 por KG"}}, {"type": "node", "id": 4463742800, "lat": -33.5010812, "lon": -70.7600164, "tags": {"source": "Reconocimiento cortogr\u00e1fico de campo 2016 por KG"}}, {"type": "node", "id": 4465020237, "lat": -33.5092029, "lon": -70.7529352, "tags": {"source": "Reconocimiento cortogr\u00e1fico de campo 2016 por KG"}}, {"type": "node", "id": 4465020238, "lat": -33.5092691, "lon": -70.7529393, "tags": {"source": "Reconocimiento cortogr\u00e1fico de campo 2016 por KG"}}, {"type": "node", "id": 4465020239, "lat": -33.5092747, "lon": -70.75281, "tags": {"source": "Reconocimiento cortogr\u00e1fico de campo 2016 por KG"}}, {"type": "node", "id": 4465020240, "lat": -33.5092084, "lon": -70.752806, "tags": {"source": "Reconocimiento cortogr\u00e1fico de campo 2016 por KG"}}, {"type": "node", "id": 4465020256, "lat": -33.5069909, "lon": -70.7527658, "tags": {"amenity": "restaurant", "name": "Sabor Buffet", "source": "Reconocimiento cortogr\u00e1fico de campo 2016 por KG"}}, {"type": "node", "id": 4465145451, "lat": -33.5277183, "lon": -70.7747454, "tags": {"source": "Reconocimiento cartogr\u00e1fico 2016 por KG"}}, {"type": "node", "id": 4465145452, "lat": -33.5277161, "lon": -70.7746411, "tags": {"source": "Reconocimiento cartogr\u00e1fico 2016 por KG"}}, {"type": "node", "id": 4465145453, "lat": -33.5275625, "lon": -70.7746459, "tags": {"source": "Reconocimiento cartogr\u00e1fico 2016 por KG"}}, {"type": "node", "id": 4465145454, "lat": -33.5275648, "lon": -70.7747502, "tags": {"source": "Reconocimiento cartogr\u00e1fico 2016 por KG"}}, {"type": "node", "id": 4465145460, "lat": -33.526328, "lon": -70.7735247, "tags": {"source": "Reconocimiento cartogr\u00e1fico 2016 por KG"}}, {"type": "node", "id": 4465145461, "lat": -33.5264111, "lon": -70.7735173, "tags": {"source": "Reconocimiento cartogr\u00e1fico 2016 por KG"}}, {"type": "node", "id": 4465145462, "lat": -33.5264023, "lon": -70.7733728, "tags": {"source": "Reconocimiento cartogr\u00e1fico 2016 por KG"}}, {"type": "node", "id": 4465145463, "lat": -33.5263191, "lon": -70.7733801, "tags": {"source": "Reconocimiento cartogr\u00e1fico 2016 por KG"}}, {"type": "node", "id": 4465325828, "lat": -33.5088681, "lon": -70.7608249, "tags": {"source": "Reconocimiento cortogr\u00e1fico de campo 2016 por KG"}}, {"type": "node", "id": 4465325829, "lat": -33.5088675, "lon": -70.7607125, "tags": {"source": "Reconocimiento cortogr\u00e1fico de campo 2016 por KG"}}, {"type": "node", "id": 4465325830, "lat": -33.5089578, "lon": -70.7607119, "tags": {"source": "Reconocimiento cortogr\u00e1fico de campo 2016 por KG"}}, {"type": "node", "id": 4465325831, "lat": -33.5089584, "lon": -70.7608242, "tags": {"source": "Reconocimiento cortogr\u00e1fico de campo 2016 por KG"}}, {"type": "node", "id": 4465368034, "lat": -33.511556, "lon": -70.7570799, "tags": {"amenity": "restaurant", "name": "Brugge", "source": "Reconocimiento cortogr\u00e1fico de campo 2016 por KG"}}, {"type": "node", "id": 4465368036, "lat": -33.5118382, "lon": -70.7579065, "tags": {"source": "Reconocimiento cortogr\u00e1fico de campo 2016 por KG"}}, {"type": "node", "id": 4465368041, "lat": -33.5117378, "lon": -70.7579078, "tags": {"source": "Reconocimiento cortogr\u00e1fico de campo 2016 por KG"}}, {"type": "node", "id": 4465368042, "lat": -33.511739, "lon": -70.7580419, "tags": {"source": "Reconocimiento cortogr\u00e1fico de campo 2016 por KG"}}, {"type": "node", "id": 4465368043, "lat": -33.5118403, "lon": -70.7580395, "tags": {"source": "Reconocimiento cortogr\u00e1fico de campo 2016 por KG"}}, {"type": "node", "id": 4465368044, "lat": -33.5117847, "lon": -70.7580407, "tags": {"source": "Reconocimiento cortogr\u00e1fico de campo 2016 por KG"}}, {"type": "node", "id": 4465381497, "lat": -33.5117712, "lon": -70.7591338, "tags": {"source": "Reconocimiento cortogr\u00e1fico de campo 2016 por KG"}}, {"type": "node", "id": 4465381498, "lat": -33.51177, "lon": -70.7590456, "tags": {"source": "Reconocimiento cortogr\u00e1fico de campo 2016 por KG"}}, {"type": "node", "id": 4465381499, "lat": -33.5118279, "lon": -70.7590445, "tags": {"source": "Reconocimiento cortogr\u00e1fico de campo 2016 por KG"}}, {"type": "node", "id": 4465381500, "lat": -33.5118291, "lon": -70.7591326, "tags": {"source": "Reconocimiento cortogr\u00e1fico de campo 2016 por KG"}}, {"type": "node", "id": 4465426453, "lat": -33.5208042, "lon": -70.7600371, "tags": {"source": "Reconocimiento cartogr\u00e1fico 2016 por KG"}}, {"type": "node", "id": 4465426454, "lat": -33.5208033, "lon": -70.759941, "tags": {"source": "Reconocimiento cartogr\u00e1fico 2016 por KG"}}, {"type": "node", "id": 4465426455, "lat": -33.5207066, "lon": -70.7599423, "tags": {"source": "Reconocimiento cartogr\u00e1fico 2016 por KG"}}, {"type": "node", "id": 4465426456, "lat": -33.5207075, "lon": -70.7600384, "tags": {"source": "Reconocimiento cartogr\u00e1fico 2016 por KG"}}, {"type": "node", "id": 4465503264, "lat": -33.5209892, "lon": -70.757671, "tags": {"source": "Reconocimiento cartogr\u00e1fico 2016 por KG"}}, {"type": "node", "id": 4465503265, "lat": -33.5210565, "lon": -70.7576686, "tags": {"source": "Reconocimiento cartogr\u00e1fico 2016 por KG"}}, {"type": "node", "id": 4465503266, "lat": -33.5210533, "lon": -70.7575388, "tags": {"source": "Reconocimiento cartogr\u00e1fico 2016 por KG"}}, {"type": "node", "id": 4465503267, "lat": -33.520986, "lon": -70.7575412, "tags": {"source": "Reconocimiento cartogr\u00e1fico 2016 por KG"}}, {"type": "node", "id": 4465519159, "lat": -33.5251618, "lon": -70.7632598, "tags": {"amenity": "restaurant", "source": "Reconocimiento cartogr\u00e1fico 2016 por KG"}}, {"type": "node", "id": 4465519171, "lat": -33.525079, "lon": -70.765463, "tags": {"amenity": "restaurant", "name": "Comida China", "source": "Reconocimiento cartogr\u00e1fico 2016 por KG"}}, {"type": "node", "id": 4465519172, "lat": -33.5250754, "lon": -70.765396, "tags": {"amenity": "restaurant", "name": "Fuku Sushi", "source": "Reconocimiento cartogr\u00e1fico 2016 por KG"}}, {"type": "node", "id": 4465562863, "lat": -33.5165399, "lon": -70.758667, "tags": {"amenity": "restaurant", "name": "Restaurant Chai Yun", "source": "Reconocimiento cartogr\u00e1fico 2016 por KG"}}, {"type": "node", "id": 4465579656, "lat": -33.5176003, "lon": -70.7650456, "tags": {"amenity": "restaurant", "name": "Donde Jaime", "source": "Reconocimiento cartogr\u00e1fico 2016 por KG"}}, {"type": "node", "id": 4466582310, "lat": -33.5111475, "lon": -70.7555895, "tags": {"amenity": "restaurant", "name": "El Rico", "source": "Reconocimiento cartogr\u00e1fico 2016 por KG"}}, {"type": "node", "id": 4466657756, "lat": -33.5172243, "lon": -70.7555319, "tags": {"amenity": "restaurant", "name": "Sushi Moto", "source": "Reconocimiento cartogr\u00e1fico 2016 por KG"}}, {"type": "node", "id": 4466702594, "lat": -33.5165436, "lon": -70.7633134, "tags": {"amenity": "restaurant", "source": "Reconocimiento cartogr\u00e1fico 2016 por KG"}}, {"type": "node", "id": 4466702596, "lat": -33.5168672, "lon": -70.7633594, "tags": {"source": "Reconocimiento cartogr\u00e1fico 2016 por KG"}}, {"type": "node", "id": 4466702597, "lat": -33.5169748, "lon": -70.7633601, "tags": {"source": "Reconocimiento cartogr\u00e1fico 2016 por KG"}}, {"type": "node", "id": 4466702598, "lat": -33.5169754, "lon": -70.7632182, "tags": {"source": "Reconocimiento cartogr\u00e1fico 2016 por KG"}}, {"type": "node", "id": 4466702599, "lat": -33.5168678, "lon": -70.7632176, "tags": {"source": "Reconocimiento cartogr\u00e1fico 2016 por KG"}}, {"type": "node", "id": 4466771100, "lat": -33.5248799, "lon": -70.7632332, "tags": {"amenity": "restaurant", "name": "Mavi Sushi", "source": "Reconocimiento cartogr\u00e1fico 2016 por KG"}}, {"type": "node", "id": 4466864901, "lat": -33.4986704, "lon": -70.745062}, {"type": "node", "id": 4466864902, "lat": -33.4987094, "lon": -70.7450714}, {"type": "node", "id": 4466864903, "lat": -33.4987255, "lon": -70.7449759}, {"type": "node", "id": 4466864905, "lat": -33.4985796, "lon": -70.7449405}, {"type": "node", "id": 4466864906, "lat": -33.4985537, "lon": -70.7450938}, {"type": "node", "id": 4466864907, "lat": -33.4986154, "lon": -70.7451088}, {"type": "node", "id": 4466864908, "lat": -33.49862, "lon": -70.7450811}, {"type": "node", "id": 4466864909, "lat": -33.4986653, "lon": -70.7450922}, {"type": "node", "id": 4466864946, "lat": -33.5052986, "lon": -70.7529088, "tags": {"addr:street": "Primera Transversal", "amenity": "restaurant", "cuisine": "sushi", "delivery": "yes", "name": "Sushi Hai", "source": "Reconocimiento cartogr\u00e1fico 2016 por KG."}}, {"type": "node", "id": 4467082019, "lat": -33.4989407, "lon": -70.7643632, "tags": {"amenity": "restaurant", "cuisine": "chinese", "name": "Pan Long Ge", "source": "Reconocimiento cortogr\u00e1fico de campo 2016 por KG"}}, {"type": "node", "id": 4468392377, "lat": -33.4733641, "lon": -70.7229361, "tags": {"amenity": "restaurant", "name": "Sabores de China", "source": "Reconocimiento cartogr\u00e1fico 2016 por KG"}}, {"type": "node", "id": 4468489899, "lat": -33.4897869, "lon": -70.7428763, "tags": {"source": "Reconocimiento cartogr\u00e1fico 2016 por KG"}}, {"type": "node", "id": 4468489900, "lat": -33.4897895, "lon": -70.7427754, "tags": {"source": "Reconocimiento cartogr\u00e1fico 2016 por KG"}}, {"type": "node", "id": 4468489901, "lat": -33.4897545, "lon": -70.7427741, "tags": {"source": "Reconocimiento cartogr\u00e1fico 2016 por KG"}}, {"type": "node", "id": 4468489902, "lat": -33.4897439, "lon": -70.7428475, "tags": {"source": "Reconocimiento cartogr\u00e1fico 2016 por KG"}}, {"type": "node", "id": 4468658155, "lat": -33.4945513, "lon": -70.7438834, "tags": {"amenity": "restaurant", "name": "Hui Feng", "source": "Reconocimiento cartogr\u00e1fico 2016 por KG"}}, {"type": "node", "id": 4468683276, "lat": -33.4964063, "lon": -70.748565, "tags": {"amenity": "restaurant", "name": "Xing Hua", "source": "Reconocimiento cartogr\u00e1fico 2016 por KG"}}, {"type": "node", "id": 4468683278, "lat": -33.4961297, "lon": -70.7516188, "tags": {"amenity": "restaurant", "name": "High Wha", "source": "Reconocimiento cartogr\u00e1fico 2016 por KG"}}, {"type": "node", "id": 4468683279, "lat": -33.495611, "lon": -70.7586546, "tags": {"amenity": "restaurant", "name": "Domo Sushi", "source": "Reconocimiento cartogr\u00e1fico 2016 por KG"}}, {"type": "node", "id": 4468702330, "lat": -33.5115528, "lon": -70.7470928}, {"type": "node", "id": 4468702331, "lat": -33.5116231, "lon": -70.7470924}, {"type": "node", "id": 4468702332, "lat": -33.5116226, "lon": -70.7469536}, {"type": "node", "id": 4468702333, "lat": -33.5115522, "lon": -70.746954}, {"type": "node", "id": 4468702334, "lat": -33.5111404, "lon": -70.7470347}, {"type": "node", "id": 4468702335, "lat": -33.5112394, "lon": -70.7470408}, {"type": "node", "id": 4468702336, "lat": -33.5112426, "lon": -70.7469674}, {"type": "node", "id": 4468702337, "lat": -33.5111436, "lon": -70.7469612}, {"type": "node", "id": 4469010541, "lat": -33.5037561, "lon": -70.7523543, "tags": {"addr:street": "Primera Transversal", "amenity": "restaurant", "cuisine": "italian", "name": "Maruzzella", "source": "Reconocimiento cartogr\u00e1fico 2016 por KG."}}, {"type": "node", "id": 4469012620, "lat": -33.4732798, "lon": -70.7316725, "tags": {"source": "Reconocimiento cartogr\u00e1fico 2016 por KG."}}, {"type": "node", "id": 4469012621, "lat": -33.4732814, "lon": -70.7315652, "tags": {"source": "Reconocimiento cartogr\u00e1fico 2016 por KG."}}, {"type": "node", "id": 4469012622, "lat": -33.4733583, "lon": -70.7315669, "tags": {"source": "Reconocimiento cartogr\u00e1fico 2016 por KG."}}, {"type": "node", "id": 4469012623, "lat": -33.4733567, "lon": -70.7316741, "tags": {"source": "Reconocimiento cartogr\u00e1fico 2016 por KG."}}, {"type": "node", "id": 4469032204, "lat": -33.4816186, "lon": -70.7364055, "tags": {"source": "Reconocimiento cartogr\u00e1fico 2016 por KG."}}, {"type": "node", "id": 4469032205, "lat": -33.4815929, "lon": -70.736325, "tags": {"source": "Reconocimiento cartogr\u00e1fico 2016 por KG."}}, {"type": "node", "id": 4469032206, "lat": -33.4815147, "lon": -70.736361, "tags": {"source": "Reconocimiento cartogr\u00e1fico 2016 por KG."}}, {"type": "node", "id": 4469032207, "lat": -33.4815405, "lon": -70.7364414, "tags": {"source": "Reconocimiento cartogr\u00e1fico 2016 por KG."}}, {"type": "node", "id": 4469282499, "lat": -33.4759103, "lon": -70.7410217, "tags": {"source": "Reconocimiento cortogr\u00e1fico de campo 2016 por KG"}}, {"type": "node", "id": 4469282500, "lat": -33.475791, "lon": -70.7409392, "tags": {"source": "Reconocimiento cortogr\u00e1fico de campo 2016 por KG"}}, {"type": "node", "id": 4469282501, "lat": -33.4756856, "lon": -70.7411501, "tags": {"source": "Reconocimiento cortogr\u00e1fico de campo 2016 por KG"}}, {"type": "node", "id": 4469282502, "lat": -33.4758059, "lon": -70.7412366, "tags": {"source": "Reconocimiento cortogr\u00e1fico de campo 2016 por KG"}}, {"type": "node", "id": 4469282503, "lat": -33.475864, "lon": -70.7411179, "tags": {"source": "Reconocimiento cortogr\u00e1fico de campo 2016 por KG"}}, {"type": "node", "id": 4469282511, "lat": -33.4762798, "lon": -70.7414863, "tags": {"source": "Reconocimiento cortogr\u00e1fico de campo 2016 por KG"}}, {"type": "node", "id": 4469282512, "lat": -33.4763157, "lon": -70.741345, "tags": {"source": "Reconocimiento cortogr\u00e1fico de campo 2016 por KG"}}, {"type": "node", "id": 4469282513, "lat": -33.4764328, "lon": -70.7413878, "tags": {"source": "Reconocimiento cortogr\u00e1fico de campo 2016 por KG"}}, {"type": "node", "id": 4469282514, "lat": -33.4763968, "lon": -70.7415291, "tags": {"source": "Reconocimiento cortogr\u00e1fico de campo 2016 por KG"}}, {"type": "node", "id": 4469282515, "lat": -33.4768763, "lon": -70.7417587, "tags": {"source": "Reconocimiento cortogr\u00e1fico de campo 2016 por KG"}}, {"type": "node", "id": 4469282516, "lat": -33.4768676, "lon": -70.7418768, "tags": {"source": "Reconocimiento cortogr\u00e1fico de campo 2016 por KG"}}, {"type": "node", "id": 4469282517, "lat": -33.4769334, "lon": -70.7418838, "tags": {"source": "Reconocimiento cortogr\u00e1fico de campo 2016 por KG"}}, {"type": "node", "id": 4469282518, "lat": -33.4769421, "lon": -70.7417657, "tags": {"source": "Reconocimiento cortogr\u00e1fico de campo 2016 por KG"}}, {"type": "node", "id": 4469388335, "lat": -33.4732485, "lon": -70.7484035, "tags": {"addr:street": "Avenida Longitudinal", "amenity": "restaurant", "name": "Pollo Asados", "source": "Reconocimiento cartogr\u00e1fico 2016 por KG."}}, {"type": "node", "id": 4472915923, "lat": -33.496038, "lon": -70.7566133, "tags": {"source": "Reconocimiento cartogr\u00e1fico 2016 por KG"}}, {"type": "node", "id": 4472915924, "lat": -33.4960399, "lon": -70.7565323, "tags": {"source": "Reconocimiento cartogr\u00e1fico 2016 por KG"}}, {"type": "node", "id": 4472915925, "lat": -33.4959182, "lon": -70.7565282, "tags": {"source": "Reconocimiento cartogr\u00e1fico 2016 por KG"}}, {"type": "node", "id": 4472915926, "lat": -33.4959162, "lon": -70.7566092, "tags": {"source": "Reconocimiento cartogr\u00e1fico 2016 por KG"}}, {"type": "node", "id": 4473814551, "lat": -33.4924911, "lon": -70.7389712}, {"type": "node", "id": 4473814552, "lat": -33.4925479, "lon": -70.7389534}, {"type": "node", "id": 4473814553, "lat": -33.4925359, "lon": -70.7388983}, {"type": "node", "id": 4473814554, "lat": -33.4924791, "lon": -70.7389162}, {"type": "node", "id": 4473975797, "lat": -33.4969502, "lon": -70.7366406}, {"type": "node", "id": 4473975798, "lat": -33.4969896, "lon": -70.7366492}, {"type": "node", "id": 4473975799, "lat": -33.4969827, "lon": -70.7366947}, {"type": "node", "id": 4473975800, "lat": -33.4969432, "lon": -70.7366861}, {"type": "node", "id": 4473975801, "lat": -33.4962744, "lon": -70.7365408}, {"type": "node", "id": 4473975802, "lat": -33.4962856, "lon": -70.7364782}, {"type": "node", "id": 4473975803, "lat": -33.4963326, "lon": -70.7364903}, {"type": "node", "id": 4473975804, "lat": -33.4963215, "lon": -70.7365529}, {"type": "node", "id": 4474120205, "lat": -33.4717522, "lon": -70.7365637}, {"type": "node", "id": 4474120206, "lat": -33.4718825, "lon": -70.7364294}, {"type": "node", "id": 4474120207, "lat": -33.471799, "lon": -70.7363129}, {"type": "node", "id": 4474120208, "lat": -33.4716686, "lon": -70.7364472}, {"type": "node", "id": 4474297618, "lat": -33.474307, "lon": -70.7227974, "tags": {"source": "Reconocimiento cartogr\u00e1fico 2016 por KG."}}, {"type": "node", "id": 4474297619, "lat": -33.4743454, "lon": -70.7227434, "tags": {"source": "Reconocimiento cartogr\u00e1fico 2016 por KG."}}, {"type": "node", "id": 4474297620, "lat": -33.4744383, "lon": -70.7227634, "tags": {"source": "Reconocimiento cartogr\u00e1fico 2016 por KG."}}, {"type": "node", "id": 4474297621, "lat": -33.474424, "lon": -70.7228635, "tags": {"source": "Reconocimiento cartogr\u00e1fico 2016 por KG."}}, {"type": "node", "id": 4474297622, "lat": -33.4743677, "lon": -70.7228917, "tags": {"source": "Reconocimiento cartogr\u00e1fico 2016 por KG."}}, {"type": "node", "id": 4474323372, "lat": -33.4761153, "lon": -70.7309163, "tags": {"addr:street": "Avenida Las Torres", "amenity": "restaurant", "cuisine": "chinese", "name": "Cao Sheng", "source": "Reconocimiento cartogr\u00e1fico 2016 por KG."}}, {"type": "node", "id": 4589505662, "lat": -33.5663988, "lon": -70.7803373, "tags": {"addr:street": "Lago Carezza 1877", "amenity": "restaurant", "delivery": "1.000", "description": "Comida china cantonesa y sushi para llevar", "name": "Fuh Yi", "phone": "225046297", "service_times": "11:30 24:00"}}, {"type": "node", "id": 4903025859, "lat": -33.4811705, "lon": -70.7556577}, {"type": "node", "id": 5261006839, "lat": -33.4780591, "lon": -70.741146, "tags": {"amenity": "restaurant", "name": "Sushi"}}, {"type": "node", "id": 5329431924, "lat": -33.4761335, "lon": -70.7315878, "tags": {"amenity": "restaurant", "cuisine": "pizza"}}, {"type": "node", "id": 5579096222, "lat": -33.4632799, "lon": -70.7640862, "tags": {"addr:street": "Camino Casas Viejas", "amenity": "restaurant"}}, {"type": "node", "id": 5788208344, "lat": -33.5074177, "lon": -70.7599119, "tags": {"addr:city": "Maip\u00fa", "addr:housenumber": "2135", "addr:street": "Manuel Rodr\u00edguez", "amenity": "restaurant", "capacity": "50", "cuisine": "regional", "level": "1", "name": "La Casona", "outdoor_seating": "yes", "smoking": "outside", "takeaway": "no", "wheelchair": "no"}}, {"type": "node", "id": 6474825869, "lat": -33.4963677, "lon": -70.7518528}, {"type": "node", "id": 6474825870, "lat": -33.4965957, "lon": -70.7518707}, {"type": "node", "id": 6474825871, "lat": -33.496612, "lon": -70.7516348}, {"type": "node", "id": 6474825872, "lat": -33.4963732, "lon": -70.7516153}, {"type": "node", "id": 7891495901, "lat": -33.4811306, "lon": -70.7556065}, {"type": "node", "id": 7891495902, "lat": -33.4811029, "lon": -70.7556515}, {"type": "node", "id": 7891495903, "lat": -33.4811419, "lon": -70.7557033}, {"type": "node", "id": 8121397485, "lat": -33.4909361, "lon": -70.7701807}, {"type": "node", "id": 8121397487, "lat": -33.4908381, "lon": -70.7701383}, {"type": "node", "id": 8121397489, "lat": -33.4908643, "lon": -70.770051}, {"type": "node", "id": 8121397490, "lat": -33.4909985, "lon": -70.770109}, {"type": "node", "id": 8121397491, "lat": -33.4909867, "lon": -70.7701482}, {"type": "node", "id": 8121397492, "lat": -33.4909506, "lon": -70.7701325}, {"type": "node", "id": 8244791151, "lat": -33.561443, "lon": -70.7592051, "tags": {"amenity": "restaurant", "contact:facebook": "https://facebook.com/laplanchasandwich/", "name": "La Plancha"}}, {"type": "node", "id": 9099224535, "lat": -33.4980939, "lon": -70.7572773, "tags": {"amenity": "restaurant", "cuisine": "sandwich", "name": "Hamburgueser\u00eda Minimal"}}, {"type": "node", "id": 9978873492, "lat": -33.5098065, "lon": -70.7756874}, {"type": "node", "id": 9978873493, "lat": -33.5096826, "lon": -70.7756943}, {"type": "node", "id": 9978873494, "lat": -33.5096728, "lon": -70.7757122}, {"type": "node", "id": 9978873495, "lat": -33.5096783, "lon": -70.7758551}, {"type": "node", "id": 9978873496, "lat": -33.5097889, "lon": -70.7758489}, {"type": "node", "id": 9978873497, "lat": -33.5097883, "lon": -70.7758324}, {"type": "node", "id": 9978873498, "lat": -33.5098012, "lon": -70.7758317}, {"type": "node", "id": 9978873499, "lat": -33.5097986, "lon": -70.7757649}, {"type": "node", "id": 9978873500, "lat": -33.5098095, "lon": -70.7757643}, {"type": "node", "id": 10054673636, "lat": -33.5161077, "lon": -70.7452394}, {"type": "node", "id": 10054673637, "lat": -33.5160939, "lon": -70.7451557}, {"type": "node", "id": 10054673638, "lat": -33.5160104, "lon": -70.7451506}, {"type": "node", "id": 10054673639, "lat": -33.5160069, "lon": -70.7452332}, {"type": "node", "id": 10054673640, "lat": -33.5160922, "lon": -70.7451957}, {"type": "node", "id": 10054673641, "lat": -33.5161095, "lon": -70.7451968}, {"type": "node", "id": 10900898096, "lat": -33.4897432, "lon": -70.7428747}, {"type": "node", "id": 10900898097, "lat": -33.4897101, "lon": -70.7428463}, {"type": "node", "id": 10900898098, "lat": -33.4897118, "lon": -70.742783}, {"type": "node", "id": 10900898099, "lat": -33.4897543, "lon": -70.7427846}, {"type": "node", "id": 11273588899, "lat": -33.5058204, "lon": -70.752875, "tags": {"addr:city": "Maip\u00fa", "addr:housenumber": "2280", "addr:postcode": "9250000", "addr:street": "Primera Transversal", "amenity": "restaurant", "cuisine": "coffee_shop", "diet:local": "yes", "name": "Cerezos Desayunos a Domicilio", "opening_hours": "Mo-Su 09:00-20:00", "phone": "+56229380764", "website": "https://cerezosdesayunos.cl/desayunos-a-domicilio-maipu/"}}, {"type": "node", "id": 11727112815, "lat": -33.5617629, "lon": -70.7851052, "tags": {"addr:city": "Maip\u00fa", "addr:housenumber": "1231", "addr:postcode": "9280931", "addr:street": "Avenida Parque Central Oriente", "amenity": "restaurant", "contact:instagram": "https://www.instagram.com/akasushiburger/", "cuisine": "sushi;burger", "diet:chicken": "yes", "diet:meat": "yes", "diet:rice": "yes", "diet:salad": "yes", "diet:vegetarian": "yes", "name": "AKA Sushi & Burger", "opening_hours": "Mo-Su 13:00-22:00", "payment:american_express": "yes", "payment:cards": "yes", "payment:cash": "yes", "payment:contactless": "yes", "payment:credit_cards": "yes", "payment:debit_cards": "yes", "payment:diners_club": "yes", "payment:discover_card": "yes", "payment:maestro": "yes", "payment:mastercard": "yes", "payment:telephone_cards": "yes", "payment:visa": "yes", "payment:visa_electron": "yes", "phone": "+56920193948", "takeaway": "only"}}, {"type": "node", "id": 12109753008, "lat": -33.4814001, "lon": -70.7522038, "tags": {"amenity": "restaurant", "brand": "Chili's", "brand:wikidata": "Q1072948", "cuisine": "tex-mex", "name": "Chili's", "official_name": "Chili's Grill & Bar"}}, {"type": "node", "id": 12582922574, "lat": -33.5235867, "lon": -70.733507, "tags": {"amenity": "restaurant", "brand": "Pizza Hut", "brand:wikidata": "Q191615", "cuisine": "pizza", "name": "Pizza Hut"}}, {"type": "way", "id": 264213643, "nodes": [2698760713, 2698760772, 2698760746, 2698760717, 2698760713], "tags": {"amenity": "restaurant", "building": "yes"}}, {"type": "way", "id": 264213645, "nodes": [2698760746, 2698760749, 2698760741, 2698760717, 2698760746], "tags": {"amenity": "restaurant", "building": "yes"}}, {"type": "way", "id": 446900067, "nodes": [4441197302, 4441197303, 4441197304, 4441197305, 4441197306, 4441197307, 4441197308, 4441197309, 4441197302], "tags": {"addr:city": "Maip\u00fa", "addr:housenumber": "348", "addr:street": "Avenida Central Gonzalo P\u00e9rez Llona", "amenity": "restaurant", "building": "yes", "cuisine": "regional", "name": "Restaurante Amaia", "phone": "+569 5266 3958", "source": "Reconocimiento cortogr\u00e1fico de campo 2016 por KG"}}, {"type": "way", "id": 446900075, "nodes": [4441197329, 4441197330, 4441197331, 4441197332, 4441197333, 4441197334, 4441197329], "tags": {"amenity": "restaurant", "building": "yes", "name": "Sang\u00fccheria", "source": "Reconocimiento cortogr\u00e1fico de campo 2016 por KG"}}, {"type": "way", "id": 447611630, "nodes": [4446979502, 4446979503, 4446979504, 4446979505, 4446979502], "tags": {"addr:street": "Camino San Alberto Hurtado", "amenity": "restaurant", "building": "yes", "name": "Pasteleria Alemana", "source": "Reconocimiento cartogr\u00e1fico 2016 por KG."}}, {"type": "way", "id": 447715165, "nodes": [4447816746, 4447816747, 4447816748, 4447816749, 4447816746], "tags": {"addr:city": "Cerrillos", "addr:street": "Camino a Melipilla", "amenity": "restaurant", "building": "yes", "name": "La Pica de Anita Maria", "source": "Reconocimiento cartogr\u00e1fico 2016 por KG."}}, {"type": "way", "id": 448222554, "nodes": [4452572050, 4452572051, 4452572052, 4452572053, 4452572050], "tags": {"amenity": "restaurant", "building": "yes", "name": "Heng-Fa", "source": "Reconocimiento cartogr\u00e1fico 2016 por KG."}}, {"type": "way", "id": 448416363, "nodes": [4454237589, 4454237590, 4454237591, 4454237592, 4454237589], "tags": {"amenity": "restaurant", "building": "yes", "name": "Per\u00fa House", "source": "Reconocimiento cartogr\u00e1fico 2016 por KG."}}, {"type": "way", "id": 448570509, "nodes": [4455743697, 4455743698, 4455743699, 4455743700, 4455743697], "tags": {"addr:street": "Avenida El Rosal", "amenity": "restaurant", "building": "yes", "cuisine": "chinese;friture", "name": "Tong Xing", "source": "Reconocimiento cartogr\u00e1fico 2016 por KG."}}, {"type": "way", "id": 448717730, "nodes": [4457003433, 4457003434, 4457003435, 4457003436, 4457003440, 4457003433], "tags": {"addr:street": "Avenida Los Pajaritos", "amenity": "restaurant", "building": "yes", "cuisine": "sushi", "name": "Tao", "source": "Reconocimiento cartogr\u00e1fico 2016 por KG."}}, {"type": "way", "id": 448717731, "nodes": [4457003433, 4457003437, 4457003438, 4457003441, 4457003439, 4457003440, 4457003433], "tags": {"addr:street": "Avenida Los Pajaritos", "amenity": "restaurant", "building": "yes", "name": "Vittorio", "source": "Reconocimiento cartogr\u00e1fico 2016 por KG."}}, {"type": "way", "id": 448719188, "nodes": [4457015732, 4457015733, 4457015734, 4457015735, 4457015732], "tags": {"addr:street": "Avenida Los Pajaritos", "amenity": "restaurant", "building": "yes", "cuisine": "chinese", "name": "El Narciso", "source": "Reconocimiento cartogr\u00e1fico 2016 por KG."}}, {"type": "way", "id": 448720531, "nodes": [4457028144, 4457028145, 4457028146, 4457028147, 4457028144], "tags": {"addr:street": "Avenida Los Pajaritos", "amenity": "restaurant", "building": "yes", "name": "Palacio Oriental", "source": "Reconocimiento cartogr\u00e1fico 2016 por KG."}}, {"type": "way", "id": 448720532, "nodes": [4457028148, 4457028149, 4457028150, 4457028151, 4457028148], "tags": {"addr:street": "Avenida Los Pajaritos", "amenity": "restaurant", "building": "yes", "name": "Nueva China", "source": "Reconocimiento cartogr\u00e1fico 2016 por KG."}}, {"type": "way", "id": 448720540, "nodes": [4457028169, 4457028170, 4457028171, 4457028172, 4457028169], "tags": {"addr:street": "Avenida Los Pajaritos", "amenity": "restaurant", "building": "yes", "name": "Ayar Uchu", "source": "Reconocimiento cartogr\u00e1fico 2016 por KG."}}, {"type": "way", "id": 448735606, "nodes": [4457178997, 4457178998, 4457178999, 4457179000, 4457178997], "tags": {"addr:street": "Avenida Los Pajaritos", "amenity": "restaurant", "building": "yes", "fixme": "name", "source": "Reconocimiento cartogr\u00e1fico 2016 por KG."}}, {"type": "way", "id": 448738845, "nodes": [4457208617, 4457208618, 4457208619, 4457208621, 4457208620, 4457208617], "tags": {"addr:street": "Avenida Los Pajaritos", "amenity": "restaurant", "building": "yes", "name": "Wild West", "source": "Reconocimiento cartogr\u00e1fico 2016 por KG."}}, {"type": "way", "id": 448837224, "nodes": [4458124784, 4458124785, 4458124786, 4458124787, 4458124784], "tags": {"addr:street": "El Cid", "amenity": "restaurant", "building": "yes", "name": "El Regal\u00f3n Comida al Paso", "source": "Reconocimiento cartogr\u00e1fico 2016 por KG."}}, {"type": "way", "id": 448852009, "nodes": [4458252505, 4458252506, 4458252507, 4458252508, 4458252505], "tags": {"amenity": "restaurant", "building": "yes", "cuisine": "chinese", "fixme": "name", "source": "Reconocimiento cartogr\u00e1fico 2016 por KG."}}, {"type": "way", "id": 448880100, "nodes": [4458520730, 4458520731, 4458520732, 4458520733, 4458520730], "tags": {"amenity": "restaurant", "building": "yes", "name": "Restaurant Mei Hua", "source": "Reconocimiento cartogr\u00e1fico 2016 por KG"}}, {"type": "way", "id": 449244862, "nodes": [4462153581, 4462153585, 4462153582, 4462153583, 4462153584, 4462153581], "tags": {"addr:street": "Chacabuco", "amenity": "restaurant", "building": "yes", "name": "La Higuera", "source": "Reconocimiento cartogr\u00e1fico 2016 por KG."}}, {"type": "way", "id": 449416536, "nodes": [4463742797, 4463742798, 4463742799, 4463742800, 4463742797], "tags": {"amenity": "restaurant", "building": "yes", "cuisine": "chinese", "name": "Hong Yi", "source": "Reconocimiento cortogr\u00e1fico de campo 2016 por KG"}}, {"type": "way", "id": 449555890, "nodes": [4465020237, 4465020238, 4465020239, 4465020240, 4465020237], "tags": {"amenity": "restaurant", "building": "yes", "cuisine": "pizza", "name": "Pizza Alla Pietra", "source": "Reconocimiento cortogr\u00e1fico de campo 2016 por KG"}}, {"type": "way", "id": 449565162, "nodes": [4465145451, 4465145452, 4465145453, 4465145454, 4465145451], "tags": {"amenity": "restaurant", "building": "yes", "name": "Comida China Hui Wang", "source": "Reconocimiento cartogr\u00e1fico 2016 por KG"}}, {"type": "way", "id": 449565164, "nodes": [4465145460, 4465145461, 4465145462, 4465145463, 4465145460], "tags": {"amenity": "restaurant", "building": "yes", "name": "Bar - Restaurant Master", "source": "Reconocimiento cartogr\u00e1fico 2016 por KG"}}, {"type": "way", "id": 449581894, "nodes": [4465325828, 4465325829, 4465325830, 4465325831, 4465325828], "tags": {"amenity": "restaurant", "building": "yes", "cuisine": "sushi", "name": "Deka Sushi", "source": "Reconocimiento cortogr\u00e1fico de campo 2016 por KG"}}, {"type": "way", "id": 449586568, "nodes": [4465368036, 4465368041, 4465368042, 4465368044, 4465368043, 4465368036], "tags": {"amenity": "restaurant", "building": "yes", "fixme": "name", "source": "Reconocimiento cortogr\u00e1fico de campo 2016 por KG"}}, {"type": "way", "id": 449588167, "nodes": [4465381497, 4465381498, 4465381499, 4465381500, 4465381497], "tags": {"amenity": "restaurant", "building": "yes", "name": "Jard\u00edn Japones", "source": "Reconocimiento cortogr\u00e1fico de campo 2016 por KG"}}, {"type": "way", "id": 449592491, "nodes": [4465426453, 4465426454, 4465426455, 4465426456, 4465426453], "tags": {"amenity": "restaurant", "building": "yes", "name": "Comida China", "source": "Reconocimiento cartogr\u00e1fico 2016 por KG"}}, {"type": "way", "id": 449601499, "nodes": [4465503264, 4465503265, 4465503266, 4465503267, 4465503264], "tags": {"amenity": "restaurant", "building": "yes", "name": "Uragira", "source": "Reconocimiento cartogr\u00e1fico 2016 por KG"}}, {"type": "way", "id": 449733454, "nodes": [4466702596, 4466702597, 4466702598, 4466702599, 4466702596], "tags": {"amenity": "restaurant", "building": "yes", "source": "Reconocimiento cartogr\u00e1fico 2016 por KG"}}, {"type": "way", "id": 449750184, "nodes": [4466864901, 4466864902, 4466864903, 4466864905, 4466864906, 4466864907, 4466864908, 4466864909, 4466864901], "tags": {"addr:street": "Avenida Segunda Transversal", "amenity": "restaurant", "building": "yes", "cuisine": "chinese", "name": "Ti Chang", "source": "Reconocimiento cartogr\u00e1fico 2016 por KG."}}, {"type": "way", "id": 449928732, "nodes": [4468489899, 4468489900, 4468489901, 10900898099, 10900898098, 10900898097, 4468489902, 10900898096, 4468489899], "tags": {"amenity": "restaurant", "building": "yes", "name": "Shun Xing", "source": "Reconocimiento cartogr\u00e1fico 2016 por KG"}}, {"type": "way", "id": 449951495, "nodes": [4468702330, 4468702331, 4468702332, 4468702333, 4468702330], "tags": {"amenity": "restaurant", "building": "yes", "source": "Reconocimiento cartogr\u00e1fico de campo 2016 por KG"}}, {"type": "way", "id": 449951498, "nodes": [4468702334, 4468702335, 4468702336, 4468702337, 4468702334], "tags": {"amenity": "restaurant", "building": "yes", "name": "Ricec & Roll", "source": "Reconocimiento cartogr\u00e1fico de campo 2016 por KG"}}, {"type": "way", "id": 449984514, "nodes": [4469012620, 4469012621, 4469012622, 4469012623, 4469012620], "tags": {"addr:street": "Avenida Las Torres", "amenity": "restaurant", "building": "yes", "name": "Comida China", "source": "Reconocimiento cartogr\u00e1fico 2016 por KG."}}, {"type": "way", "id": 449986549, "nodes": [4469032204, 4469032205, 4469032206, 4469032207, 4469032204], "tags": {"addr:street": "Avenida Sim\u00f3n Bol\u00edvar", "amenity": "restaurant", "building": "yes", "name": "Yong Sheng", "source": "Reconocimiento cartogr\u00e1fico 2016 por KG."}}, {"type": "way", "id": 450010997, "nodes": [4469282499, 4469282500, 4469282501, 4469282502, 4469282503, 4469282499], "tags": {"amenity": "restaurant", "building": "yes", "cuisine": "chinese", "fixme": "name", "source": "Reconocimiento cortogr\u00e1fico de campo 2016 por KG"}}, {"type": "way", "id": 450010999, "nodes": [4469282511, 4469282512, 4469282513, 4469282514, 4469282511], "tags": {"amenity": "restaurant", "brand": "Pizza Hut", "brand:wikidata": "Q191615", "building": "yes", "cuisine": "pizza", "name": "Pizza Hut", "phone": "600 424 6000", "source": "Reconocimiento cortogr\u00e1fico de campo 2016 por KG"}}, {"type": "way", "id": 450011000, "nodes": [4469282515, 4469282516, 4469282517, 4469282518, 4469282515], "tags": {"amenity": "restaurant", "building": "yes", "name": "Restaurante Peruano", "source": "Reconocimiento cortogr\u00e1fico de campo 2016 por KG"}}, {"type": "way", "id": 450371533, "nodes": [4472915923, 4472915924, 4472915925, 4472915926, 4472915923], "tags": {"amenity": "restaurant", "building": "yes", "name": "Mano Santo", "source": "Reconocimiento cartogr\u00e1fico 2016 por KG"}}, {"type": "way", "id": 450457386, "nodes": [4473814551, 4473814552, 4473814553, 4473814554, 4473814551], "tags": {"addr:street": "Las Golondrinas", "amenity": "restaurant", "building": "yes", "cuisine": "chinese", "source": "Reconocimiento cartogr\u00e1fico de campo 2016 por KG"}}, {"type": "way", "id": 450472283, "nodes": [4473975797, 4473975798, 4473975799, 4473975800, 4473975797], "tags": {"addr:street": "Avenida Lumen", "amenity": "restaurant", "building": "yes", "name": "El Pollo Volantin", "source": "Reconocimiento cartogr\u00e1fico de campo 2016 por KG"}}, {"type": "way", "id": 450472284, "nodes": [4473975801, 4473975802, 4473975803, 4473975804, 4473975801], "tags": {"addr:street": "Avenida Lumen", "amenity": "restaurant", "building": "yes", "cuisine": "chinese", "name": "Zhen Xing Lou", "source": "Reconocimiento cartogr\u00e1fico de campo 2016 por KG"}}, {"type": "way", "id": 450484182, "nodes": [4474120205, 4474120206, 4474120207, 4474120208, 4474120205], "tags": {"amenity": "restaurant", "building": "yes", "name": "Mei Hua", "source": "Reconocimiento cartogr\u00e1fico de campo 2016 por KG"}}, {"type": "way", "id": 450499905, "nodes": [4474297618, 4474297619, 4474297620, 4474297621, 4474297622, 4474297618], "tags": {"addr:street": "Avenida Lo Err\u00e1zuriz", "amenity": "restaurant", "building": "yes", "name": "Marisquer\u00eda", "source": "Reconocimiento cartogr\u00e1fico 2016 por KG."}}, {"type": "way", "id": 690151452, "nodes": [6474825869, 6474825870, 6474825871, 6474825872, 6474825869], "tags": {"amenity": "restaurant", "building": "yes", "cuisine": "steak_house", "name": "El Bistro"}}, {"type": "way", "id": 845866550, "nodes": [4903025859, 7891495901, 7891495902, 7891495903, 4903025859], "tags": {"amenity": "restaurant", "building": "yes", "name": "punto y coma"}}, {"type": "way", "id": 871934569, "nodes": [8121397485, 8121397487, 8121397489, 8121397490, 8121397491, 8121397492, 8121397485], "tags": {"addr:city": "Maip\u00fa", "addr:housenumber": "1334", "addr:street": "Avenida La Farfana", "air_conditioning": "yes", "amenity": "restaurant", "building": "yes", "contact:facebook": "https://www.facebook.com/SushiTakeshiMaipu", "cuisine": "sandwich;sushi", "delivery": "yes", "diet:meat": "yes", "diet:vegetarian": "yes", "name": "Sushi Takeshi Duo", "takeaway": "yes"}}, {"type": "way", "id": 1089350090, "nodes": [9978873492, 9978873493, 9978873494, 9978873495, 9978873496, 9978873497, 9978873498, 9978873499, 9978873500, 9978873492], "tags": {"amenity": "restaurant", "building": "yes", "name": "Sabros\u00edsimo"}}, {"type": "way", "id": 1098106367, "nodes": [10054673636, 10054673641, 10054673640, 10054673637, 10054673638, 10054673639, 10054673636], "tags": {"addr:city": "Maip\u00fa", "addr:country": "CL", "addr:housenumber": "1234", "addr:street": "Cuatro \u00c1lamos", "amenity": "restaurant", "building": "yes", "cuisine": "sushi;peruvian", "fixme": "Correcciones masivas de nombres con may\u00fasculas", "name": "Inkasaki Sushi"}}]}