{"version": 0.6, "generator": "Overpass API 0.7.62.8 e802775f", "osm3s": {"timestamp_osm_base": "2025-08-31T22:36:00Z", "copyright": "The data included in this document is from www.openstreetmap.org. The data is made available under ODbL."}, "elements": [{"type": "node", "id": 353473081, "lat": -33.5498957, "lon": -70.5690952}, {"type": "node", "id": 353473720, "lat": -33.5453053, "lon": -70.5909747}, {"type": "node", "id": 353473723, "lat": -33.5453872, "lon": -70.5887526}, {"type": "node", "id": 353473725, "lat": -33.5460204, "lon": -70.5884525}, {"type": "node", "id": 353473729, "lat": -33.5460564, "lon": -70.5893611}, {"type": "node", "id": 353473732, "lat": -33.5462948, "lon": -70.5892893}, {"type": "node", "id": 353473734, "lat": -33.5462425, "lon": -70.5905421}, {"type": "node", "id": 353480914, "lat": -33.5627441, "lon": -70.569009, "tags": {"source": "Reconocimiento cartogr\u00e1fico 2016 por KG"}}, {"type": "node", "id": 906419240, "lat": -33.5689495, "lon": -70.6093278}, {"type": "node", "id": 906419265, "lat": -33.5609737, "lon": -70.5991753, "tags": {"addr:city": "La Florida", "addr:country": "CL", "addr:housenumber": "4692", "addr:street": "Esfuerzo", "amenity": "school", "contact:email": "zulesu@yahoo.es", "contact:phone": "+56 2 7254623;+56 9 77300517", "name": "Escuela Especial Teresiana del Esfuerzo", "note": "Correcciones masivas a ortograf\u00eda en nombres de importaciones hechas por equipo de gendarmer\u00eda", "operator": "3", "school:type": "214", "source": "Gobierno Regional Metropolitano de Santiago (http://www.gobiernosantiago.cl/)"}}, {"type": "node", "id": 906419381, "lat": -33.5527202, "lon": -70.6034556, "tags": {"addr:housenumber": "10399", "addr:street": "Salar de Talcote Villa", "amenity": "school", "contact:email": "escuelalenguajepalu@gmail.com", "contact:phone": "+56 2 2913074", "name": "Escuela Especial Palu", "operator": "3", "school:type": "214", "source": "Gobierno Regional Metropolitano de Santiago (http://www.gobiernosantiago.cl/)"}}, {"type": "node", "id": 906419397, "lat": -33.5656759, "lon": -70.5927059, "tags": {"addr:housenumber": "722", "addr:street": "Los Quillayes", "amenity": "school", "contact:email": "edulosquillayes@comudef.cl", "contact:phone": "+56 2 2883029", "name": "Escuela B\u00e1sica Los Quillayes", "operator": "1", "school:type": "10;110", "source": "Gobierno Regional Metropolitano de Santiago (http://www.gobiernosantiago.cl/)"}}, {"type": "node", "id": 906419410, "lat": -33.5640249, "lon": -70.5844577, "tags": {"addr:housenumber": "11505", "addr:street": "Avenida Vicu\u00f1a Mackenna", "amenity": "school", "contact:email": "snlorenz@ctcinternet.cl", "name": "Escuela B\u00e1sica San Lorenzo", "operator": "3", "school:type": "10;110", "source": "Gobierno Regional Metropolitano de Santiago (http://www.gobiernosantiago.cl/)"}}, {"type": "node", "id": 906419435, "lat": -33.5655443, "lon": -70.5882712, "tags": {"addr:country": "CL", "addr:housenumber": "4247", "addr:street": "Los Peumos", "amenity": "school", "contact:email": "geociencia2000@yahoo.com", "name": "Escuela B\u00e1sica Santa Mar\u00eda del Pilar", "note": "Correcciones masivas a ortograf\u00eda en nombres de importaciones hechas por equipo de gendarmer\u00eda", "operator": "3", "school:type": "10;110", "source": "Gobierno Regional Metropolitano de Santiago (http://www.gobiernosantiago.cl/)"}}, {"type": "node", "id": 906419458, "lat": -33.5640644, "lon": -70.5796316, "tags": {"addr:street": "Manuel Rengifo 11599El Arauc", "amenity": "school", "contact:email": "jpizarrobanda@gmail.com", "name": "Colegio Polivalente Lovaina", "operator": "3", "school:type": "10;110;310;410", "source": "Gobierno Regional Metropolitano de Santiago (http://www.gobiernosantiago.cl/)"}}, {"type": "node", "id": 906419476, "lat": -33.5634077, "lon": -70.5761408, "tags": {"addr:housenumber": "11586", "addr:street": "Guacolda", "amenity": "school", "contact:email": "karensv@vtr.net", "name": "Escuela B\u00e1sica Albert Schweitzer", "operator": "3", "school:type": "10;110", "source": "Gobierno Regional Metropolitano de Santiago (http://www.gobiernosantiago.cl/)"}}, {"type": "node", "id": 906419516, "lat": -33.5649132, "lon": -70.5930492}, {"type": "node", "id": 906419525, "lat": -33.5632363, "lon": -70.5926305}, {"type": "node", "id": 906419535, "lat": -33.5607362, "lon": -70.5973017}, {"type": "node", "id": 906419548, "lat": -33.5617544, "lon": -70.5969807, "tags": {"addr:housenumber": "4491", "addr:street": "Concordia", "amenity": "school", "contact:email": "colegiolospinitos@gmail.com", "name": "Escuela B\u00e1sica Los Pinitos", "operator": "3", "school:type": "10;110", "source": "Gobierno Regional Metropolitano de Santiago (http://www.gobiernosantiago.cl/)"}}, {"type": "node", "id": 906419556, "lat": -33.5583198, "lon": -70.5948854, "tags": {"addr:city": "La Florida", "addr:country": "CL", "addr:housenumber": "752", "addr:street": "General Arriagada", "amenity": "school", "contact:email": "www.rosanna240@hotmail.com", "name": "Colegio London", "note": "Correcciones masivas a ortograf\u00eda en nombres de importaciones hechas por equipo de gendarmer\u00eda", "operator": "3", "school:type": "160;361", "source": "Gobierno Regional Metropolitano de Santiago (http://www.gobiernosantiago.cl/)"}}, {"type": "node", "id": 906419580, "lat": -33.5618543, "lon": -70.5975302, "tags": {"addr:city": "La Florida", "addr:housenumber": "886", "addr:street": "Mar\u00eda Elena", "amenity": "school", "contact:email": "kcespedc@hotmail.com", "name": "Escuela Especial Nuestra Senora De Lourdes", "operator": "3", "school:type": "212", "source": "Gobierno Regional Metropolitano de Santiago (http://www.gobiernosantiago.cl/)"}}, {"type": "node", "id": 906419667, "lat": -33.5622006, "lon": -70.5768173, "tags": {"addr:housenumber": "828", "addr:street": "Avenida Diego Portales", "amenity": "school", "contact:email": "profegonzalez13@comudef.cl", "name": "Escuela B\u00e1sica Las Lilas", "operator": "1", "school:type": "10;110", "source": "Gobierno Regional Metropolitano de Santiago (http://www.gobiernosantiago.cl/)"}}, {"type": "node", "id": 906419682, "lat": -33.5616644, "lon": -70.5772717, "tags": {"addr:street": "Jos\u00e9 Manuel Gandarillas", "amenity": "school", "contact:email": "colegiopchaminade@terra.cl", "name": "Escuela B\u00e1sica Padre Chaminade", "operator": "3", "school:type": "110", "source": "Gobierno Regional Metropolitano de Santiago (http://www.gobiernosantiago.cl/)"}}, {"type": "node", "id": 906419760, "lat": -33.5622406, "lon": -70.5770373, "tags": {"addr:housenumber": "814", "addr:street": "Avenida Diego Portales", "amenity": "school", "contact:email": "colegioportales@chile.com", "name": "Escuela B\u00e1sica Portales", "operator": "3", "school:type": "10;110", "source": "Gobierno Regional Metropolitano de Santiago (http://www.gobiernosantiago.cl/)"}}, {"type": "node", "id": 906419768, "lat": -33.5630756, "lon": -70.57866, "tags": {"addr:city": "La Florida", "addr:housenumber": "11522", "addr:street": "Corregidor Za\u00f1artu", "amenity": "school", "contact:email": "olichile@vtr.net", "contact:phone": "+56 2 2891200", "name": "Escuela Particular Los Copihues", "operator": "3", "school:type": "10;110", "source": "Gobierno Regional Metropolitano de Santiago (http://www.gobiernosantiago.cl/)"}}, {"type": "node", "id": 906419854, "lat": -33.5576346, "lon": -70.5866275, "tags": {"addr:housenumber": "11734", "addr:street": "La Paloma", "amenity": "school", "contact:email": "rerazon@hotmail.com", "name": "Escuela Especial Paso A Paso", "operator": "3", "school:type": "214", "source": "Gobierno Regional Metropolitano de Santiago (http://www.gobiernosantiago.cl/)"}}, {"type": "node", "id": 906419887, "lat": -33.5573104, "lon": -70.5800828, "tags": {"addr:city": "La Florida", "addr:country": "CL", "addr:housenumber": "10841", "addr:street": "Guillermo Blest Gana", "amenity": "school", "contact:email": "isotoa65@yahoo.com", "name": "Escuela Especial Kades Barnea", "note": "Correcciones masivas a ortograf\u00eda en nombres de importaciones hechas por equipo de gendarmer\u00eda", "operator": "3", "school:type": "214", "source": "Gobierno Regional Metropolitano de Santiago (http://www.gobiernosantiago.cl/)"}}, {"type": "node", "id": 906419970, "lat": -33.546503, "lon": -70.6047065, "tags": {"addr:city": "La Florida", "addr:housenumber": "9953", "addr:street": "Las Camelias", "amenity": "school", "contact:email": "lauraelgueta643@yahoo.es", "name": "Escuela Particular Laura Elgueta", "operator": "3", "school:type": "110", "source": "Gobierno Regional Metropolitano de Santiago (http://www.gobiernosantiago.cl/)"}}, {"type": "node", "id": 906419993, "lat": -33.5377009, "lon": -70.6055031}, {"type": "node", "id": 906420080, "lat": -33.5331151, "lon": -70.5991107, "tags": {"addr:housenumber": "0291", "addr:street": "Los Pioneros", "amenity": "school", "contact:email": "colegioanakena@hotmail.com", "name": "Escuela Especial Anakena", "operator": "3", "school:type": "212;214;216", "source": "Gobierno Regional Metropolitano de Santiago (http://www.gobiernosantiago.cl/)"}}, {"type": "node", "id": 906420111, "lat": -33.538845, "lon": -70.6028905, "tags": {"addr:city": "La Florida", "addr:country": "CL", "addr:housenumber": "820", "addr:street": "Doctor S\u00f3tero del R\u00edo", "amenity": "school", "contact:email": "marciretamales@yahoo.es", "name": "Escuela Especial Marta y Berta", "note": "Correcciones masivas a ortograf\u00eda en nombres de importaciones hechas por equipo de gendarmer\u00eda", "operator": "3", "school:type": "214", "source": "Gobierno Regional Metropolitano de Santiago (http://www.gobiernosantiago.cl/)"}}, {"type": "node", "id": 906420124, "lat": -33.5346689, "lon": -70.59894}, {"type": "node", "id": 906420142, "lat": -33.5505347, "lon": -70.5957408, "tags": {"addr:city": "La Florida", "addr:country": "CL", "addr:housenumber": "10207", "addr:street": "Ram\u00f3n Freire", "amenity": "school", "contact:email": "Escuelasanmartin@vtr.net", "name": "Escuela Especial San Mart\u00edn", "note": "Correcciones masivas a ortograf\u00eda en nombres de importaciones hechas por equipo de gendarmer\u00eda", "operator": "3", "school:type": "214", "source": "Gobierno Regional Metropolitano de Santiago (http://www.gobiernosantiago.cl/)"}}, {"type": "node", "id": 906420158, "lat": -33.5467648, "lon": -70.5934509, "tags": {"addr:housenumber": "573", "addr:street": "Avenida Trinidad", "amenity": "school", "contact:email": "rortizvasquez@yahoo.es", "name": "Escuela Especial Array\u00e1n", "operator": "3", "school:type": "214", "source": "Gobierno Regional Metropolitano de Santiago (http://www.gobiernosantiago.cl/)"}}, {"type": "node", "id": 906420238, "lat": -33.5466748, "lon": -70.5962608, "tags": {"addr:housenumber": "726", "addr:street": "Avenida Trinidad", "amenity": "school", "contact:email": "colegio@colegiomavila.cl", "name": "Escuela B\u00e1sica Particular Manuel Vicu\u00f1a Larra\u00edn", "operator": "3", "school:type": "10;110", "source": "Gobierno Regional Metropolitano de Santiago (http://www.gobiernosantiago.cl/)"}}, {"type": "node", "id": 906420262, "lat": -33.544983, "lon": -70.5962393, "tags": {"addr:city": "La Florida", "addr:housenumber": "601", "addr:street": "Juan Fern\u00e1ndez", "amenity": "school", "contact:email": "info@johnpaulschool.cl", "name": "Escuela Particular John Paul School", "operator": "3", "school:type": "10;110", "source": "Gobierno Regional Metropolitano de Santiago (http://www.gobiernosantiago.cl/)"}}, {"type": "node", "id": 906420313, "lat": -33.5470148, "lon": -70.5784017, "tags": {"addr:housenumber": "784", "addr:street": "Trinidad Poniente", "amenity": "school", "contact:email": "fcojramirez_z@hotmail.com", "name": "Colegio General Estanislao Del Canto", "operator": "4", "school:type": "110;310", "source": "Gobierno Regional Metropolitano de Santiago (http://www.gobiernosantiago.cl/)"}}, {"type": "node", "id": 906420341, "lat": -33.5500091, "lon": -70.5770495, "tags": {"addr:housenumber": "820", "addr:street": "Jos\u00e9 Miguel Carrera", "amenity": "school", "contact:email": "colegiosantiago@vtr.net", "name": "Colegio Santiago", "operator": "3", "school:type": "10;110;310", "source": "Gobierno Regional Metropolitano de Santiago (http://www.gobiernosantiago.cl/)"}}, {"type": "node", "id": 906420356, "lat": -33.5516047, "lon": -70.5777217, "tags": {"addr:housenumber": "10413", "addr:street": "Avenida Colombia", "amenity": "school", "contact:email": "cdelaluz@terra.cl", "name": "Escuela Basica Santa Ana De La Luz", "operator": "3", "school:type": "10;110", "source": "Gobierno Regional Metropolitano de Santiago (http://www.gobiernosantiago.cl/)"}}, {"type": "node", "id": 906420368, "lat": -33.5485071, "lon": -70.5870059, "tags": {"addr:city": "La Florida", "addr:housenumber": "1961", "addr:street": "Camino Viejo", "amenity": "school", "contact:email": "escuela.poniente@gmail.com", "name": "Escuela B\u00e1sica del Poniente", "operator": "1", "school:type": "10;110", "source": "Gobierno Regional Metropolitano de Santiago (http://www.gobiernosantiago.cl/)"}}, {"type": "node", "id": 906420445, "lat": -33.537678, "lon": -70.5890166, "tags": {"addr:housenumber": "9010", "addr:street": "Estados Unidos", "amenity": "school", "contact:email": "colegioalmendral@chile.com", "name": "Colegio Almendral", "operator": "3", "school:type": "10;110;310", "source": "Gobierno Regional Metropolitano de Santiago (http://www.gobiernosantiago.cl/)"}}, {"type": "node", "id": 906420574, "lat": -33.5371315, "lon": -70.5905823, "tags": {"addr:city": "La Florida", "addr:housenumber": "9000", "addr:street": "Argentina", "amenity": "school", "name": "Colegio Bertrand Russel", "operator": "4", "school:type": "110;310", "source": "Gobierno Regional Metropolitano de Santiago (http://www.gobiernosantiago.cl/)"}}, {"type": "node", "id": 906420595, "lat": -33.5356036, "lon": -70.5975533, "tags": {"addr:city": "La Florida", "addr:country": "CL", "addr:housenumber": "288", "addr:street": "Rojas Magallanes", "amenity": "school", "contact:email": "roathompson@gmail.com", "name": "Colegio Las Pl\u00e9yades", "note": "Correcciones masivas a ortograf\u00eda en nombres de importaciones hechas por equipo de gendarmer\u00eda", "operator": "3", "school:type": "110", "source": "Gobierno Regional Metropolitano de Santiago (http://www.gobiernosantiago.cl/)"}}, {"type": "node", "id": 906420623, "lat": -33.53561, "lon": -70.5880883, "tags": {"addr:housenumber": "307", "addr:street": "Rojas Magallanes", "amenity": "school", "contact:email": "marwua.parra@gmail.com", "contact:phone": "+56 2 2911958", "name": "Escuela B\u00e1sica Presidente Lincoln", "operator": "3", "school:type": "10;110", "source": "Gobierno Regional Metropolitano de Santiago (http://www.gobiernosantiago.cl/)"}}, {"type": "node", "id": 906420672, "lat": -33.537155, "lon": -70.5764018, "tags": {"addr:housenumber": "9262", "addr:street": "Avenida M\u00e9xico", "amenity": "school", "contact:email": "cmillawe@hotmail.com", "name": "Escuela B\u00e1sica Millawe", "operator": "3", "school:type": "10;110", "source": "Gobierno Regional Metropolitano de Santiago (http://www.gobiernosantiago.cl/)"}}, {"type": "node", "id": 906420697, "lat": -33.537375, "lon": -70.5763118, "tags": {"addr:city": "La Florida", "addr:country": "CL", "addr:housenumber": "9285", "addr:street": "Avenida M\u00e9xico", "amenity": "school", "contact:email": "info@Escuelamelodia.cl", "contact:phone": "+56 2 2875735", "name": "Escuela Especial Melod\u00eda de La Florida", "note": "Correcciones masivas a ortograf\u00eda en nombres de importaciones hechas por equipo de gendarmer\u00eda", "operator": "3", "school:type": "214", "source": "Gobierno Regional Metropolitano de Santiago (http://www.gobiernosantiago.cl/)"}}, {"type": "node", "id": 906420725, "lat": -33.5376742, "lon": -70.5867756, "tags": {"addr:housenumber": "9061", "addr:street": "Per\u00fa", "amenity": "school", "contact:email": "colegiodanes@vtr.net", "name": "Escuela Basica Danes", "operator": "3", "school:type": "10;110", "source": "Gobierno Regional Metropolitano de Santiago (http://www.gobiernosantiago.cl/)"}}, {"type": "node", "id": 906420749, "lat": -33.536775, "lon": -70.5803316, "tags": {"addr:housenumber": "9157", "addr:street": "Venezuela", "amenity": "school", "contact:email": "ltdp2006@yahoo.com.mx", "name": "Liceo Tecnico Femenino Diego Portales", "operator": "3", "school:type": "610", "source": "Gobierno Regional Metropolitano de Santiago (http://www.gobiernosantiago.cl/)"}}, {"type": "node", "id": 906420770, "lat": -33.5376019, "lon": -70.5774425, "tags": {"addr:city": "La Florida", "addr:country": "CL", "addr:housenumber": "9342", "addr:street": "Costa Rica", "amenity": "school", "contact:email": "info@amancay.cl", "contact:phone": "+56 2 2877433", "name": "Colegio Amancay de La Florida", "note": "Correcciones masivas a ortograf\u00eda en nombres de importaciones hechas por equipo de gendarmer\u00eda", "operator": "3", "school:type": "110", "source": "Gobierno Regional Metropolitano de Santiago (http://www.gobiernosantiago.cl/)"}}, {"type": "node", "id": 906420806, "lat": -33.5324051, "lon": -70.5840614, "tags": {"addr:housenumber": "773", "addr:street": "Santa Julia", "amenity": "school", "contact:email": "edurdominicana@comudef.cl", "name": "Escuela B\u00e1sica Rep\u00fablica Dominicana", "operator": "1", "school:type": "10;110", "source": "Gobierno Regional Metropolitano de Santiago (http://www.gobiernosantiago.cl/)"}}, {"type": "node", "id": 906420839, "lat": -33.533976, "lon": -70.5855992, "tags": {"addr:city": "La Florida", "addr:country": "CL", "addr:housenumber": "8784", "addr:street": "Avenida Colombia", "amenity": "school", "contact:email": "juanignaciogodoy@gmail.com", "contact:phone": "+56 2 2720035", "name": "Escuela Especial Pablo Neruda de La Florida", "note": "Correcciones masivas a ortograf\u00eda en nombres de importaciones hechas por equipo de gendarmer\u00eda", "operator": "3", "school:type": "214", "source": "Gobierno Regional Metropolitano de Santiago (http://www.gobiernosantiago.cl/)"}}, {"type": "node", "id": 906420849, "lat": -33.5321643, "lon": -70.582016, "tags": {"addr:city": "La Florida", "addr:housenumber": "8674", "addr:street": "Garcia Hurtado Mendoza", "amenity": "school", "contact:email": "raimapu@ctcinternet.cl", "name": "Colegio Raimap\u00fa", "operator": "3", "school:type": "110;310;361", "source": "Gobierno Regional Metropolitano de Santiago (http://www.gobiernosantiago.cl/)"}}, {"type": "node", "id": 906420871, "lat": -33.5356175, "lon": -70.5864554, "tags": {"addr:city": "La Florida", "addr:housenumber": "490", "addr:street": "Rojas Magallanes", "amenity": "school", "contact:email": "nvorumbo@ctcinternet.cl", "name": "Escuela Particular Especial Nuevo Rumbo", "operator": "3", "school:type": "212;214", "source": "Gobierno Regional Metropolitano de Santiago (http://www.gobiernosantiago.cl/)"}}, {"type": "node", "id": 906421731, "lat": -33.527003, "lon": -70.5996658, "tags": {"addr:city": "La Florida", "addr:housenumber": "256", "addr:street": "Don Pepe", "amenity": "school", "contact:email": "mcdelapazv@yahoo.es", "name": "Colegio Mauricio Rugendas", "operator": "3", "school:type": "110;310", "source": "Gobierno Regional Metropolitano de Santiago (http://www.gobiernosantiago.cl/)"}}, {"type": "node", "id": 906421732, "lat": -33.5219518, "lon": -70.609597, "tags": {"addr:city": "La Florida", "addr:country": "CL", "addr:housenumber": "1081", "addr:street": "Los Vilos", "amenity": "school", "contact:email": "luznat@gmail.com", "name": "Escuela Especial Mi Casita", "operator": "3", "school:type": "214", "source": "Gobierno Regional Metropolitano de Santiago (http://www.gobiernosantiago.cl/)"}}, {"type": "node", "id": 906421733, "lat": -33.5206426, "lon": -70.608592, "tags": {"addr:housenumber": "401", "addr:street": "Rupanco", "amenity": "school", "contact:email": "cbethel3@ctcinternet.cl", "name": "Colegio Cristiano Bethel N.3", "operator": "3", "school:type": "10;110;510", "source": "Gobierno Regional Metropolitano de Santiago (http://www.gobiernosantiago.cl/)"}}, {"type": "node", "id": 906421735, "lat": -33.5239724, "lon": -70.603572, "tags": {"addr:housenumber": "7618", "addr:street": "Tupahue", "amenity": "school", "contact:email": "centrohansasperger@gmail.com", "contact:phone": "+56 2 2211848", "name": "Escuela Especial Angel Riviere", "operator": "3", "school:type": "216", "source": "Gobierno Regional Metropolitano de Santiago (http://www.gobiernosantiago.cl/)"}}, {"type": "node", "id": 906421739, "lat": -33.5212099, "lon": -70.601718, "tags": {"addr:street": "San Antonio 95Rodr\u00edguez Vela", "amenity": "school", "contact:email": "escuelaandrerey@yahoo.com", "name": "Escuela Basica Y Especial Andres Rey", "operator": "3", "school:type": "10;110;214", "source": "Reconocimiento cortogr\u00e1fico de campo 2016 por KG"}}, {"type": "node", "id": 906421741, "lat": -33.5159212, "lon": -70.6099575, "tags": {"addr:housenumber": "394", "addr:street": "Millaray", "amenity": "school", "contact:email": "limabu@bulneslaflorida.tie.cl", "name": "Colegio De Adultos Manuel Bulnes", "operator": "3", "school:type": "160;360;361", "source": "Gobierno Regional Metropolitano de Santiago (http://www.gobiernosantiago.cl/)"}}, {"type": "node", "id": 906421748, "lat": -33.5126627, "lon": -70.6071784, "tags": {"addr:housenumber": "6241", "addr:street": "Vicuna Mackenna", "amenity": "school", "contact:email": "piaget1@ctcinternet.cl", "name": "Escuela Especial Jean Piaget", "operator": "3", "school:type": "212", "source": "Gobierno Regional Metropolitano de Santiago (http://www.gobiernosantiago.cl/)"}}, {"type": "node", "id": 906421751, "lat": -33.5161787, "lon": -70.6103132, "tags": {"addr:housenumber": "394", "addr:street": "Millaray", "amenity": "school", "contact:email": "limabu@bulneslaflorida.tie.cl", "name": "Colegio Manuel Bulnes De La Florida", "operator": "3", "school:type": "310", "source": "Gobierno Regional Metropolitano de Santiago (http://www.gobiernosantiago.cl/)"}}, {"type": "node", "id": 906421752, "lat": -33.5128206, "lon": -70.6074528, "tags": {"addr:housenumber": "94", "addr:street": "Mirador Azul", "amenity": "school", "contact:email": "info@colegiosantacecilia.com", "name": "Colegio Santa Cecilia De La Florida", "operator": "4", "school:type": "10;110;310", "source": "Gobierno Regional Metropolitano de Santiago (http://www.gobiernosantiago.cl/)"}}, {"type": "node", "id": 906421755, "lat": -33.5294302, "lon": -70.5962755, "tags": {"addr:city": "La Florida", "addr:housenumber": "8103", "addr:street": "Andaluc\u00eda", "amenity": "school", "contact:email": "garrido_claudia@hotmail.com", "contact:phone": "+56 2 2821711", "name": "Escuela Particular Saint Germaine School", "operator": "3", "school:type": "10;110", "source": "Gobierno Regional Metropolitano de Santiago (http://www.gobiernosantiago.cl/)"}}, {"type": "node", "id": 906421759, "lat": -33.5229628, "lon": -70.5974423, "tags": {"addr:city": "La Florida", "addr:housenumber": "25", "addr:street": "Avenida Walker Mart\u00ednez", "amenity": "school", "contact:email": "vvaldes@educaceas.cl", "name": "Colegio Polivalente Vicente Vald\u00e9s", "operator": "3", "school:type": "310;510", "source": "Reconocimiento cartogr\u00e1fico 2016 por KG."}}, {"type": "node", "id": 906421760, "lat": -33.5231369, "lon": -70.5900231, "tags": {"addr:city": "La Florida", "addr:country": "CL", "addr:housenumber": "7557", "addr:street": "Avenida Colombia", "amenity": "school", "contact:email": "carolag85@hotmail.com", "name": "Escuela de Lenguaje San Gabriel", "note": "Correcciones masivas a ortograf\u00eda en nombres de importaciones hechas por equipo de gendarmer\u00eda", "operator": "3", "school:type": "214", "source": "Gobierno Regional Metropolitano de Santiago (http://www.gobiernosantiago.cl/)"}}, {"type": "node", "id": 906421765, "lat": -33.5280042, "lon": -70.583919, "tags": {"addr:housenumber": "1050", "addr:street": "Ger\u00f3nimo de Alderete", "amenity": "school", "contact:email": "escsanjuan@terra.cl", "contact:phone": "+56 2 2946868", "name": "Escuela B\u00e1sica San Juan", "operator": "3", "school:type": "10;110", "source": "Gobierno Regional Metropolitano de Santiago (http://www.gobiernosantiago.cl/)"}}, {"type": "node", "id": 906421770, "lat": -33.52305, "lon": -70.5849143}, {"type": "node", "id": 906421771, "lat": -33.5215491, "lon": -70.5866655}, {"type": "node", "id": 906421779, "lat": -33.5114235, "lon": -70.5785459, "tags": {"addr:housenumber": "5831", "addr:street": "Diagonal Los Casta\u00f1os", "amenity": "school", "contact:email": "escuelavaresca@hotmail.com", "name": "Escuela Especial Varesca", "operator": "3", "school:type": "212;214", "source": "Gobierno Regional Metropolitano de Santiago (http://www.gobiernosantiago.cl/)"}}, {"type": "node", "id": 906421806, "lat": -33.5126856, "lon": -70.5779217, "tags": {"addr:city": "La Florida", "addr:housenumber": "5870", "addr:street": "Diagonal Los Casta\u00f1os", "amenity": "school", "contact:email": "escas935@hotmail.com", "name": "Escuela Particular Los Casta\u00f1os", "operator": "3", "school:type": "10;110", "source": "Gobierno Regional Metropolitano de Santiago (http://www.gobiernosantiago.cl/)"}}, {"type": "node", "id": 906422745, "lat": -33.5608796, "lon": -70.5673898, "tags": {"addr:city": "La Florida", "addr:country": "CL", "addr:housenumber": "1547", "addr:street": "Avenida Diego Portales", "amenity": "school", "contact:email": "Colegioelenarojas@gmail.com", "name": "Colegio Polivalente Educadora Elena Roja", "note": "Correcciones masivas a ortograf\u00eda en nombres de importaciones hechas por equipo de gendarmer\u00eda", "operator": "3", "school:type": "160;310;361;410;610", "source": "Gobierno Regional Metropolitano de Santiago (http://www.gobiernosantiago.cl/)"}}, {"type": "node", "id": 906422836, "lat": -33.5608972, "lon": -70.5675182, "tags": {"addr:housenumber": "1519", "addr:street": "Avenida Diego Portales", "amenity": "school", "contact:email": "colegioartisticosalvador@yahoo", "name": "Colegio Artistico Salvador", "operator": "3", "school:type": "110;310", "source": "Gobierno Regional Metropolitano de Santiago (http://www.gobiernosantiago.cl/)"}}, {"type": "node", "id": 906423010, "lat": -33.5589645, "lon": -70.5594726, "tags": {"addr:city": "La Florida", "addr:housenumber": "2394", "addr:street": "Avenida Diego Portales", "amenity": "school", "contact:email": "colegioltc@yahoo.es", "name": "Escuela Particular Lord Tomas Cochrane", "operator": "3", "school:type": "110", "source": "Gobierno Regional Metropolitano de Santiago (http://www.gobiernosantiago.cl/)"}}, {"type": "node", "id": 906423020, "lat": -33.5602362, "lon": -70.5639393, "tags": {"addr:housenumber": "1699", "addr:street": "Avenida Diego Portales", "amenity": "school", "contact:email": "pamela_20intel@hotmail.com", "name": "Escuela Especial Gabriela Mistral de La Florida", "operator": "3", "school:type": "212", "source": "Gobierno Regional Metropolitano de Santiago (http://www.gobiernosantiago.cl/)"}}, {"type": "node", "id": 906423066, "lat": -33.5378813, "lon": -70.5547221, "tags": {"addr:city": "La Florida", "addr:country": "CL", "addr:housenumber": "9518", "addr:street": "Santa Victoria", "amenity": "school", "contact:email": "gloaddi@hotmail.com", "contact:phone": "+56 2 2875162", "name": "Colegio Contempora de La Florida", "note": "Correcciones masivas a ortograf\u00eda en nombres de importaciones hechas por equipo de gendarmer\u00eda", "operator": "Corporaci\u00f3n Educacional Cont\u00e9mpora", "school:type": "10;110", "source": "Gobierno Regional Metropolitano de Santiago (http://www.gobiernosantiago.cl/)", "website": "https://Colegiocontempora.com"}}, {"type": "node", "id": 906423155, "lat": -33.5438295, "lon": -70.5693209}, {"type": "node", "id": 906423224, "lat": -33.5466303, "lon": -70.5484859, "tags": {"addr:housenumber": "9910", "addr:street": "Tobalaba Oriente", "amenity": "school", "contact:email": "eduanexolocanas@comudef.cl", "name": "Escuela B\u00e1sica Lo Ca\u00f1as Anexo", "operator": "1", "school:type": "10;110", "source": "Gobierno Regional Metropolitano de Santiago (http://www.gobiernosantiago.cl/)"}}, {"type": "node", "id": 906423275, "lat": -33.5371417, "lon": -70.5753553, "tags": {"addr:city": "La Florida", "addr:country": "CL", "addr:housenumber": "9255", "addr:street": "Canad\u00e1", "amenity": "school", "contact:email": "padrepio2032@yahoo.es", "name": "Escuela Especial Padre Pio", "note": "Correcciones masivas a ortograf\u00eda en nombres de importaciones hechas por equipo de gendarmer\u00eda", "operator": "3", "school:type": "212", "source": "Gobierno Regional Metropolitano de Santiago (http://www.gobiernosantiago.cl/)"}}, {"type": "node", "id": 906423285, "lat": -33.5322966, "lon": -70.5537721, "tags": {"addr:city": "La Florida", "addr:country": "CL", "addr:housenumber": "8605", "addr:street": "El Hualle Sur", "amenity": "school", "contact:email": "pazvaldess@yahoo.es", "name": "Colegio Ra\u00edces Altazor", "note": "Correcciones masivas a ortograf\u00eda en nombres de importaciones hechas por equipo de gendarmer\u00eda", "operator": "3", "school:type": "110", "source": "Gobierno Regional Metropolitano de Santiago (http://www.gobiernosantiago.cl/)"}}, {"type": "node", "id": 906423297, "lat": -33.5337335, "lon": -70.5748851, "tags": {"addr:city": "La Florida", "addr:country": "CL", "addr:housenumber": "1256", "addr:street": "Los Mapuches", "amenity": "school", "contact:email": "daniella_parra30@hotmail.com", "name": "Escuela Especial Tripantu de La Florida", "note": "Correcciones masivas a ortograf\u00eda en nombres de importaciones hechas por equipo de gendarmer\u00eda", "operator": "3", "school:type": "214", "source": "Gobierno Regional Metropolitano de Santiago (http://www.gobiernosantiago.cl/)"}}, {"type": "node", "id": 906423529, "lat": -33.5220754, "lon": -70.5660423, "tags": {"addr:housenumber": "3018", "addr:street": "Avenida Walker Mart\u00ednez", "amenity": "school", "name": "Escuela B\u00e1sica Playground", "operator": "4", "school:type": "10;110", "source": "Gobierno Regional Metropolitano de Santiago (http://www.gobiernosantiago.cl/)"}}, {"type": "node", "id": 906423572, "lat": -33.5197154, "lon": -70.5664023, "tags": {"addr:housenumber": "3015", "addr:street": "Diagonal Santa Irene", "amenity": "school", "contact:email": "edustairene@comudef.cl", "name": "Escuela Basica Santa Irene", "operator": "1", "school:type": "10;110", "source": "Gobierno Regional Metropolitano de Santiago (http://www.gobiernosantiago.cl/)"}}, {"type": "node", "id": 906423594, "lat": -33.5207454, "lon": -70.5649224, "tags": {"addr:housenumber": "7390", "addr:street": "Orompello", "amenity": "school", "contact:email": "escueladiversidad@yahoo.es", "name": "Escuela Especial Diversidad", "operator": "3", "school:type": "212;216", "source": "Gobierno Regional Metropolitano de Santiago (http://www.gobiernosantiago.cl/)"}}, {"type": "node", "id": 906423659, "lat": -33.5237664, "lon": -70.5700896, "tags": {"addr:city": "La Florida", "addr:country": "CL", "addr:housenumber": "2279", "addr:street": "Las Carmelas", "amenity": "school", "contact:email": "md_delgado@hotmail.com", "contact:phone": "+56 2 2856019", "name": "Soc Escuela de Lenguaje Diaz Y Montenegro Limitada", "note": "Correcciones masivas a ortograf\u00eda en nombres de importaciones hechas por equipo de gendarmer\u00eda", "operator": "3", "school:type": "214", "source": "Gobierno Regional Metropolitano de Santiago (http://www.gobiernosantiago.cl/)"}}, {"type": "node", "id": 906423737, "lat": -33.5181052, "lon": -70.5660477}, {"type": "node", "id": 906423850, "lat": -33.5137756, "lon": -70.5696521, "tags": {"addr:city": "La Florida", "addr:housenumber": "5900", "addr:street": "Volc\u00e1n Hornopir\u00e9n", "amenity": "school", "contact:email": "luisoleal@hotmail.com", "contact:phone": "+56 2 7246932", "name": "Escuela B\u00e1sica N\u00b0993 Antonio Borquez Solar", "operator": "3", "school:type": "10;110", "source": "Gobierno Regional Metropolitano de Santiago (http://www.gobiernosantiago.cl/)"}}, {"type": "node", "id": 906423875, "lat": -33.5179088, "lon": -70.5620421, "tags": {"addr:city": "La Florida", "addr:country": "CL", "addr:housenumber": "3226", "addr:street": "Palena", "amenity": "school", "contact:email": "patigonza4@hotmail.com", "name": "Escuela B\u00e1sica Pe\u00f1ihuen Andino", "operator": "3", "school:type": "10;110", "source": "Gobierno Regional Metropolitano de Santiago (http://www.gobiernosantiago.cl/)"}}, {"type": "node", "id": 906423899, "lat": -33.5182779, "lon": -70.5634917}, {"type": "node", "id": 906423928, "lat": -33.5188839, "lon": -70.5583083, "tags": {"addr:housenumber": "7290", "addr:street": "Calle Tobalaba", "amenity": "school", "contact:email": "centrojuvenildb@hotmail.com", "name": "Centro Educ. Adultos Cardenal Raul Silva", "operator": "3", "school:type": "160;360", "source": "Gobierno Regional Metropolitano de Santiago (http://www.gobiernosantiago.cl/)"}}, {"type": "node", "id": 906423941, "lat": -33.5123275, "lon": -70.5643104, "tags": {"addr:housenumber": "3338", "addr:street": "Los Cazadores", "amenity": "school", "contact:email": "ccerda64@hotmail.com", "name": "Colegio Cristiano Emmanuel", "operator": "3", "school:type": "10;110;310", "source": "Gobierno Regional Metropolitano de Santiago (http://www.gobiernosantiago.cl/)"}}, {"type": "node", "id": 906423974, "lat": -33.5254004, "lon": -70.5528306, "tags": {"addr:city": "La Florida", "addr:housenumber": "3643", "addr:street": "Avenida Lo Ca\u00f1as", "amenity": "school", "contact:email": "edulocanas@comudef.cl", "name": "Escuela Lo Ca\u00f1as", "operator": "1", "school:type": "10;110", "source": "Gobierno Regional Metropolitano de Santiago (http://www.gobiernosantiago.cl/)"}}, {"type": "node", "id": 906424013, "lat": -33.5217153, "lon": -70.5456633, "tags": {"addr:city": "La Florida", "addr:housenumber": "7127", "addr:street": "Olga Salas", "amenity": "school", "contact:email": "mmartinez.claantaro@vtr.net", "name": "Escuela B\u00e1sica Laantaro", "operator": "3", "school:type": "110", "source": "Gobierno Regional Metropolitano de Santiago (http://www.gobiernosantiago.cl/)"}}, {"type": "node", "id": 906424043, "lat": -33.5121356, "lon": -70.553643, "tags": {"addr:housenumber": "6341", "addr:street": "Los Cerezos Pobl. Las H", "amenity": "school", "contact:email": "eduloscerezos@comudef.cl", "name": "Escuela Basica Los Cerezos", "operator": "1", "school:type": "10;110", "source": "Gobierno Regional Metropolitano de Santiago (http://www.gobiernosantiago.cl/)"}}, {"type": "node", "id": 1250257841, "lat": -33.5648531, "lon": -70.5924341, "tags": {"addr:housenumber": "679", "addr:street": "Guacolda"}}, {"type": "node", "id": 1332352088, "lat": -33.5130103, "lon": -70.5590081, "tags": {"addr:country": "CL", "source": "Reconocimiento cartogr\u00e1fico 2016 por KG"}}, {"type": "node", "id": 1332352127, "lat": -33.5118398, "lon": -70.5589102, "tags": {"addr:country": "CL", "source": "Reconocimiento cartogr\u00e1fico 2016 por KG"}}, {"type": "node", "id": 1332352128, "lat": -33.5130949, "lon": -70.5581497, "tags": {"addr:country": "CL", "source": "Reconocimiento cartogr\u00e1fico 2016 por KG"}}, {"type": "node", "id": 1811235625, "lat": -33.5443881, "lon": -70.5691584}, {"type": "node", "id": 1811235629, "lat": -33.5438811, "lon": -70.5695138}, {"type": "node", "id": 1811235630, "lat": -33.5443874, "lon": -70.5692941}, {"type": "node", "id": 1811235631, "lat": -33.5443618, "lon": -70.5690684}, {"type": "node", "id": 1813780498, "lat": -33.5449224, "lon": -70.568388}, {"type": "node", "id": 1813780499, "lat": -33.5437616, "lon": -70.5696146, "tags": {"source": "Reconocimiento cartogr\u00e1fico 2016 por KG."}}, {"type": "node", "id": 1813780502, "lat": -33.5437564, "lon": -70.5693843, "tags": {"source": "Reconocimiento cartogr\u00e1fico 2016 por KG."}}, {"type": "node", "id": 1813780503, "lat": -33.5444127, "lon": -70.5693588, "tags": {"source": "Reconocimiento cartogr\u00e1fico 2016 por KG."}}, {"type": "node", "id": 1813780504, "lat": -33.5444239, "lon": -70.5684658}, {"type": "node", "id": 1813780505, "lat": -33.5450421, "lon": -70.5686442}, {"type": "node", "id": 1813780506, "lat": -33.5452041, "lon": -70.5686562}, {"type": "node", "id": 1813780507, "lat": -33.5475781, "lon": -70.5635516}, {"type": "node", "id": 1813780508, "lat": -33.5453506, "lon": -70.5687314}, {"type": "node", "id": 1813780509, "lat": -33.5444293, "lon": -70.5686118, "tags": {"source": "Reconocimiento cartogr\u00e1fico 2016 por KG."}}, {"type": "node", "id": 1813780510, "lat": -33.5455773, "lon": -70.5687609}, {"type": "node", "id": 1813780512, "lat": -33.5474753, "lon": -70.5678458}, {"type": "node", "id": 1865704032, "lat": -33.5545983, "lon": -70.57682}, {"type": "node", "id": 1865704053, "lat": -33.5547804, "lon": -70.5766829}, {"type": "node", "id": 1865704056, "lat": -33.5530771, "lon": -70.5763811}, {"type": "node", "id": 1865704062, "lat": -33.5547893, "lon": -70.5760593}, {"type": "node", "id": 1865704066, "lat": -33.5530962, "lon": -70.5771148}, {"type": "node", "id": 1867394720, "lat": -33.5682298, "lon": -70.5966546}, {"type": "node", "id": 1867394725, "lat": -33.5675616, "lon": -70.5962321}, {"type": "node", "id": 1867394733, "lat": -33.5672331, "lon": -70.5962871}, {"type": "node", "id": 1867394736, "lat": -33.5677623, "lon": -70.5978167}, {"type": "node", "id": 1867394742, "lat": -33.5674181, "lon": -70.5977416}, {"type": "node", "id": 1867394757, "lat": -33.5674174, "lon": -70.5979246}, {"type": "node", "id": 1867394773, "lat": -33.5676007, "lon": -70.5979836}, {"type": "node", "id": 1875321943, "lat": -33.5535376, "lon": -70.5937486}, {"type": "node", "id": 1875321955, "lat": -33.5535107, "lon": -70.5931142}, {"type": "node", "id": 1875321961, "lat": -33.5519818, "lon": -70.5937942}, {"type": "node", "id": 1875321967, "lat": -33.551964, "lon": -70.5931827}, {"type": "node", "id": 1879329652, "lat": -33.5411533, "lon": -70.5980325}, {"type": "node", "id": 1879329665, "lat": -33.5426802, "lon": -70.5987553}, {"type": "node", "id": 1879329680, "lat": -33.5411198, "lon": -70.5988464}, {"type": "node", "id": 1879329723, "lat": -33.5422912, "lon": -70.5975389}, {"type": "node", "id": 1879329770, "lat": -33.5426768, "lon": -70.5988948}, {"type": "node", "id": 1879335260, "lat": -33.5393276, "lon": -70.596267}, {"type": "node", "id": 1879335309, "lat": -33.5384593, "lon": -70.59647}, {"type": "node", "id": 1879335352, "lat": -33.5393156, "lon": -70.5967554}, {"type": "node", "id": 1879335356, "lat": -33.5384437, "lon": -70.5971738}, {"type": "node", "id": 1879351395, "lat": -33.5309624, "lon": -70.5986692}, {"type": "node", "id": 1879351397, "lat": -33.5304338, "lon": -70.5986461}, {"type": "node", "id": 1879351470, "lat": -33.5304268, "lon": -70.5994306}, {"type": "node", "id": 1879351540, "lat": -33.5309687, "lon": -70.5994376}, {"type": "node", "id": 1905994199, "lat": -33.5437486, "lon": -70.5654271}, {"type": "node", "id": 1906029373, "lat": -33.5148279, "lon": -70.5852743}, {"type": "node", "id": 1906029374, "lat": -33.5158583, "lon": -70.5845603}, {"type": "node", "id": 1906029394, "lat": -33.5151345, "lon": -70.5858987}, {"type": "node", "id": 1906029395, "lat": -33.515798, "lon": -70.5853019}, {"type": "node", "id": 2009995256, "lat": -33.5176187, "lon": -70.5543303}, {"type": "node", "id": 2009995295, "lat": -33.5173144, "lon": -70.5547825}, {"type": "node", "id": 2009995338, "lat": -33.5175694, "lon": -70.554804}, {"type": "node", "id": 2009995352, "lat": -33.5171624, "lon": -70.5542676}, {"type": "node", "id": 2023285253, "lat": -33.5129855, "lon": -70.535124}, {"type": "node", "id": 2023285303, "lat": -33.5128411, "lon": -70.5341965}, {"type": "node", "id": 2023285372, "lat": -33.5125454, "lon": -70.5341568}, {"type": "node", "id": 2023285623, "lat": -33.5118693, "lon": -70.5342335}, {"type": "node", "id": 2023285664, "lat": -33.511715, "lon": -70.534316}, {"type": "node", "id": 2023285684, "lat": -33.5123965, "lon": -70.5341537}, {"type": "node", "id": 2023285803, "lat": -33.5117351, "lon": -70.5342785}, {"type": "node", "id": 2023285810, "lat": -33.512131, "lon": -70.5341759}, {"type": "node", "id": 2023286000, "lat": -33.5129869, "lon": -70.5342329}, {"type": "node", "id": 2023286012, "lat": -33.5125709, "lon": -70.5365355}, {"type": "node", "id": 2414438646, "lat": -33.5630993, "lon": -70.6102464}, {"type": "node", "id": 2414438672, "lat": -33.5619505, "lon": -70.6098012}, {"type": "node", "id": 2414438692, "lat": -33.5630322, "lon": -70.6096295}, {"type": "node", "id": 2414438700, "lat": -33.5620073, "lon": -70.6104055}, {"type": "node", "id": 2467234925, "lat": -33.5277042, "lon": -70.5525486}, {"type": "node", "id": 2467234926, "lat": -33.5282229, "lon": -70.5522422}, {"type": "node", "id": 2467234927, "lat": -33.528438, "lon": -70.5540339}, {"type": "node", "id": 2467234928, "lat": -33.5278679, "lon": -70.5541311}, {"type": "node", "id": 3135285007, "lat": -33.5591635, "lon": -70.5685678}, {"type": "node", "id": 3875227657, "lat": -33.5134571, "lon": -70.5755877}, {"type": "node", "id": 4313654334, "lat": -33.518493, "lon": -70.5852459}, {"type": "node", "id": 4313654335, "lat": -33.5190541, "lon": -70.5848597}, {"type": "node", "id": 4429579930, "lat": -33.512926, "lon": -70.6002332, "tags": {"source": "Reconocimiento cortogr\u00e1fico de campo 2016 por KG"}}, {"type": "node", "id": 4429579931, "lat": -33.5124938, "lon": -70.6002121, "tags": {"source": "Reconocimiento cortogr\u00e1fico de campo 2016 por KG"}}, {"type": "node", "id": 4429579932, "lat": -33.5125183, "lon": -70.5998911, "tags": {"source": "Reconocimiento cortogr\u00e1fico de campo 2016 por KG"}}, {"type": "node", "id": 4440983445, "lat": -33.5502505, "lon": -70.5689968}, {"type": "node", "id": 4440983447, "lat": -33.5492736, "lon": -70.5672077}, {"type": "node", "id": 4440983448, "lat": -33.5489204, "lon": -70.5674758}, {"type": "node", "id": 4440983449, "lat": -33.5498412, "lon": -70.5691288}, {"type": "node", "id": 4440983450, "lat": -33.5499498, "lon": -70.5690651}, {"type": "node", "id": 4440983451, "lat": -33.5500909, "lon": -70.5689934}, {"type": "node", "id": 4441181264, "lat": -33.5590447, "lon": -70.5674469}, {"type": "node", "id": 4441216160, "lat": -33.5618563, "lon": -70.5744698, "tags": {"source": "Reconocimiento cartogr\u00e1fico 2016 por KG."}}, {"type": "node", "id": 4441216161, "lat": -33.5612465, "lon": -70.5746195, "tags": {"source": "Reconocimiento cartogr\u00e1fico 2016 por KG."}}, {"type": "node", "id": 4475983487, "lat": -33.5454385, "lon": -70.5895866, "tags": {"source": "Reconocimiento cartogr\u00e1fico 2016 por KG."}}, {"type": "node", "id": 4475983488, "lat": -33.545637, "lon": -70.5895916, "tags": {"source": "Reconocimiento cartogr\u00e1fico 2016 por KG."}}, {"type": "node", "id": 4475983589, "lat": -33.5456432, "lon": -70.5892342, "tags": {"source": "Reconocimiento cartogr\u00e1fico 2016 por KG."}}, {"type": "node", "id": 4475983590, "lat": -33.5454447, "lon": -70.5892292, "tags": {"source": "Reconocimiento cartogr\u00e1fico 2016 por KG."}}, {"type": "node", "id": 4477928442, "lat": -33.5329651, "lon": -70.5757036}, {"type": "node", "id": 4477928443, "lat": -33.5328368, "lon": -70.574897}, {"type": "node", "id": 4477928449, "lat": -33.5332583, "lon": -70.5756365}, {"type": "node", "id": 4477928454, "lat": -33.5333808, "lon": -70.5753174}, {"type": "node", "id": 4477928455, "lat": -33.5333136, "lon": -70.5748012}, {"type": "node", "id": 4477928456, "lat": -33.533575, "lon": -70.5747522}, {"type": "node", "id": 4477928457, "lat": -33.5335894, "lon": -70.5748626}, {"type": "node", "id": 4477928458, "lat": -33.5334369, "lon": -70.5748912}, {"type": "node", "id": 4477928459, "lat": -33.5334689, "lon": -70.575137}, {"type": "node", "id": 4477928460, "lat": -33.5336933, "lon": -70.5750949}, {"type": "node", "id": 4477928461, "lat": -33.5337142, "lon": -70.5752549}, {"type": "node", "id": 4480049216, "lat": -33.5213337, "lon": -70.5584765}, {"type": "node", "id": 4480049226, "lat": -33.5216011, "lon": -70.5585041}, {"type": "node", "id": 4480049227, "lat": -33.521605, "lon": -70.5587399}, {"type": "node", "id": 4480296599, "lat": -33.5658868, "lon": -70.5928797}, {"type": "node", "id": 4480296600, "lat": -33.5659847, "lon": -70.5928602}, {"type": "node", "id": 4480296601, "lat": -33.5659758, "lon": -70.5927959}, {"type": "node", "id": 4480296602, "lat": -33.5661221, "lon": -70.5927667}, {"type": "node", "id": 4480296603, "lat": -33.5661404, "lon": -70.5928991}, {"type": "node", "id": 4480296604, "lat": -33.565991, "lon": -70.5929288}, {"type": "node", "id": 4480296605, "lat": -33.5660003, "lon": -70.5929955}, {"type": "node", "id": 4480296606, "lat": -33.5662586, "lon": -70.592944}, {"type": "node", "id": 4480296607, "lat": -33.5662112, "lon": -70.592602}, {"type": "node", "id": 4480296608, "lat": -33.5658581, "lon": -70.5926724}, {"type": "node", "id": 4480322698, "lat": -33.5693542, "lon": -70.61023, "tags": {"source": "Reconocimiento cortogr\u00e1fico de campo 2016 por KG"}}, {"type": "node", "id": 4480322699, "lat": -33.5697373, "lon": -70.6101756, "tags": {"source": "Reconocimiento cortogr\u00e1fico de campo 2016 por KG"}}, {"type": "node", "id": 4480322700, "lat": -33.5695719, "lon": -70.6095131, "tags": {"source": "Reconocimiento cortogr\u00e1fico de campo 2016 por KG"}}, {"type": "node", "id": 4480322701, "lat": -33.5692828, "lon": -70.6095591, "tags": {"source": "Reconocimiento cortogr\u00e1fico de campo 2016 por KG"}}, {"type": "node", "id": 4482842111, "lat": -33.5308839, "lon": -70.6085589, "tags": {"source": "Reconocimiento cartogr\u00e1fico 2016 por KG."}}, {"type": "node", "id": 4482842112, "lat": -33.5300852, "lon": -70.6080258, "tags": {"source": "Reconocimiento cartogr\u00e1fico 2016 por KG."}}, {"type": "node", "id": 4482842113, "lat": -33.5303936, "lon": -70.607361, "tags": {"source": "Reconocimiento cartogr\u00e1fico 2016 por KG."}}, {"type": "node", "id": 4482842114, "lat": -33.5311922, "lon": -70.6078941, "tags": {"source": "Reconocimiento cartogr\u00e1fico 2016 por KG."}}, {"type": "node", "id": 4487425492, "lat": -33.5579017, "lon": -70.6021231, "tags": {"source": "Reconocimiento cartogr\u00e1fico 2016 por KG."}}, {"type": "node", "id": 4487425493, "lat": -33.5580028, "lon": -70.6021113, "tags": {"source": "Reconocimiento cartogr\u00e1fico 2016 por KG."}}, {"type": "node", "id": 4487425494, "lat": -33.5580005, "lon": -70.602082, "tags": {"source": "Reconocimiento cartogr\u00e1fico 2016 por KG."}}, {"type": "node", "id": 4487425495, "lat": -33.5580482, "lon": -70.6020764, "tags": {"source": "Reconocimiento cartogr\u00e1fico 2016 por KG."}}, {"type": "node", "id": 4487425496, "lat": -33.5580381, "lon": -70.6019516, "tags": {"source": "Reconocimiento cartogr\u00e1fico 2016 por KG."}}, {"type": "node", "id": 4487425497, "lat": -33.5579848, "lon": -70.6019578, "tags": {"source": "Reconocimiento cartogr\u00e1fico 2016 por KG."}}, {"type": "node", "id": 4487425498, "lat": -33.5579872, "lon": -70.6019882, "tags": {"source": "Reconocimiento cartogr\u00e1fico 2016 por KG."}}, {"type": "node", "id": 4487425499, "lat": -33.5579503, "lon": -70.6019925, "tags": {"source": "Reconocimiento cartogr\u00e1fico 2016 por KG."}}, {"type": "node", "id": 4487425500, "lat": -33.5579448, "lon": -70.6019247, "tags": {"source": "Reconocimiento cartogr\u00e1fico 2016 por KG."}}, {"type": "node", "id": 4487425501, "lat": -33.5578862, "lon": -70.6019315, "tags": {"source": "Reconocimiento cartogr\u00e1fico 2016 por KG."}}, {"type": "node", "id": 4487688410, "lat": -33.5387651, "lon": -70.6054555, "tags": {"source": "Reconocimiento cartogr\u00e1fico 2016 por KG."}}, {"type": "node", "id": 4487688411, "lat": -33.5388016, "lon": -70.6054777, "tags": {"source": "Reconocimiento cartogr\u00e1fico 2016 por KG."}}, {"type": "node", "id": 4487688412, "lat": -33.5395722, "lon": -70.6055418, "tags": {"source": "Reconocimiento cartogr\u00e1fico 2016 por KG."}}, {"type": "node", "id": 4487688413, "lat": -33.5395903, "lon": -70.6046449, "tags": {"source": "Reconocimiento cartogr\u00e1fico 2016 por KG."}}, {"type": "node", "id": 4487688414, "lat": -33.5389876, "lon": -70.6046186, "tags": {"source": "Reconocimiento cartogr\u00e1fico 2016 por KG."}}, {"type": "node", "id": 4487688415, "lat": -33.5389397, "lon": -70.6055257, "tags": {"source": "Reconocimiento cartogr\u00e1fico 2016 por KG."}}, {"type": "node", "id": 4491413756, "lat": -33.5479373, "lon": -70.6117779, "tags": {"source": "Reconocimiento cartogr\u00e1fico 2016 por KG."}}, {"type": "node", "id": 4491413757, "lat": -33.5479386, "lon": -70.6116894, "tags": {"source": "Reconocimiento cartogr\u00e1fico 2016 por KG."}}, {"type": "node", "id": 4491413758, "lat": -33.548234, "lon": -70.6116954, "tags": {"source": "Reconocimiento cartogr\u00e1fico 2016 por KG."}}, {"type": "node", "id": 4491413759, "lat": -33.5482324, "lon": -70.6118098, "tags": {"source": "Reconocimiento cartogr\u00e1fico 2016 por KG."}}, {"type": "node", "id": 4491413760, "lat": -33.5479917, "lon": -70.6118049, "tags": {"source": "Reconocimiento cartogr\u00e1fico 2016 por KG."}}, {"type": "node", "id": 4491413761, "lat": -33.547992, "lon": -70.611779, "tags": {"source": "Reconocimiento cartogr\u00e1fico 2016 por KG."}}, {"type": "node", "id": 4491413762, "lat": -33.5478944, "lon": -70.6135983}, {"type": "node", "id": 4491413763, "lat": -33.5478958, "lon": -70.6135531}, {"type": "node", "id": 4491413764, "lat": -33.5479929, "lon": -70.6135574}, {"type": "node", "id": 4491413765, "lat": -33.5479886, "lon": -70.6136945}, {"type": "node", "id": 4491413766, "lat": -33.5479428, "lon": -70.6136925}, {"type": "node", "id": 4491413767, "lat": -33.5479457, "lon": -70.6136006}, {"type": "node", "id": 4491455243, "lat": -33.5465955, "lon": -70.6072404, "tags": {"source": "Reconocimiento cartogr\u00e1fico 2016 por KG."}}, {"type": "node", "id": 4491455244, "lat": -33.5466121, "lon": -70.6067855, "tags": {"source": "Reconocimiento cartogr\u00e1fico 2016 por KG."}}, {"type": "node", "id": 4491455245, "lat": -33.5459938, "lon": -70.606753, "tags": {"source": "Reconocimiento cartogr\u00e1fico 2016 por KG."}}, {"type": "node", "id": 4491455246, "lat": -33.5459772, "lon": -70.607208, "tags": {"source": "Reconocimiento cartogr\u00e1fico 2016 por KG."}}, {"type": "node", "id": 4491654799, "lat": -33.5557238, "lon": -70.6102807}, {"type": "node", "id": 4491654800, "lat": -33.5564676, "lon": -70.6101664}, {"type": "node", "id": 4491654801, "lat": -33.5563144, "lon": -70.6087299}, {"type": "node", "id": 4491654802, "lat": -33.5555706, "lon": -70.6088442}, {"type": "node", "id": 4493068308, "lat": -33.5478244, "lon": -70.5978465, "tags": {"source": "Reconocimiento cartogr\u00e1fico 2016 por KG."}}, {"type": "node", "id": 4493068309, "lat": -33.5470523, "lon": -70.5978428, "tags": {"source": "Reconocimiento cartogr\u00e1fico 2016 por KG."}}, {"type": "node", "id": 4493134964, "lat": -33.5469701, "lon": -70.6015799}, {"type": "node", "id": 4493134965, "lat": -33.5478043, "lon": -70.6014556, "tags": {"addr:country": "CL", "note": "Correcciones masivas a ortograf\u00eda en nombres de importaciones hechas por equipo de gendarmer\u00eda", "source": "Reconocimiento cartogr\u00e1fico 2016 por KG."}}, {"type": "node", "id": 4493134966, "lat": -33.5478242, "lon": -70.6006189, "tags": {"addr:country": "CL", "note": "Correcciones masivas a ortograf\u00eda en nombres de importaciones hechas por equipo de gendarmer\u00eda", "source": "Reconocimiento cartogr\u00e1fico 2016 por KG."}}, {"type": "node", "id": 4493134967, "lat": -33.5469931, "lon": -70.6005878}, {"type": "node", "id": 4493323550, "lat": -33.5536845, "lon": -70.604306, "tags": {"addr:country": "CL", "note": "Correcciones masivas a ortograf\u00eda en nombres de importaciones hechas por equipo de gendarmer\u00eda", "source": "Reconocimiento cartogr\u00e1fico 2016 por KG."}}, {"type": "node", "id": 4493323551, "lat": -33.5538443, "lon": -70.604277, "tags": {"addr:country": "CL", "note": "Correcciones masivas a ortograf\u00eda en nombres de importaciones hechas por equipo de gendarmer\u00eda", "source": "Reconocimiento cartogr\u00e1fico 2016 por KG."}}, {"type": "node", "id": 4493323552, "lat": -33.5538142, "lon": -70.6040384, "tags": {"addr:country": "CL", "note": "Correcciones masivas a ortograf\u00eda en nombres de importaciones hechas por equipo de gendarmer\u00eda", "source": "Reconocimiento cartogr\u00e1fico 2016 por KG."}}, {"type": "node", "id": 4493323553, "lat": -33.5536545, "lon": -70.6040673, "tags": {"addr:country": "CL", "note": "Correcciones masivas a ortograf\u00eda en nombres de importaciones hechas por equipo de gendarmer\u00eda", "source": "Reconocimiento cartogr\u00e1fico 2016 por KG."}}, {"type": "node", "id": 4493387159, "lat": -33.5518981, "lon": -70.5903874}, {"type": "node", "id": 4493387160, "lat": -33.5533718, "lon": -70.5900525}, {"type": "node", "id": 4493387161, "lat": -33.5533618, "lon": -70.589673}, {"type": "node", "id": 4493387162, "lat": -33.552004, "lon": -70.589699}, {"type": "node", "id": 4493542102, "lat": -33.5580333, "lon": -70.5924426}, {"type": "node", "id": 4493542103, "lat": -33.5587885, "lon": -70.5923359}, {"type": "node", "id": 4493542104, "lat": -33.5587099, "lon": -70.5915352}, {"type": "node", "id": 4493542105, "lat": -33.5578649, "lon": -70.5916546}, {"type": "node", "id": 4493542106, "lat": -33.5578978, "lon": -70.5919903}, {"type": "node", "id": 4493542107, "lat": -33.5579876, "lon": -70.5919776}, {"type": "node", "id": 4493542118, "lat": -33.5574487, "lon": -70.5915111}, {"type": "node", "id": 4493542119, "lat": -33.5576307, "lon": -70.5914868}, {"type": "node", "id": 4493542120, "lat": -33.5576218, "lon": -70.5913915}, {"type": "node", "id": 4493542121, "lat": -33.5574399, "lon": -70.5914158}, {"type": "node", "id": 4493554017, "lat": -33.5577112, "lon": -70.5962002}, {"type": "node", "id": 4493554018, "lat": -33.5581434, "lon": -70.5961227}, {"type": "node", "id": 4493554019, "lat": -33.55808, "lon": -70.5956139}, {"type": "node", "id": 4493554020, "lat": -33.5576478, "lon": -70.5956914}, {"type": "node", "id": 4502828151, "lat": -33.5376114, "lon": -70.5769481}, {"type": "node", "id": 4502828152, "lat": -33.537681, "lon": -70.5769173}, {"type": "node", "id": 4502828153, "lat": -33.5375625, "lon": -70.5765315}, {"type": "node", "id": 4502828154, "lat": -33.5374571, "lon": -70.576578}, {"type": "node", "id": 4502828155, "lat": -33.5374997, "lon": -70.5767168}, {"type": "node", "id": 4502828156, "lat": -33.5374691, "lon": -70.5767303}, {"type": "node", "id": 4502828157, "lat": -33.5375199, "lon": -70.576896}, {"type": "node", "id": 4502828158, "lat": -33.5375864, "lon": -70.5768666}, {"type": "node", "id": 4503136303, "lat": -33.510408, "lon": -70.5863233}, {"type": "node", "id": 4503136304, "lat": -33.5109245, "lon": -70.5862627}, {"type": "node", "id": 4503136305, "lat": -33.5108556, "lon": -70.5854177}, {"type": "node", "id": 4503136306, "lat": -33.5103391, "lon": -70.5854783}, {"type": "node", "id": 4506778593, "lat": -33.5207192, "lon": -70.5892933}, {"type": "node", "id": 4506778594, "lat": -33.5207154, "lon": -70.5887969}, {"type": "node", "id": 4506778595, "lat": -33.5198289, "lon": -70.5888068}, {"type": "node", "id": 4506778596, "lat": -33.5198328, "lon": -70.5893033}, {"type": "node", "id": 4507013586, "lat": -33.517789, "lon": -70.5934569}, {"type": "node", "id": 4507013587, "lat": -33.5181135, "lon": -70.5937117}, {"type": "node", "id": 4507013588, "lat": -33.5185083, "lon": -70.5930251}, {"type": "node", "id": 4507015589, "lat": -33.5173317, "lon": -70.5922179}, {"type": "node", "id": 4507015590, "lat": -33.5172562, "lon": -70.5923944}, {"type": "node", "id": 4514152432, "lat": -33.5626597, "lon": -70.6039493}, {"type": "node", "id": 4514152439, "lat": -33.563753, "lon": -70.6032424}, {"type": "node", "id": 4514152440, "lat": -33.5626109, "lon": -70.6034332}, {"type": "node", "id": 4514229125, "lat": -33.511887, "lon": -70.5580564, "tags": {"addr:country": "CL", "source": "Reconocimiento cartogr\u00e1fico 2016 por KG"}}, {"type": "node", "id": 4640985592, "lat": -33.5371627, "lon": -70.5724856, "tags": {"addr:housenumber": "9324", "addr:street": "Avenida La Florida", "amenity": "school", "email": "perito.informatica@gmail.com", "name": "Academia Kensai", "name:en": "Kensai Academy", "opening_hours": "Mo-Fr 11:00-22:00", "phone": "963673545", "website": "http://www.fguerrero.org"}}, {"type": "node", "id": 4934406411, "lat": -33.5393616, "lon": -70.5791775}, {"type": "node", "id": 4934406412, "lat": -33.5393879, "lon": -70.5792607}, {"type": "node", "id": 4934406414, "lat": -33.5394318, "lon": -70.579145}, {"type": "node", "id": 4934406415, "lat": -33.5394457, "lon": -70.5791355}, {"type": "node", "id": 4934406416, "lat": -33.5394592, "lon": -70.57912}, {"type": "node", "id": 4934406418, "lat": -33.5394671, "lon": -70.5791053}, {"type": "node", "id": 4934406419, "lat": -33.5394731, "lon": -70.5790849}, {"type": "node", "id": 4934406420, "lat": -33.5394739, "lon": -70.5789697}, {"type": "node", "id": 4934407921, "lat": -33.5394741, "lon": -70.5790562}, {"type": "node", "id": 4934407923, "lat": -33.5395242, "lon": -70.579195}, {"type": "node", "id": 4934407926, "lat": -33.5395522, "lon": -70.5791447}, {"type": "node", "id": 4934407927, "lat": -33.5395527, "lon": -70.5789697}, {"type": "node", "id": 4942743017, "lat": -33.5359022, "lon": -70.5547713}, {"type": "node", "id": 4951103555, "lat": -33.5195522, "lon": -70.6015008}, {"type": "node", "id": 4951103557, "lat": -33.5189698, "lon": -70.6018888}, {"type": "node", "id": 4953720038, "lat": -33.5427944, "lon": -70.5542124}, {"type": "node", "id": 4953720043, "lat": -33.5427988, "lon": -70.5540871}, {"type": "node", "id": 4953720070, "lat": -33.5428765, "lon": -70.5542165}, {"type": "node", "id": 4953720073, "lat": -33.5428809, "lon": -70.5540913}, {"type": "node", "id": 5274568508, "lat": -33.5610742, "lon": -70.5688377}, {"type": "node", "id": 5274568509, "lat": -33.5626438, "lon": -70.568429}, {"type": "node", "id": 5274568510, "lat": -33.5611832, "lon": -70.5694198}, {"type": "node", "id": 5286319775, "lat": -33.518475, "lon": -70.5843874}, {"type": "node", "id": 5286319776, "lat": -33.5193564, "lon": -70.5843574}, {"type": "node", "id": 5286319777, "lat": -33.5193586, "lon": -70.584853}, {"type": "node", "id": 5286319778, "lat": -33.5190615, "lon": -70.585229}, {"type": "node", "id": 5286319779, "lat": -33.5190618, "lon": -70.5850188}, {"type": "node", "id": 5291905325, "lat": -33.5184906, "lon": -70.5851064}, {"type": "node", "id": 5291905326, "lat": -33.5184867, "lon": -70.5848726}, {"type": "node", "id": 5291905329, "lat": -33.5184925, "lon": -70.5852006}, {"type": "node", "id": 5291905334, "lat": -33.519357, "lon": -70.5845427}, {"type": "node", "id": 5291905339, "lat": -33.5190593, "lon": -70.5849516}, {"type": "node", "id": 5453956921, "lat": -33.5327366, "lon": -70.6047061}, {"type": "node", "id": 5453956922, "lat": -33.5330652, "lon": -70.6039846}, {"type": "node", "id": 5453956923, "lat": -33.5337114, "lon": -70.6044459}, {"type": "node", "id": 5453956924, "lat": -33.5333939, "lon": -70.6051567}, {"type": "node", "id": 5567863478, "lat": -33.5210207, "lon": -70.5621393}, {"type": "node", "id": 5567863479, "lat": -33.521004, "lon": -70.5612744}, {"type": "node", "id": 5567863480, "lat": -33.5221608, "lon": -70.5612711}, {"type": "node", "id": 5567863481, "lat": -33.5221696, "lon": -70.5621186}, {"type": "node", "id": 5695750039, "lat": -33.5124363, "lon": -70.5996838}, {"type": "node", "id": 5695750040, "lat": -33.512451, "lon": -70.5994383}, {"type": "node", "id": 5716246146, "lat": -33.5395677, "lon": -70.5787829}, {"type": "node", "id": 5716246147, "lat": -33.5395418, "lon": -70.5787088}, {"type": "node", "id": 5716246148, "lat": -33.5394257, "lon": -70.578767}, {"type": "node", "id": 5716246149, "lat": -33.5394515, "lon": -70.5788412}, {"type": "node", "id": 5716305279, "lat": -33.5222102, "lon": -70.5666919}, {"type": "node", "id": 5716305280, "lat": -33.5222084, "lon": -70.566137}, {"type": "node", "id": 5716305281, "lat": -33.5212928, "lon": -70.5661573}, {"type": "node", "id": 5716305282, "lat": -33.5214625, "lon": -70.5666935}, {"type": "node", "id": 5716306443, "lat": -33.5215396, "lon": -70.5862111}, {"type": "node", "id": 5716306444, "lat": -33.522447, "lon": -70.5856617}, {"type": "node", "id": 5716306445, "lat": -33.5224504, "lon": -70.5861128}, {"type": "node", "id": 5716425566, "lat": -33.5133291, "lon": -70.5660544}, {"type": "node", "id": 5716425567, "lat": -33.5135989, "lon": -70.5660897}, {"type": "node", "id": 5799861793, "lat": -33.5547513, "lon": -70.5764429}, {"type": "node", "id": 5799861794, "lat": -33.5548363, "lon": -70.5764234}, {"type": "node", "id": 5850083433, "lat": -33.5444762, "lon": -70.5865157}, {"type": "node", "id": 5850083434, "lat": -33.5444413, "lon": -70.586013}, {"type": "node", "id": 5850083435, "lat": -33.543551, "lon": -70.5861561}, {"type": "node", "id": 5850083436, "lat": -33.5435365, "lon": -70.586952}, {"type": "node", "id": 5850089588, "lat": -33.5345489, "lon": -70.5355316}, {"type": "node", "id": 5850089595, "lat": -33.5336999, "lon": -70.5360541}, {"type": "node", "id": 5850089600, "lat": -33.5354516, "lon": -70.5359913}, {"type": "node", "id": 5850089601, "lat": -33.5352956, "lon": -70.5353609}, {"type": "node", "id": 5850089607, "lat": -33.5347371, "lon": -70.5365838}, {"type": "node", "id": 5851424367, "lat": -33.5336469, "lon": -70.5370519}, {"type": "node", "id": 5851424369, "lat": -33.534598, "lon": -70.5356899}, {"type": "node", "id": 5881703007, "lat": -33.5511668, "lon": -70.5938319}, {"type": "node", "id": 5881703008, "lat": -33.5511744, "lon": -70.5945572}, {"type": "node", "id": 5881703009, "lat": -33.5508092, "lon": -70.5945626}, {"type": "node", "id": 5881703010, "lat": -33.5507116, "lon": -70.5944456}, {"type": "node", "id": 5881703011, "lat": -33.5503737, "lon": -70.5944507}, {"type": "node", "id": 5881703012, "lat": -33.5503674, "lon": -70.5938439}, {"type": "node", "id": 5882179215, "lat": -33.5502827, "lon": -70.5887448}, {"type": "node", "id": 5882179216, "lat": -33.5510829, "lon": -70.5886959}, {"type": "node", "id": 5882179217, "lat": -33.55109, "lon": -70.58907}, {"type": "node", "id": 5882179218, "lat": -33.5507247, "lon": -70.58908}, {"type": "node", "id": 5882179219, "lat": -33.550539, "lon": -70.5890851}, {"type": "node", "id": 5882179222, "lat": -33.5477002, "lon": -70.5946342}, {"type": "node", "id": 5882179223, "lat": -33.5476993, "lon": -70.5948744}, {"type": "node", "id": 5882179224, "lat": -33.5471388, "lon": -70.5948678}, {"type": "node", "id": 5885475319, "lat": -33.5478125, "lon": -70.5987429}, {"type": "node", "id": 5885475320, "lat": -33.5470249, "lon": -70.5987244}, {"type": "node", "id": 5923449719, "lat": -33.5520103, "lon": -70.5900306}, {"type": "node", "id": 5923449720, "lat": -33.5518835, "lon": -70.5900341}, {"type": "node", "id": 5923449727, "lat": -33.5519267, "lon": -70.5919289}, {"type": "node", "id": 5923449728, "lat": -33.5519071, "lon": -70.5913474}, {"type": "node", "id": 5923449729, "lat": -33.5534116, "lon": -70.5912744}, {"type": "node", "id": 5923449730, "lat": -33.5534312, "lon": -70.5918559}, {"type": "node", "id": 5929353176, "lat": -33.5392037, "lon": -70.5788272}, {"type": "node", "id": 5929354012, "lat": -33.5393647, "lon": -70.5793308}, {"type": "node", "id": 5929354064, "lat": -33.5395212, "lon": -70.5792638}, {"type": "node", "id": 5929354070, "lat": -33.5395278, "lon": -70.579195}, {"type": "node", "id": 5929354083, "lat": -33.5395545, "lon": -70.5791464}, {"type": "node", "id": 5929354292, "lat": -33.5395899, "lon": -70.5786482}, {"type": "node", "id": 5929354293, "lat": -33.5395905, "lon": -70.579125}, {"type": "node", "id": 5936814619, "lat": -33.5221782, "lon": -70.5823483}, {"type": "node", "id": 5936814624, "lat": -33.5214291, "lon": -70.5829599}, {"type": "node", "id": 5936814625, "lat": -33.5213894, "lon": -70.582294}, {"type": "node", "id": 5936814626, "lat": -33.5224874, "lon": -70.5814397}, {"type": "node", "id": 5936814627, "lat": -33.5224896, "lon": -70.5821116}, {"type": "node", "id": 5940863117, "lat": -33.5372173, "lon": -70.6002656}, {"type": "node", "id": 5940863120, "lat": -33.5368722, "lon": -70.6002625}, {"type": "node", "id": 5940863121, "lat": -33.5375779, "lon": -70.6002675}, {"type": "node", "id": 5940863122, "lat": -33.5375628, "lon": -70.601036}, {"type": "node", "id": 5940863123, "lat": -33.5368597, "lon": -70.6010266}, {"type": "node", "id": 5998763931, "lat": -33.5336656, "lon": -70.575264}, {"type": "node", "id": 6001388198, "lat": -33.530982, "lon": -70.5853623}, {"type": "node", "id": 6001388207, "lat": -33.5308757, "lon": -70.5847724}, {"type": "node", "id": 6013588772, "lat": -33.5135749, "lon": -70.6002867}, {"type": "node", "id": 6013588775, "lat": -33.5136195, "lon": -70.5995503}, {"type": "node", "id": 6013588776, "lat": -33.5133086, "lon": -70.6002597}, {"type": "node", "id": 6013588777, "lat": -33.5125238, "lon": -70.5997088}, {"type": "node", "id": 6013593333, "lat": -33.5186196, "lon": -70.6014944}, {"type": "node", "id": 6013593348, "lat": -33.5193296, "lon": -70.6010071}, {"type": "node", "id": 6013593373, "lat": -33.518883, "lon": -70.6019776}, {"type": "node", "id": 6025866561, "lat": -33.5540574, "lon": -70.5769313, "tags": {"access": "private", "barrier": "gate"}}, {"type": "node", "id": 6208182196, "lat": -33.5131221, "lon": -70.6092717}, {"type": "node", "id": 6208182197, "lat": -33.5123976, "lon": -70.6099423}, {"type": "node", "id": 6208182198, "lat": -33.5138803, "lon": -70.6109655}, {"type": "node", "id": 6208182199, "lat": -33.5131132, "lon": -70.6110446}, {"type": "node", "id": 6208182200, "lat": -33.5138043, "lon": -70.6106611}, {"type": "node", "id": 6208182203, "lat": -33.5133782, "lon": -70.609786}, {"type": "node", "id": 6208182204, "lat": -33.5134006, "lon": -70.6097706}, {"type": "node", "id": 6228593043, "lat": -33.5130338, "lon": -70.5361909}, {"type": "node", "id": 6228593044, "lat": -33.5120985, "lon": -70.5355116}, {"type": "node", "id": 6228593045, "lat": -33.5123115, "lon": -70.5360407}, {"type": "node", "id": 6251245560, "lat": -33.5393539, "lon": -70.5951915}, {"type": "node", "id": 6251245561, "lat": -33.5384971, "lon": -70.5954084}, {"type": "node", "id": 6251245562, "lat": -33.538488, "lon": -70.595936}, {"type": "node", "id": 6251245563, "lat": -33.5393403, "lon": -70.5957484}, {"type": "node", "id": 6522230743, "lat": -33.5309471, "lon": -70.5851693}, {"type": "node", "id": 6522230744, "lat": -33.5309345, "lon": -70.5850942}, {"type": "node", "id": 6522230745, "lat": -33.5309281, "lon": -70.5850645}, {"type": "node", "id": 6522230746, "lat": -33.5309173, "lon": -70.5850006}, {"type": "node", "id": 6522230747, "lat": -33.5309598, "lon": -70.5852305}, {"type": "node", "id": 6522230748, "lat": -33.5308876, "lon": -70.5848433}, {"type": "node", "id": 6820616463, "lat": -33.5430128, "lon": -70.5708586}, {"type": "node", "id": 6820616464, "lat": -33.5435649, "lon": -70.5706415}, {"type": "node", "id": 6820616465, "lat": -33.5435591, "lon": -70.570907}, {"type": "node", "id": 6820616466, "lat": -33.5430142, "lon": -70.5711134}, {"type": "node", "id": 6820617520, "lat": -33.5437624, "lon": -70.5689686}, {"type": "node", "id": 6820617521, "lat": -33.5436756, "lon": -70.5690004}, {"type": "node", "id": 6950104733, "lat": -33.5502512, "lon": -70.5689145}, {"type": "node", "id": 6950104734, "lat": -33.5501179, "lon": -70.5687511}, {"type": "node", "id": 7461401063, "lat": -33.5368295, "lon": -70.5546468}, {"type": "node", "id": 7461401064, "lat": -33.5369296, "lon": -70.5551263}, {"type": "node", "id": 7540467460, "lat": -33.5217411, "lon": -70.5827104}, {"type": "node", "id": 7547162704, "lat": -33.5130109, "lon": -70.5357446}, {"type": "node", "id": 7547162705, "lat": -33.5129983, "lon": -70.535749}, {"type": "node", "id": 7547162706, "lat": -33.5129997, "lon": -70.5357946}, {"type": "node", "id": 7547162707, "lat": -33.513016, "lon": -70.5357979}, {"type": "node", "id": 7547162708, "lat": -33.512993, "lon": -70.5346613}, {"type": "node", "id": 7547162709, "lat": -33.5129757, "lon": -70.534654}, {"type": "node", "id": 7547162710, "lat": -33.5129841, "lon": -70.5344448}, {"type": "node", "id": 7547162711, "lat": -33.5130048, "lon": -70.5344454}, {"type": "node", "id": 7547162712, "lat": -33.5130104, "lon": -70.5342704}, {"type": "node", "id": 7547162713, "lat": -33.5129874, "lon": -70.5342654}, {"type": "node", "id": 7547162714, "lat": -33.511881, "lon": -70.5348243}, {"type": "node", "id": 7547162715, "lat": -33.5122165, "lon": -70.5358274}, {"type": "node", "id": 7547217640, "lat": -33.5130062, "lon": -70.5356548}, {"type": "node", "id": 7547217641, "lat": -33.5130106, "lon": -70.5357289}, {"type": "node", "id": 7562654093, "lat": -33.513821, "lon": -70.6107871}, {"type": "node", "id": 7562654094, "lat": -33.5138009, "lon": -70.6108153}, {"type": "node", "id": 7568675757, "lat": -33.5265525, "lon": -70.5832449}, {"type": "node", "id": 7568675758, "lat": -33.5265156, "lon": -70.5829632}, {"type": "node", "id": 7568675759, "lat": -33.5262595, "lon": -70.5830008}, {"type": "node", "id": 7568675760, "lat": -33.5262417, "lon": -70.5823463}, {"type": "node", "id": 7568675761, "lat": -33.5266986, "lon": -70.5822307}, {"type": "node", "id": 7568675762, "lat": -33.5267403, "lon": -70.5825911}, {"type": "node", "id": 7568675763, "lat": -33.5268236, "lon": -70.5825763}, {"type": "node", "id": 7568675764, "lat": -33.5268359, "lon": -70.5826796}, {"type": "node", "id": 7568675765, "lat": -33.5267822, "lon": -70.5826896}, {"type": "node", "id": 7568675766, "lat": -33.5267867, "lon": -70.5827245}, {"type": "node", "id": 7568675767, "lat": -33.5267604, "lon": -70.5827292}, {"type": "node", "id": 7568675768, "lat": -33.5268247, "lon": -70.5831838}, {"type": "node", "id": 7740320325, "lat": -33.5173521, "lon": -70.5631216}, {"type": "node", "id": 7740320326, "lat": -33.5182041, "lon": -70.5632088}, {"type": "node", "id": 7740320327, "lat": -33.5174074, "lon": -70.5634039}, {"type": "node", "id": 7740320328, "lat": -33.5171776, "lon": -70.5631772}, {"type": "node", "id": 7740320329, "lat": -33.5173264, "lon": -70.5637331}, {"type": "node", "id": 7740320330, "lat": -33.5174583, "lon": -70.5636694}, {"type": "node", "id": 7740320331, "lat": -33.5174834, "lon": -70.5636621}, {"type": "node", "id": 7740320332, "lat": -33.5175086, "lon": -70.5636574}, {"type": "node", "id": 7740382412, "lat": -33.5173775, "lon": -70.5632665}, {"type": "node", "id": 7740382413, "lat": -33.5172148, "lon": -70.5633162}, {"type": "node", "id": 7824070189, "lat": -33.5409134, "lon": -70.5802422}, {"type": "node", "id": 7824070190, "lat": -33.5409398, "lon": -70.5802421}, {"type": "node", "id": 7824070191, "lat": -33.5409396, "lon": -70.580143}, {"type": "node", "id": 7824070192, "lat": -33.54099, "lon": -70.5801428}, {"type": "node", "id": 7824070193, "lat": -33.5409901, "lon": -70.5801992}, {"type": "node", "id": 7824070194, "lat": -33.5409749, "lon": -70.5801992}, {"type": "node", "id": 7824070195, "lat": -33.540975, "lon": -70.5802463}, {"type": "node", "id": 7824070196, "lat": -33.5410426, "lon": -70.580246}, {"type": "node", "id": 7824070197, "lat": -33.5410425, "lon": -70.5801802}, {"type": "node", "id": 7824070198, "lat": -33.5412833, "lon": -70.5801794}, {"type": "node", "id": 7824070199, "lat": -33.5412836, "lon": -70.5802849}, {"type": "node", "id": 7824070200, "lat": -33.5412236, "lon": -70.5802851}, {"type": "node", "id": 7824070201, "lat": -33.5412237, "lon": -70.5803201}, {"type": "node", "id": 7824070202, "lat": -33.5409136, "lon": -70.5803211}, {"type": "node", "id": 7888539984, "lat": -33.554939, "lon": -70.6044586}, {"type": "node", "id": 7888539987, "lat": -33.5549087, "lon": -70.6043155}, {"type": "node", "id": 8013304785, "lat": -33.5367972, "lon": -70.5544809}, {"type": "node", "id": 8013304786, "lat": -33.5358652, "lon": -70.5547809}, {"type": "node", "id": 8013304787, "lat": -33.5359687, "lon": -70.5554357}, {"type": "node", "id": 8013704680, "lat": -33.5544607, "lon": -70.5895963}, {"type": "node", "id": 8013704681, "lat": -33.5544227, "lon": -70.5884591}, {"type": "node", "id": 8013704682, "lat": -33.5539243, "lon": -70.5885341}, {"type": "node", "id": 8335733280, "lat": -33.5108266, "lon": -70.6109509}, {"type": "node", "id": 8335733281, "lat": -33.510232, "lon": -70.610127}, {"type": "node", "id": 8335733282, "lat": -33.5104038, "lon": -70.6099172}, {"type": "node", "id": 8335733283, "lat": -33.5109627, "lon": -70.6108265}, {"type": "node", "id": 9533596522, "lat": -33.5540807, "lon": -70.6045242}, {"type": "node", "id": 9533596523, "lat": -33.5546697, "lon": -70.6043686}, {"type": "node", "id": 9533605472, "lat": -33.5173755, "lon": -70.5659111}, {"type": "node", "id": 9861154493, "lat": -33.5648232, "lon": -70.5824517}, {"type": "node", "id": 9861154494, "lat": -33.5649439, "lon": -70.583135}, {"type": "node", "id": 9861154495, "lat": -33.5652339, "lon": -70.5830731}, {"type": "node", "id": 9861154496, "lat": -33.5651136, "lon": -70.5823999}, {"type": "node", "id": 9972770947, "lat": -33.5167179, "lon": -70.5853789}, {"type": "node", "id": 9972770948, "lat": -33.5168426, "lon": -70.5853772}, {"type": "node", "id": 9972770949, "lat": -33.5168395, "lon": -70.5850573}, {"type": "node", "id": 9972770950, "lat": -33.5170047, "lon": -70.585055}, {"type": "node", "id": 9972770951, "lat": -33.5170037, "lon": -70.5849545}, {"type": "node", "id": 9972770952, "lat": -33.5170005, "lon": -70.5846221}, {"type": "node", "id": 9972770953, "lat": -33.5167106, "lon": -70.5846261}, {"type": "node", "id": 9972991437, "lat": -33.5173434, "lon": -70.5808984}, {"type": "node", "id": 9972991440, "lat": -33.5168666, "lon": -70.5809767}, {"type": "node", "id": 9972991441, "lat": -33.5174057, "lon": -70.5808818}, {"type": "node", "id": 9972991442, "lat": -33.5173498, "lon": -70.5803669}, {"type": "node", "id": 9972991443, "lat": -33.5166432, "lon": -70.5804768}, {"type": "node", "id": 9972991444, "lat": -33.5166946, "lon": -70.5810133}, {"type": "node", "id": 10537025651, "lat": -33.5632871, "lon": -70.5932322}, {"type": "node", "id": 10537025652, "lat": -33.5638924, "lon": -70.5931526}, {"type": "node", "id": 10537025653, "lat": -33.5638461, "lon": -70.5925654}, {"type": "node", "id": 10537025681, "lat": -33.5609903, "lon": -70.5972692}, {"type": "node", "id": 10971289643, "lat": -33.5323001, "lon": -70.6017924, "tags": {"addr:city": "La Florida", "addr:housenumber": "773", "addr:street": "Santa Julia", "amenity": "school", "name": "Escuela Rep\u00fablica Dominicana"}}, {"type": "node", "id": 10971302171, "lat": -33.5478302, "lon": -70.6095793, "tags": {"addr:city": "La Florida", "addr:housenumber": "10050", "addr:street": "Calle 3", "amenity": "school", "name": "Escuela Catalu\u00f1a"}}, {"type": "node", "id": 10971303711, "lat": -33.5134494, "lon": -70.6003657, "tags": {"addr:city": "La Florida", "addr:housenumber": "1090", "addr:street": "Froil\u00e1n Lagos Sep\u00falveda", "amenity": "school", "name": "Escuela \u00c1reas Verdes"}}, {"type": "node", "id": 10971356912, "lat": -33.5278401, "lon": -70.6068888, "tags": {"addr:city": "La Florida", "addr:street": "Apolo XI", "amenity": "school", "name": "Escuela Villa Unidas"}}, {"type": "node", "id": 10971384339, "lat": -33.5672852, "lon": -70.5960414, "tags": {"addr:city": "La Florida", "addr:housenumber": "4280", "addr:street": "Concordia", "amenity": "school", "name": "Colegio Santa Patricia De La Florida"}}, {"type": "node", "id": 10971500535, "lat": -33.5248078, "lon": -70.5994605, "tags": {"addr:city": "La Florida", "addr:housenumber": "96", "addr:street": "Rodr\u00edguez Velasco", "amenity": "school", "name": "Escuela B\u00e1sica y Especial Andr\u00e9s Rey"}}, {"type": "node", "id": 10971543094, "lat": -33.5563281, "lon": -70.5856673, "tags": {"addr:city": "La Florida", "addr:housenumber": "38", "addr:street": "San Pedro", "amenity": "school", "name": "Escuela Especial Particular N\u00b0902 Instituto Vicu\u00f1a Mackenna"}}, {"type": "node", "id": 10971622099, "lat": -33.5608554, "lon": -70.587295, "tags": {"addr:city": "La Florida", "addr:housenumber": "70", "addr:street": "Mar\u00eda Elena", "amenity": "school", "name": "Escuela De P\u00e1rvulos N\u00b01136 The Red Garden"}}, {"type": "node", "id": 10974080417, "lat": -33.5471491, "lon": -70.5973844, "tags": {"addr:city": "La Florida", "addr:housenumber": "784", "addr:street": "Avenida Trinidad", "amenity": "school", "name": "Colegio General Estanislao Del Canto"}}, {"type": "node", "id": 10977254646, "lat": -33.560554, "lon": -70.5963524, "tags": {"addr:city": "La Florida", "addr:country": "CL", "addr:housenumber": "10968", "addr:street": "Uni\u00f3n", "amenity": "school", "name": "Escuela Especial Las Pepas", "note": "Correcciones masivas a ortograf\u00eda en nombres de importaciones hechas por equipo de gendarmer\u00eda"}}, {"type": "node", "id": 10977763734, "lat": -33.5615727, "lon": -70.5645645, "tags": {"addr:city": "La Florida", "addr:country": "CL", "addr:housenumber": "11595", "addr:street": "Eusebio Lillo", "amenity": "school", "name": "Escuela de P\u00e1rvulos y Especial Eusebio Lillo", "note": "Correcciones masivas a ortograf\u00eda en nombres de importaciones hechas por equipo de gendarmer\u00eda"}}, {"type": "node", "id": 10979177448, "lat": -33.5358886, "lon": -70.5902109, "tags": {"addr:city": "La Florida", "addr:country": "CL", "addr:housenumber": "145", "addr:street": "Rojas Magallanes", "amenity": "school", "name": "Escuela Especial El \u00c1guila y el Roble", "note": "Correcciones masivas a ortograf\u00eda en nombres de importaciones hechas por equipo de gendarmer\u00eda"}}, {"type": "node", "id": 10979296179, "lat": -33.5368527, "lon": -70.58938, "tags": {"addr:city": "La Florida", "addr:country": "CL", "addr:housenumber": "8994", "addr:street": "Estados Unidos", "amenity": "school", "name": "Escuela Especial ATRAVIA", "note": "Correcciones masivas a ortograf\u00eda en nombres de importaciones hechas por equipo de gendarmer\u00eda"}}, {"type": "node", "id": 10981515050, "lat": -33.5545538, "lon": -70.5932085, "tags": {"addr:city": "La Florida", "addr:country": "CL", "addr:housenumber": "620", "addr:street": "Las Violetas", "amenity": "school", "name": "Escuela Especial Licancura", "note": "Correcciones masivas a ortograf\u00eda en nombres de importaciones hechas por equipo de gendarmer\u00eda"}}, {"type": "node", "id": 11023961826, "lat": -33.5695762, "lon": -70.6092424}, {"type": "node", "id": 11023961827, "lat": -33.5694559, "lon": -70.6087546}, {"type": "node", "id": 11023961828, "lat": -33.5689383, "lon": -70.6086369}, {"type": "node", "id": 11023961829, "lat": -33.5689252, "lon": -70.6088479}, {"type": "node", "id": 11023961830, "lat": -33.568963, "lon": -70.6088562}, {"type": "node", "id": 11026890578, "lat": -33.5631414, "lon": -70.5846449}, {"type": "node", "id": 11026890579, "lat": -33.562965, "lon": -70.5836012}, {"type": "node", "id": 11026890580, "lat": -33.562608, "lon": -70.5836693}, {"type": "node", "id": 11026890581, "lat": -33.5627896, "lon": -70.5846981}, {"type": "node", "id": 11026890606, "lat": -33.5596664, "lon": -70.578994}, {"type": "node", "id": 11026890607, "lat": -33.559581, "lon": -70.5782917}, {"type": "node", "id": 11026890608, "lat": -33.5588573, "lon": -70.5784185}, {"type": "node", "id": 11026890609, "lat": -33.5589427, "lon": -70.5791207}, {"type": "node", "id": 11047400634, "lat": -33.5382437, "lon": -70.6057385}, {"type": "node", "id": 11047400635, "lat": -33.5383809, "lon": -70.6052306}, {"type": "node", "id": 11047400636, "lat": -33.5383499, "lon": -70.6052253}, {"type": "node", "id": 11047400637, "lat": -33.5383986, "lon": -70.6050696}, {"type": "node", "id": 11047400638, "lat": -33.5382924, "lon": -70.6050359}, {"type": "node", "id": 11047400639, "lat": -33.5381478, "lon": -70.6050359}, {"type": "node", "id": 11047400640, "lat": -33.5377053, "lon": -70.6050235}, {"type": "node", "id": 11047400657, "lat": -33.5353006, "lon": -70.5986627}, {"type": "node", "id": 11047400658, "lat": -33.5353032, "lon": -70.598373}, {"type": "node", "id": 11047400659, "lat": -33.5346511, "lon": -70.5983636}, {"type": "node", "id": 11052796561, "lat": -33.5494898, "lon": -70.5841703}, {"type": "node", "id": 11052796562, "lat": -33.549494, "lon": -70.5839213}, {"type": "node", "id": 11052796563, "lat": -33.5498886, "lon": -70.5839307}, {"type": "node", "id": 11052796564, "lat": -33.5498844, "lon": -70.5841798}, {"type": "node", "id": 11052812240, "lat": -33.5482685, "lon": -70.5820507}, {"type": "node", "id": 11052812241, "lat": -33.549053, "lon": -70.5820734}, {"type": "node", "id": 11052812242, "lat": -33.549071, "lon": -70.5811819}, {"type": "node", "id": 11052812243, "lat": -33.5482864, "lon": -70.5811592}, {"type": "node", "id": 11160012376, "lat": -33.5626758, "lon": -70.6039474}, {"type": "node", "id": 11160012377, "lat": -33.5637967, "lon": -70.6038237}, {"type": "node", "id": 11246157790, "lat": -33.5626233, "lon": -70.588399, "tags": {"addr:city": "La Florida", "addr:country": "CL", "addr:housenumber": "235", "addr:street": "Tegualda", "amenity": "school", "name": "Escuela de Lenguaje Basilea", "note": "Correcciones masivas a ortograf\u00eda en nombres de importaciones hechas por equipo de gendarmer\u00eda"}}, {"type": "node", "id": 11246302254, "lat": -33.5197362, "lon": -70.5748168, "tags": {"addr:country": "CL", "amenity": "school", "name": "Escuela Especial N\u00b0 2429 Peumayen"}}, {"type": "node", "id": 11260062239, "lat": -33.5521893, "lon": -70.594287, "tags": {"addr:country": "CL", "amenity": "school", "name": "Escuela Especial Somos Estrellitas", "note": "Correcciones masivas a ortograf\u00eda en nombres de importaciones hechas por equipo de gendarmer\u00eda"}}, {"type": "node", "id": 11289812558, "lat": -33.5173307, "lon": -70.5662033}, {"type": "node", "id": 11289812559, "lat": -33.5180696, "lon": -70.5663242}, {"type": "node", "id": 11289813216, "lat": -33.5124689, "lon": -70.5543034}, {"type": "node", "id": 11289813217, "lat": -33.5127462, "lon": -70.5543356}, {"type": "node", "id": 11289813218, "lat": -33.512773, "lon": -70.5537053}, {"type": "node", "id": 11289813219, "lat": -33.5124711, "lon": -70.5536838}, {"type": "node", "id": 11289813220, "lat": -33.5124465, "lon": -70.5539842}, {"type": "node", "id": 11310041385, "lat": -33.5622669, "lon": -70.5696542, "tags": {"addr:country": "CL", "amenity": "school", "name": "Escuela de P\u00e1rvulos Artistico Nuevo Sol", "note": "Correcciones masivas a ortograf\u00eda en nombres de importaciones hechas por equipo de gendarmer\u00eda"}}, {"type": "node", "id": 11331218714, "lat": -33.5141443, "lon": -70.5998744, "tags": {"addr:country": "CL", "amenity": "school", "name": "Escuela Hospitalaria Doctora Eloisa Diaz Insunza"}}, {"type": "node", "id": 11369391630, "lat": -33.5154428, "lon": -70.588441, "tags": {"addr:country": "CL", "amenity": "school", "name": "Escuela de P\u00e1rvulos Samorito"}}, {"type": "node", "id": 11369433353, "lat": -33.5475318, "lon": -70.579819, "tags": {"addr:country": "CL", "amenity": "school", "name": "Escuela Quillahue", "note": "Correcciones masivas a ortograf\u00eda en nombres de importaciones hechas por equipo de gendarmer\u00eda"}}, {"type": "node", "id": 11379694748, "lat": -33.5608142, "lon": -70.5773791, "tags": {"addr:city": "La Florida", "addr:country": "CL", "addr:housenumber": "11248", "addr:street": "Jos\u00e9 Manuel Gandarillas", "amenity": "school", "name": "Colegio Padre Chaminade", "note": "Correcciones masivas a ortograf\u00eda en nombres de importaciones hechas por equipo de gendarmer\u00eda"}}, {"type": "node", "id": 11385501488, "lat": -33.5365922, "lon": -70.5765265, "tags": {"addr:city": "La Florida", "addr:country": "CL", "addr:housenumber": "9262", "addr:street": "Avenida M\u00e9xico", "amenity": "school", "name": "Colegio Adventista La Florida", "note": "Correcciones masivas a ortograf\u00eda en nombres de importaciones hechas por equipo de gendarmer\u00eda"}}, {"type": "node", "id": 11394034402, "lat": -33.5274671, "lon": -70.6051645, "tags": {"addr:city": "La Florida", "addr:country": "CL", "addr:housenumber": "4504", "addr:street": "Aconcagua", "amenity": "school", "name": "Escuela de P\u00e1rvulos Phillips Garden", "note": "Correcciones masivas a ortograf\u00eda en nombres de importaciones hechas por equipo de gendarmer\u00eda"}}, {"type": "node", "id": 11394781448, "lat": -33.5125523, "lon": -70.603915, "tags": {"addr:city": "La Florida", "addr:country": "CL", "addr:housenumber": "475", "addr:street": "Mirador Azul", "amenity": "school", "name": "Escuela Especial Mirador Azul"}}, {"type": "node", "id": 11397770363, "lat": -33.530901, "lon": -70.5996507, "tags": {"addr:city": "La Florida", "addr:country": "CL", "addr:housenumber": "399", "addr:street": "Los C\u00f3ndores", "amenity": "school", "name": "Liceo de Adultos Hernando de Magallanes", "note": "Correcciones masivas a ortograf\u00eda en nombres de importaciones hechas por equipo de gendarmer\u00eda"}}, {"type": "node", "id": 11397816716, "lat": -33.5180811, "lon": -70.6072166, "tags": {"addr:city": "La Florida", "addr:country": "CL", "addr:housenumber": "235", "addr:street": "Atahualpa", "amenity": "school", "name": "Escuela Nuestra Se\u00f1ora de Covadonga"}}, {"type": "node", "id": 11398790236, "lat": -33.5219027, "lon": -70.5649508, "tags": {"addr:city": "La Florida", "addr:country": "CL", "addr:housenumber": "7390", "addr:street": "Orompello", "amenity": "school", "name": "Escuela Especial Diversidad"}}, {"type": "node", "id": 11400935509, "lat": -33.5491033, "lon": -70.5853735, "tags": {"addr:city": "La Florida", "addr:country": "CL", "addr:housenumber": "169", "addr:street": "John Kennedy", "amenity": "school", "name": "Escuela Especial Antobel", "note": "Correcciones masivas a ortograf\u00eda en nombres de importaciones hechas por equipo de gendarmer\u00eda"}}, {"type": "node", "id": 11401085525, "lat": -33.5633624, "lon": -70.5801165, "tags": {"addr:city": "La Florida", "addr:country": "CL", "addr:housenumber": "11599", "addr:street": "ManuEl Rengifo", "amenity": "school", "name": "Colegio de Adultos Antu Anay", "note": "Correcciones masivas a ortograf\u00eda en nombres de importaciones hechas por equipo de gendarmer\u00eda"}}, {"type": "node", "id": 11405638619, "lat": -33.5269457, "lon": -70.5374467, "tags": {"addr:city": "La Florida", "addr:country": "CL", "addr:housenumber": "4378", "addr:street": "Longitudinal Sur", "amenity": "school", "name": "Colegio antuquenu andino", "note": "Correcciones masivas a ortograf\u00eda en nombres de importaciones hechas por equipo de gendarmer\u00eda"}}, {"type": "node", "id": 11409927667, "lat": -33.5600939, "lon": -70.5744909}, {"type": "node", "id": 11409927668, "lat": -33.561789, "lon": -70.5740747}, {"type": "node", "id": 11409944269, "lat": -33.5617136, "lon": -70.5736323}, {"type": "node", "id": 11409944270, "lat": -33.5600185, "lon": -70.5740485}, {"type": "node", "id": 11410542909, "lat": -33.5628563, "lon": -70.5783788, "tags": {"addr:city": "La Florida", "addr:housenumber": "777", "addr:street": "Avenida Diego Portales", "amenity": "school", "name": "Escuela Especial el Arca de los Ni\u00f1os"}}, {"type": "node", "id": 11412072472, "lat": -33.543085, "lon": -70.6072752, "tags": {"addr:city": "La Florida", "addr:housenumber": "9661", "addr:street": "Los Clarines", "amenity": "school", "name": "Escuela de Lenguaje Los Clarines"}}, {"type": "node", "id": 11412153844, "lat": -33.565501, "lon": -70.5999366, "tags": {"addr:city": "La Florida", "addr:housenumber": "1442", "addr:street": "Rafael Matus", "amenity": "school", "name": "Escuela Especial Mandarina"}}, {"type": "node", "id": 11415495003, "lat": -33.5232945, "lon": -70.5751694, "tags": {"addr:city": "La Florida", "addr:housenumber": "7556", "addr:street": "Santa Delia", "amenity": "school", "name": "Escuela Basica Columbia"}}, {"type": "node", "id": 11415513873, "lat": -33.5122337, "lon": -70.6076832, "tags": {"addr:city": "La Florida", "addr:housenumber": "6180", "addr:street": "Avenida Vicu\u00f1a Mackenna Oriente", "amenity": "school", "name": "Colegio Inglaterra"}}, {"type": "node", "id": 11429337339, "lat": -33.5131406, "lon": -70.5924839, "tags": {"addr:city": "La Florida", "addr:housenumber": "6432", "addr:street": "Lago Pirihueico", "amenity": "school", "name": "Escuela Basica N\u00b01226 Pepita"}}, {"type": "node", "id": 12007654855, "lat": -33.5394169, "lon": -70.6030557, "tags": {"amenity": "school", "name": "Escuela Especial Marta y Berta"}}, {"type": "node", "id": 12007868348, "lat": -33.5340319, "lon": -70.5357873}, {"type": "node", "id": 12007868349, "lat": -33.5340652, "lon": -70.5358911}, {"type": "node", "id": 12010195164, "lat": -33.5233161, "lon": -70.5848533}, {"type": "node", "id": 12010195165, "lat": -33.523189, "lon": -70.584028}, {"type": "node", "id": 12010195166, "lat": -33.5229365, "lon": -70.5840809}, {"type": "node", "id": 12011211262, "lat": -33.5467956, "lon": -70.5949871, "tags": {"amenity": "school", "name": "Escuela de Lenguaje y P\u00e1rvulo Array\u00e1n"}}, {"type": "node", "id": 12013372231, "lat": -33.5602694, "lon": -70.5640417, "tags": {"addr:housenumber": "1699", "addr:street": "Avenida Diego Portales", "amenity": "school", "name": "Escuela B\u00e1sica De Adultos Cedea", "website": "https://colegiodeadultoscedea.cl/"}}, {"type": "node", "id": 12013821566, "lat": -33.5533198, "lon": -70.5774892, "tags": {"amenity": "school", "name": "Escuela de Lenguaje Camila Binfa"}}, {"type": "node", "id": 12056739370, "lat": -33.545422, "lon": -70.568828}, {"type": "node", "id": 12056739371, "lat": -33.5457819, "lon": -70.5687368}, {"type": "node", "id": 12070084658, "lat": -33.5259905, "lon": -70.5523466, "tags": {"addr:city": "La Florida", "addr:housenumber": "7952", "addr:street": "Las Araucarias Norte", "amenity": "school", "denomination": "waldorf", "name": "Escuela Waldorf Arreboles del Panul", "religion": "christian"}}, {"type": "node", "id": 12138701752, "lat": -33.5534123, "lon": -70.6018299}, {"type": "node", "id": 12138701753, "lat": -33.5534034, "lon": -70.6010735}, {"type": "node", "id": 12138701754, "lat": -33.5537879, "lon": -70.6010494}, {"type": "node", "id": 12138701755, "lat": -33.5537812, "lon": -70.6009501}, {"type": "node", "id": 12138701756, "lat": -33.5529496, "lon": -70.6010065}, {"type": "node", "id": 12138701757, "lat": -33.5529608, "lon": -70.601956}, {"type": "node", "id": 12140508343, "lat": -33.5605453, "lon": -70.5670147}, {"type": "node", "id": 12140508344, "lat": -33.5589462, "lon": -70.567487}, {"type": "node", "id": 12140508346, "lat": -33.5591799, "lon": -70.5686622}, {"type": "node", "id": 12140508347, "lat": -33.5591919, "lon": -70.5687317}, {"type": "node", "id": 12140508348, "lat": -33.5607855, "lon": -70.568336}, {"type": "node", "id": 12140508373, "lat": -33.5611579, "lon": -70.5692794, "tags": {"access": "private", "barrier": "gate"}}, {"type": "node", "id": 12142449318, "lat": -33.5611791, "lon": -70.5742244}, {"type": "node", "id": 12144938583, "lat": -33.5477256, "lon": -70.5946335}, {"type": "node", "id": 12144938584, "lat": -33.547729, "lon": -70.594423}, {"type": "node", "id": 12144938585, "lat": -33.5471388, "lon": -70.5944116}, {"type": "node", "id": 12146657380, "lat": -33.5502847, "lon": -70.589092}, {"type": "node", "id": 12146727318, "lat": -33.553605, "lon": -70.5896888}, {"type": "node", "id": 12146727319, "lat": -33.5535806, "lon": -70.5889594}, {"type": "node", "id": 12146727320, "lat": -33.5539376, "lon": -70.5888936}, {"type": "node", "id": 12146727347, "lat": -33.5513732, "lon": -70.5981124}, {"type": "node", "id": 12146727348, "lat": -33.551372, "lon": -70.5974821}, {"type": "node", "id": 12146727349, "lat": -33.5504086, "lon": -70.5974847}, {"type": "node", "id": 12146727350, "lat": -33.5504098, "lon": -70.598115}, {"type": "node", "id": 12150641349, "lat": -33.555024, "lon": -70.6048527}, {"type": "node", "id": 12150641350, "lat": -33.554086, "lon": -70.6047964}, {"type": "node", "id": 12150641394, "lat": -33.5609202, "lon": -70.5965533}, {"type": "node", "id": 12150641395, "lat": -33.5606498, "lon": -70.5965967}, {"type": "node", "id": 12182273844, "lat": -33.5310444, "lon": -70.5856991}, {"type": "node", "id": 12182273845, "lat": -33.5308387, "lon": -70.5845726}, {"type": "node", "id": 12182273846, "lat": -33.5314033, "lon": -70.5844519}, {"type": "node", "id": 12182273847, "lat": -33.5315721, "lon": -70.5855395}, {"type": "node", "id": 12182279029, "lat": -33.5248594, "lon": -70.5837172}, {"type": "node", "id": 12182279030, "lat": -33.5250053, "lon": -70.5846629}, {"type": "node", "id": 12182279031, "lat": -33.5244588, "lon": -70.5847842}, {"type": "node", "id": 12182279032, "lat": -33.5243129, "lon": -70.5838385}, {"type": "node", "id": 12182279036, "lat": -33.5263356, "lon": -70.5834259}, {"type": "node", "id": 12182279037, "lat": -33.5263389, "lon": -70.583788}, {"type": "node", "id": 12182279038, "lat": -33.5266631, "lon": -70.5837652}, {"type": "node", "id": 12182279039, "lat": -33.5270522, "lon": -70.5842775}, {"type": "node", "id": 12182279040, "lat": -33.5268845, "lon": -70.5833253}, {"type": "node", "id": 12182279041, "lat": -33.526728, "lon": -70.5843607}, {"type": "node", "id": 12182279042, "lat": -33.5270119, "lon": -70.5842936}, {"type": "node", "id": 12182897767, "lat": -33.5345624, "lon": -70.5912647}, {"type": "node", "id": 12182897768, "lat": -33.5338917, "lon": -70.5915651}, {"type": "node", "id": 12182897769, "lat": -33.5337285, "lon": -70.5910662}, {"type": "node", "id": 12182897770, "lat": -33.5343948, "lon": -70.5907497}, {"type": "node", "id": 12197180456, "lat": -33.5332924, "lon": -70.5746545}, {"type": "node", "id": 12197180457, "lat": -33.5333283, "lon": -70.5753337}, {"type": "node", "id": 12197180458, "lat": -33.5333596, "lon": -70.5755992}, {"type": "node", "id": 12197180459, "lat": -33.5328199, "lon": -70.574781}, {"type": "node", "id": 12199207914, "lat": -33.5277699, "lon": -70.5523083}, {"type": "node", "id": 12199207915, "lat": -33.527799, "lon": -70.5525282}, {"type": "node", "id": 12212517004, "lat": -33.5140747, "lon": -70.6099063}, {"type": "node", "id": 12212517005, "lat": -33.5138648, "lon": -70.6095588}, {"type": "node", "id": 12212517006, "lat": -33.514387, "lon": -70.6091051}, {"type": "node", "id": 12212517007, "lat": -33.5145968, "lon": -70.6094526}, {"type": "node", "id": 12214383627, "lat": -33.5170077, "lon": -70.5853749}, {"type": "node", "id": 12214762686, "lat": -33.5211748, "lon": -70.5692022}, {"type": "node", "id": 12214762687, "lat": -33.5212117, "lon": -70.5687019}, {"type": "node", "id": 12214762688, "lat": -33.519908, "lon": -70.5690801}, {"type": "node", "id": 12214762689, "lat": -33.5199393, "lon": -70.5682889}, {"type": "node", "id": 12214762690, "lat": -33.5204246, "lon": -70.5683157}, {"type": "node", "id": 12214762691, "lat": -33.520874, "lon": -70.5685169}, {"type": "node", "id": 12214762692, "lat": -33.5208427, "lon": -70.5691794}, {"type": "node", "id": 12214800515, "lat": -33.5109809, "lon": -70.5790338}, {"type": "node", "id": 12214800516, "lat": -33.5107818, "lon": -70.5792698}, {"type": "node", "id": 12214800517, "lat": -33.510755, "lon": -70.5800182}, {"type": "node", "id": 12214800518, "lat": -33.5114438, "lon": -70.5798438}, {"type": "node", "id": 12214800519, "lat": -33.5112269, "lon": -70.5789802}, {"type": "node", "id": 12214800520, "lat": -33.5133676, "lon": -70.5755756}, {"type": "node", "id": 12214800521, "lat": -33.5135723, "lon": -70.5756033}, {"type": "node", "id": 12214800522, "lat": -33.513495, "lon": -70.5764246}, {"type": "node", "id": 12214800523, "lat": -33.5132903, "lon": -70.5763969}, {"type": "node", "id": 12214800524, "lat": -33.5128854, "lon": -70.5755165}, {"type": "node", "id": 12214800525, "lat": -33.513132, "lon": -70.5755445}, {"type": "node", "id": 12214800526, "lat": -33.5130648, "lon": -70.5763954}, {"type": "node", "id": 12214800527, "lat": -33.5128182, "lon": -70.5763674}, {"type": "node", "id": 12216524874, "lat": -33.5214286, "lon": -70.5661543}, {"type": "node", "id": 12216524877, "lat": -33.5209746, "lon": -70.5661109}, {"type": "node", "id": 12216524878, "lat": -33.5204872, "lon": -70.5658507}, {"type": "node", "id": 12216524879, "lat": -33.5201227, "lon": -70.5662799}, {"type": "node", "id": 12216524880, "lat": -33.5204663, "lon": -70.5667322}, {"type": "node", "id": 12216524881, "lat": -33.5215359, "lon": -70.5669089}, {"type": "node", "id": 12216524882, "lat": -33.5222179, "lon": -70.5669397}, {"type": "node", "id": 12216524883, "lat": -33.5222336, "lon": -70.5681588}, {"type": "node", "id": 12216524884, "lat": -33.5219418, "lon": -70.5681413}, {"type": "node", "id": 12216524885, "lat": -33.5218367, "lon": -70.5677739}, {"type": "node", "id": 12216524886, "lat": -33.5215102, "lon": -70.5681065}, {"type": "node", "id": 12216524887, "lat": -33.5212314, "lon": -70.5677394}, {"type": "node", "id": 12216524888, "lat": -33.5216466, "lon": -70.5671932}, {"type": "node", "id": 12216524889, "lat": -33.5215393, "lon": -70.566937}, {"type": "node", "id": 12216524890, "lat": -33.5210585, "lon": -70.5675119}, {"type": "node", "id": 12216524891, "lat": -33.520678, "lon": -70.5670109}, {"type": "node", "id": 12216524892, "lat": -33.5213347, "lon": -70.5662745}, {"type": "node", "id": 12216527650, "lat": -33.5132441, "lon": -70.5670872}, {"type": "node", "id": 12216527651, "lat": -33.514398, "lon": -70.5663567}, {"type": "node", "id": 12216527652, "lat": -33.5143175, "lon": -70.5672321}, {"type": "node", "id": 12216527653, "lat": -33.5140089, "lon": -70.5671945}, {"type": "node", "id": 12216536624, "lat": -33.5216132, "lon": -70.5592378}, {"type": "node", "id": 12216536625, "lat": -33.5216005, "lon": -70.5584701}, {"type": "node", "id": 12216536626, "lat": -33.5209404, "lon": -70.5584858}, {"type": "node", "id": 12216536627, "lat": -33.5209531, "lon": -70.5592536}, {"type": "node", "id": 12222568325, "lat": -33.5119995, "lon": -70.5342003}, {"type": "node", "id": 12222568326, "lat": -33.5122635, "lon": -70.5341603}, {"type": "node", "id": 12222568327, "lat": -33.5126938, "lon": -70.5341711}, {"type": "way", "id": 31587244, "nodes": [353473720, 353473723, 353473725, 353473729, 353473732, 353473734, 353473720]}, {"type": "way", "id": 118456724, "nodes": [1332352127, 1332352088, 1332352128, 4514229125, 1332352127], "tags": {"addr:city": "La Florida", "addr:country": "CL", "addr:housenumber": "3755", "addr:street": "Avenida Departamental", "amenity": "school", "contact:email": "secretaria@Colegiolatinocordillera.cl", "name": "Colegio Latino Cordillera", "operator": "4", "school:type": "10;110;310", "source": "Reconocimiento cartogr\u00e1fico 2016 por KG"}}, {"type": "way", "id": 169976607, "nodes": [1811235629, 1811235630, 1811235625, 1811235631, 906423155, 1811235629], "tags": {"building": "school"}}, {"type": "way", "id": 170220297, "nodes": [6820617521, 1905994199, 1813780507, 1813780512, 12056739371, 1813780510, 12056739370, 1813780508, 1813780506, 1813780505, 1813780498, 1813780504, 1813780509, 6820617520, 6820617521], "tags": {"addr:city": "La Florida", "addr:housenumber": "9742", "addr:street": "Avenida La Florida", "amenity": "school", "contact:email": "info@institutolasalle.cl", "name": "Instituto La Salle", "operator": "3", "school:type": "10;110;310", "source": "Gobierno Regional Metropolitano de Santiago (http://www.gobiernosantiago.cl/)", "website": "https://www.institutolasalle.cl/"}}, {"type": "way", "id": 170220298, "nodes": [6820617520, 1813780509, 1813780503, 1813780499, 1813780502, 6820617520], "tags": {"source": "Reconocimiento cartogr\u00e1fico 2016 por KG."}}, {"type": "way", "id": 176010592, "nodes": [1865704056, 1865704062, 5799861794, 5799861793, 1865704053, 1865704032, 6025866561, 1865704066, 1865704056], "tags": {"addr:housenumber": "10570", "addr:street": "Avenida Colombia", "amenity": "school", "barrier": "wall", "name": "Liceo Alto Cordillera de La Florida", "wheelchair": "yes"}}, {"type": "way", "id": 176190408, "nodes": [1867394773, 1867394757, 1867394742, 1867394733, 1867394725, 1867394720, 1867394736, 1867394773], "tags": {"addr:housenumber": "4280", "addr:street": "Concordia", "amenity": "school", "contact:email": "elpaezc@gmail.com", "name": "Colegio Osm\u00e1n P\u00e9rez Freire", "operator": "3", "school:type": "10;110;160;360;410", "source": "Gobierno Regional Metropolitano de Santiago (http://www.gobiernosantiago.cl/)"}}, {"type": "way", "id": 177066088, "nodes": [1875321961, 1875321967, 1875321955, 1875321943, 1875321961], "tags": {"addr:housenumber": "603", "addr:street": "San Jos\u00e9 de La Estrella", "amenity": "school", "contact:email": "london@terra.cl", "name": "Centro Educacional London Anexo", "operator": "3", "school:type": "110;310;410;610", "source": "Gobierno Regional Metropolitano de Santiago (http://www.gobiernosantiago.cl/)"}}, {"type": "way", "id": 177509312, "nodes": [1879329723, 1879329652, 1879329680, 1879329770, 1879329665, 1879329723], "tags": {"addr:city": "La Florida", "addr:housenumber": "470", "addr:street": "El Quisco", "amenity": "school", "barrier": "wall", "contact:email": "edulosalmendros@comudef.cl", "name": "Liceo Polivalente Los Almendros", "operator": "1", "school:type": "10;110;310;510;610", "source": "Gobierno Regional Metropolitano de Santiago (http://www.gobiernosantiago.cl/)"}}, {"type": "way", "id": 177510807, "nodes": [1879335356, 1879335352, 1879335260, 1879335309, 1879335356], "tags": {"addr:city": "La Florida", "addr:housenumber": "593", "addr:street": "Doctor S\u00f3tero del R\u00edo", "amenity": "school", "barrier": "wall", "contact:email": "colegiosandamian@terra.cl", "name": "Colegio San Dami\u00e1n", "operator": "3", "school:type": "10;110;310", "source": "Gobierno Regional Metropolitano de Santiago (http://www.gobiernosantiago.cl/)"}}, {"type": "way", "id": 177513041, "nodes": [1879351470, 1879351540, 1879351395, 1879351397, 1879351470], "tags": {"addr:city": "La Florida", "addr:housenumber": "399", "addr:street": "Los C\u00f3ndores", "amenity": "school", "contact:email": "escuelapapajpii@yahoo.es", "name": "Escuela Particular Papa Juan Pablo II", "operator": "3", "school:type": "110", "source": "Gobierno Regional Metropolitano de Santiago (http://www.gobiernosantiago.cl/)"}}, {"type": "way", "id": 180173303, "nodes": [1906029373, 1906029374, 1906029395, 1906029394, 1906029373], "tags": {"addr:city": "La Florida", "addr:country": "CL", "addr:housenumber": "1740", "addr:street": "Avenida El Parque", "amenity": "school", "name": "Liceo T\u00e9cnico Profesional La Florida"}}, {"type": "way", "id": 190369365, "nodes": [2009995295, 2009995338, 2009995256, 2009995352, 2009995295], "tags": {"addr:city": "La Florida", "addr:country": "CL", "addr:housenumber": "3981", "addr:street": "Mar\u00eda Ang\u00e9lica", "amenity": "school", "contact:email": "imondacag@gmail.com", "contact:phone": "+56 2 5131871", "name": "Colegio Semper Altius", "operator": "3", "school:type": "110;310;510", "source": "Gobierno Regional Metropolitano de Santiago (http://www.gobiernosantiago.cl/)"}}, {"type": "way", "id": 191747354, "nodes": [2023286012, 6228593043, 7547162707, 7547162706, 7547162705, 7547162704, 7547217641, 7547217640, 2023285253, 7547162708, 7547162709, 7547162710, 7547162711, 7547162712, 7547162713, 2023286000, 2023285303, 12222568327, 2023285372, 2023285684, 12222568326, 2023285810, 12222568325, 2023285623, 2023285803, 2023285664, 7547162714, 6228593044, 7547162715, 6228593045, 2023286012], "tags": {"addr:city": "La Florida", "addr:housenumber": "6070", "addr:street": "Avenida Macul Alto", "amenity": "school", "name": "Boston College Alto Macul"}}, {"type": "way", "id": 233102551, "nodes": [2414438646, 2414438692, 2414438672, 2414438700, 2414438646], "tags": {"addr:housenumber": "1690", "addr:street": "San Miguel", "amenity": "school", "contact:email": "instituto_sa@hotmail.com", "name": "Escuela B\u00e1sica Instituto S.A.", "operator": "3", "school:type": "10;110", "source": "Gobierno Regional Metropolitano de Santiago (http://www.gobiernosantiago.cl/)"}}, {"type": "way", "id": 238914347, "nodes": [2467234925, 12199207915, 12199207914, 2467234926, 2467234927, 2467234928, 2467234925], "tags": {"addr:housenumber": "8103", "addr:street": "Las Araucarias Norte", "amenity": "school", "name": "Santa Maria de Lo Ca\u00f1as"}}, {"type": "way", "id": 432261695, "nodes": [4313654334, 5286319778, 5286319779, 5291905339, 4313654335, 5286319777, 5291905334, 5286319776, 5286319775, 5291905326, 5291905325, 5291905329, 4313654334], "tags": {"addr:city": "La Florida", "addr:housenumber": "6674", "addr:street": "Real Alicante", "amenity": "school", "name": "Escuela Particular Rosario Concha"}}, {"type": "way", "id": 446877330, "nodes": [4440983445, 6950104733, 6950104734, 4440983447, 4440983448, 4440983449, 353473081, 4440983450, 4440983451, 4440983445], "tags": {"addr:city": "La Florida", "addr:country": "CL", "addr:housenumber": "10139", "addr:street": "Avenida La Florida", "amenity": "school", "name": "Colegio Siglo XXI", "name:es": "Siglo XXI", "note": "Correcciones masivas a ortograf\u00eda en nombres de importaciones hechas por equipo de gendarmer\u00eda", "source": "Reconocimiento cartogr\u00e1fico 2016 por KG."}}, {"type": "way", "id": 446898195, "nodes": [12140508343, 12140508348, 12140508347, 12140508346, 3135285007, 12140508344, 4441181264, 12140508343], "tags": {"addr:housenumber": "1520", "addr:street": "Avenida Diego Portales", "amenity": "school", "contact:email": "sancristobal1520@yahoo.es", "name": "Colegio San Cristobal De Las Casas", "operator": "3", "school:type": "10;110;160;310;361", "source": "Reconocimiento cartogr\u00e1fico 2016 por KG."}}, {"type": "way", "id": 450677657, "nodes": [4475983487, 4475983488, 4475983589, 4475983590, 4475983487], "tags": {"building": "school", "source": "Reconocimiento cartogr\u00e1fico 2016 por KG."}}, {"type": "way", "id": 450889883, "nodes": [4477928454, 4477928455, 4477928456, 4477928457, 4477928458, 4477928459, 4477928460, 4477928461, 5998763931, 4477928454], "tags": {"addr:city": "La Florida", "addr:country": "CL", "addr:housenumber": "8933", "addr:street": "Avenida La Florida", "amenity": "school", "building": "school", "contact:email": "edufranciscov@comudef.cl", "name": "Liceo de Adultos Francisco Vergara", "note": "Correcciones masivas a ortograf\u00eda en nombres de importaciones hechas por equipo de gendarmer\u00eda", "operator": "1", "school:type": "360;361", "source": "Gobierno Regional Metropolitano de Santiago (http://www.gobiernosantiago.cl/)"}}, {"type": "way", "id": 451195129, "nodes": [4480296599, 4480296600, 4480296601, 4480296602, 4480296603, 4480296604, 4480296605, 4480296606, 4480296607, 4480296608, 4480296599], "tags": {"addr:city": "La Florida", "addr:housenumber": "722", "addr:street": "Los Quillayes", "amenity": "school", "building": "school", "name": "Escuela Los Quillayes"}}, {"type": "way", "id": 451197726, "nodes": [4480322698, 4480322699, 4480322700, 4480322701, 4480322698], "tags": {"addr:street": "Avenida Canal Troncal San Francisco", "amenity": "school", "name": "Colegio Los Nav\u00edos", "source": "Reconocimiento cortogr\u00e1fico de campo 2016 por KG"}}, {"type": "way", "id": 451450572, "nodes": [4482842111, 4482842112, 4482842113, 4482842114, 4482842111], "tags": {"addr:city": "La Florida", "addr:housenumber": "8289", "addr:street": "Aconcagua", "amenity": "school", "name": "Escuela Marcela Paz"}}, {"type": "way", "id": 451936791, "nodes": [4487425492, 4487425493, 4487425494, 4487425495, 4487425496, 4487425497, 4487425498, 4487425499, 4487425500, 4487425501, 4487425492], "tags": {"addr:street": "Pasaje Pailac\u00e1n", "amenity": "school", "building": "kindergarten", "name": "San Esteban", "source": "Reconocimiento cartogr\u00e1fico 2016 por KG."}}, {"type": "way", "id": 451964682, "nodes": [4487688410, 4487688411, 4487688415, 4487688412, 4487688413, 4487688414, 4487688410], "tags": {"addr:city": "La Florida", "addr:housenumber": "953", "addr:street": "Doctor S\u00f3tero del R\u00edo", "amenity": "school", "name": "Escuela S\u00f3tero del R\u00edo", "source": "Reconocimiento cartogr\u00e1fico 2016 por KG."}}, {"type": "way", "id": 452326162, "nodes": [4491413756, 4491413757, 4491413758, 4491413759, 4491413760, 4491413761, 4491413756], "tags": {"addr:housenumber": "1628", "addr:street": "Calle Uno", "amenity": "school", "building": "yes", "contact:email": "williamcollege@vtr.net", "contact:phone": "+56 2 2912919", "name": "Escuela B\u00e1sica San Carlos De La Florida", "operator": "3", "school:type": "10;110", "source": "Gobierno Regional Metropolitano de Santiago (http://www.gobiernosantiago.cl/)"}}, {"type": "way", "id": 452326163, "nodes": [4491413762, 4491413763, 4491413764, 4491413765, 4491413766, 4491413767, 4491413762], "tags": {"addr:country": "CL", "addr:street": "Calle Uno", "amenity": "school", "building": "yes", "name": "Escuela Especial Girasol", "note": "Correcciones masivas a ortograf\u00eda en nombres de importaciones hechas por equipo de gendarmer\u00eda"}}, {"type": "way", "id": 452329956, "nodes": [4491455243, 4491455244, 4491455245, 4491455246, 4491455243], "tags": {"addr:city": "La Florida", "addr:housenumber": "1595", "addr:street": "Avenida Trinidad", "amenity": "school", "name": "Colegio Particular Isla Wellington", "source": "Reconocimiento cartogr\u00e1fico 2016 por KG."}}, {"type": "way", "id": 452355827, "nodes": [4491654799, 4491654800, 4491654801, 4491654802, 4491654799], "tags": {"addr:city": "La Pintana", "addr:housenumber": "1560", "addr:street": "Lapisl\u00e1zuli", "amenity": "school", "contact:email": "colegioalbertomagno@terra.cl", "name": "Escuela B\u00e1sica Alberto Magno La Florida", "operator": "3", "school:type": "10;110", "source": "Gobierno Regional Metropolitano de Santiago (http://www.gobiernosantiago.cl/)"}}, {"type": "way", "id": 452516882, "nodes": [5885475320, 5885475319, 4493068308, 4493068309, 5885475320], "tags": {"addr:city": "La Florida", "addr:housenumber": "810", "addr:street": "Avenida Trinidad", "amenity": "school", "name": "Colegio Licaray\u00e9n", "source": "Reconocimiento cartogr\u00e1fico 2016 por KG."}}, {"type": "way", "id": 452524146, "nodes": [4493134964, 4493134965, 4493134966, 4493134967, 4493134964], "tags": {"addr:city": "La Florida", "addr:country": "CL", "addr:housenumber": "954", "addr:street": "Avenida Trinidad", "amenity": "school", "name": "Colegio Familia de Nazareth", "note": "Correcciones masivas a ortograf\u00eda en nombres de importaciones hechas por equipo de gendarmer\u00eda", "source": "Reconocimiento cartogr\u00e1fico 2016 por KG."}}, {"type": "way", "id": 452548646, "nodes": [4493323550, 4493323551, 4493323552, 4493323553, 4493323550], "tags": {"addr:city": "La Florida", "addr:country": "CL", "addr:housenumber": "10399", "addr:street": "Salar de Talcote", "amenity": "school", "building": "school", "name": "Escuela de Lenguaje Palu", "note": "Correcciones masivas a ortograf\u00eda en nombres de importaciones hechas por equipo de gendarmer\u00eda", "source": "Reconocimiento cartogr\u00e1fico 2016 por KG."}}, {"type": "way", "id": 452556606, "nodes": [4493387159, 4493387160, 4493387161, 4493387162, 5923449719, 5923449720, 4493387159], "tags": {"addr:city": "La Florida", "addr:housenumber": "153", "addr:street": "Avenida San Jos\u00e9 de La Estrella", "amenity": "school", "contact:email": "eduindiragandhi@comudef.cl", "name": "Liceo Indira Gandhi", "operator": "1", "school:type": "10;110;361", "source": "Gobierno Regional Metropolitano de Santiago (http://www.gobiernosantiago.cl/)", "wheelchair": "yes"}}, {"type": "way", "id": 452578144, "nodes": [4493542102, 4493542103, 4493542104, 4493542105, 4493542106, 4493542107, 4493542102], "tags": {"addr:city": "La Florida", "addr:housenumber": "600", "addr:street": "General Arriagada", "amenity": "school", "contact:email": "sanasis@vtr.net", "name": "Colegio Particular San Francisco De As\u00eds", "operator": "3", "school:type": "10;110;310", "source": "Gobierno Regional Metropolitano de Santiago (http://www.gobiernosantiago.cl/)"}}, {"type": "way", "id": 452578154, "nodes": [4493542118, 4493542119, 4493542120, 4493542121, 4493542118], "tags": {"addr:city": "La Florida", "addr:country": "CL", "addr:housenumber": "495", "addr:street": "General Arriagada", "amenity": "school", "building": "school", "building:levels": "1", "contact:email": "lapascana495@gmail.com", "name": "Escuela Especial la Pascana", "note": "Correcciones masivas a ortograf\u00eda en nombres de importaciones hechas por equipo de gendarmer\u00eda", "operator": "3", "school:type": "214", "source": "Gobierno Regional Metropolitano de Santiago (http://www.gobiernosantiago.cl/)"}}, {"type": "way", "id": 452580378, "nodes": [4493554017, 4493554018, 4493554019, 4493554020, 4493554017], "tags": {"addr:city": "La Florida", "addr:housenumber": "867", "addr:street": "General Arriagada", "amenity": "school", "contact:email": "drosales@terra.cl", "name": "Escuela Particular Monse\u00f1or Diego Rosales", "operator": "3", "school:type": "10;110", "source": "Gobierno Regional Metropolitano de Santiago (http://www.gobiernosantiago.cl/)"}}, {"type": "way", "id": 453574459, "nodes": [4502828151, 4502828152, 4502828153, 4502828154, 4502828155, 4502828156, 4502828157, 4502828158, 4502828151], "tags": {"addr:street": "Avenida M\u00e9xico", "amenity": "school", "building": "yes", "name": "Melodia de la Florida"}}, {"type": "way", "id": 453600520, "nodes": [4503136303, 4503136304, 4503136305, 4503136306, 4503136303], "tags": {"addr:city": "La Florida", "addr:housenumber": "5820", "addr:street": "Calle A", "amenity": "school", "contact:email": "edulasaraucarias@comudef.cl", "name": "Escuela B\u00e1sica Las Araucarias", "operator": "1", "school:type": "10;110", "source": "Reconocimiento cartogr\u00e1fico 2016 por KG."}}, {"type": "way", "id": 454039022, "nodes": [4506778593, 4506778594, 4506778595, 4506778596, 4506778593], "tags": {"addr:city": "La Florida, Santiago", "addr:housenumber": "1325", "addr:postcode": "8240494", "addr:street": "Teniente de Marina Rolando Froden", "amenity": "school", "name": "Colegio Shirayuri"}}, {"type": "way", "id": 454068589, "nodes": [4507013586, 4507013587, 4507013588, 4507015589, 4507015590, 4507013586], "tags": {"addr:city": "La Florida", "addr:housenumber": "6865", "addr:street": "Yokohama", "amenity": "school", "contact:email": "edusamore@comudef.cl", "name": "Complejo Educacional Cardenal Antonio Samor\u00e9", "operator": "1", "school:type": "110;410;460", "source": "Gobierno Regional Metropolitano de Santiago (http://www.gobiernosantiago.cl/)", "wheelchair": "yes"}}, {"type": "way", "id": 454932524, "nodes": [4514152432, 11160012376, 11160012377, 4514152439, 4514152440, 4514152432], "tags": {"addr:city": "La Florida", "addr:country": "CL", "addr:housenumber": "1310", "addr:street": "Mar\u00eda Elena", "amenity": "school", "name": "Colegio Mar\u00eda Elena", "note": "Correcciones masivas a ortograf\u00eda en nombres de importaciones hechas por equipo de gendarmer\u00eda"}}, {"type": "way", "id": 503098355, "nodes": [4934406412, 4934407923, 4934407926, 4934407927, 4934406420, 4934407921, 4934406419, 4934406418, 4934406416, 4934406415, 4934406414, 4934406411, 4934406412], "tags": {"building": "school"}}, {"type": "way", "id": 505410576, "nodes": [4953720070, 4953720038, 4953720043, 4953720073, 4953720070], "tags": {"addr:city": "La Florida", "addr:housenumber": "3542", "addr:street": "Santos Inocentes", "amenity": "school", "building": "house", "name": "Escuela Especial N\u00b02422 Ayekan"}}, {"type": "way", "id": 545771164, "nodes": [5274568508, 5274568509, 353480914, 5274568510, 12140508373, 5274568508], "tags": {"addr:city": "La Florida", "addr:housenumber": "1385", "addr:street": "Avenida Diego Portales", "amenity": "school", "email": "contacto@colegionazaretdelaflorida.cl", "internet_access": "wired", "name": "Colegio Nazaret de La Florida", "phone": "+22289 4470"}}, {"type": "way", "id": 566332200, "nodes": [5453956921, 5453956922, 5453956923, 5453956924, 5453956921], "tags": {"addr:city": "Santiago", "addr:housenumber": "8480", "addr:street": "Cautin", "amenity": "school", "name": "Colegio Sol del Illimani"}}, {"type": "way", "id": 582072274, "nodes": [5567863478, 5567863479, 5567863480, 5567863481, 5567863478], "tags": {"addr:housenumber": "3288", "addr:street": "Avenida Walker Mart\u00ednez", "amenity": "school", "name": "Colegio Atenas", "operator": "3"}}, {"type": "way", "id": 601419353, "nodes": [5716246146, 5716246147, 5716246148, 5716246149, 5716246146], "tags": {"building": "yes"}}, {"type": "way", "id": 601431264, "nodes": [5716305282, 5716305279, 5716305280, 12216524874, 5716305281, 12216524892, 12216524891, 12216524890, 12216524889, 12216524888, 12216524887, 12216524886, 12216524885, 12216524884, 12216524883, 12216524882, 12216524881, 5716305282], "tags": {"addr:city": "La Florida", "addr:country": "CL", "addr:housenumber": "2972", "addr:street": "Avenida Walker Mart\u00ednez", "amenity": "school", "contact:email": "central@americanbritish.cl", "name": "American British Schools", "operator": "4", "school:type": "10;110;310", "source": "Reconocimiento cartogr\u00e1fico 2016 por KG."}}, {"type": "way", "id": 601431369, "nodes": [906421771, 5716306443, 5716306444, 5716306445, 906421771], "tags": {"addr:housenumber": "1106", "addr:street": "Avenida Walker Mart\u00ednez", "amenity": "school", "contact:email": "colegio@cordillera.alcantara.cl", "name": "Colegio Alc\u00e1ntara de la Cordillera", "operator": "3", "school:type": "10;110;310", "source": "Gobierno Regional Metropolitano de Santiago (http://www.gobiernosantiago.cl/)"}}, {"type": "way", "id": 619011839, "nodes": [5850083433, 5850083434, 5850083435, 5850083436, 5850083433], "tags": {"addr:housenumber": "285", "addr:street": "Santa Amalia", "amenity": "school", "contact:email": "florida@colegioliahona.cl", "name": "Colegio Liahona Cordillera", "operator": "3", "school:type": "10;110;310", "source": "Gobierno Regional Metropolitano de Santiago (http://www.gobiernosantiago.cl/)"}}, {"type": "way", "id": 619171125, "nodes": [5850089600, 5850089601, 5851424369, 5850089588, 12007868348, 12007868349, 5850089595, 5851424367, 5850089607, 5850089600], "tags": {"addr:housenumber": "6000", "addr:street": "Las Tinajas", "amenity": "school", "name": "Colegio Pablo Ap\u00f3stol"}}, {"type": "way", "id": 622730481, "nodes": [5881703007, 5881703008, 5881703009, 5881703010, 5881703011, 5881703012, 5881703007], "tags": {"addr:city": "La Florida", "addr:housenumber": "550", "addr:street": "Jos\u00e9 Miguel Carrera", "amenity": "school", "name": "Bernadette college"}}, {"type": "way", "id": 622804098, "nodes": [5882179215, 5882179216, 5882179217, 5882179218, 5882179219, 12146657380, 5882179215], "tags": {"addr:city": "La Florida", "addr:housenumber": "124", "addr:street": "Jos\u00e9 Miguel Carrera", "amenity": "school", "name": "Colegio Le Monde"}}, {"type": "way", "id": 627490191, "nodes": [5923449727, 5923449728, 5923449729, 5923449730, 5923449727], "tags": {"addr:city": "La Florida", "addr:housenumber": "415", "addr:street": "Avenida San Jos\u00e9 de La Estrella", "amenity": "school", "name": "Colegio Philippe Cousteau"}}, {"type": "way", "id": 628078480, "nodes": [5929354012, 5929354064, 5929354070, 5929354083, 5929354293, 5929354292, 5929353176, 5929354012]}, {"type": "way", "id": 628802632, "nodes": [5936814627, 5936814626, 5936814625, 5936814624, 7540467460, 5936814619, 5936814627], "tags": {"addr:housenumber": "1478", "addr:street": "Avenida Walker Mart\u00ednez", "amenity": "school", "name": "Liceo Benjam\u00edn Vicu\u00f1a Mackenna"}}, {"type": "way", "id": 629236226, "nodes": [5940863123, 5940863122, 5940863121, 5940863117, 5940863120, 5940863123], "tags": {"addr:housenumber": "9000", "addr:street": "Lircay", "amenity": "school", "contact:email": "escuelaudivina@gmail.com", "name": "Escuela Particular Unidad Divina", "operator": "3", "school:type": "10;110", "source": "Gobierno Regional Metropolitano de Santiago (http://www.gobiernosantiago.cl/)"}}, {"type": "way", "id": 637975240, "nodes": [6013588772, 6013588776, 4429579930, 4429579931, 4429579932, 6013588777, 5695750039, 5695750040, 6013588775, 6013588772], "tags": {"addr:housenumber": "1090", "addr:street": "Froil\u00e1n Lagos Sep\u00falveda", "amenity": "school", "name": "Colegio Bellavista"}}, {"type": "way", "id": 637977399, "nodes": [6013593333, 6013593373, 4951103557, 4951103555, 6013593348, 6013593333], "tags": {"addr:city": "La Florida", "addr:housenumber": "160", "addr:street": "Cabildo", "amenity": "school", "contact:email": "bellavista_442@hotmail.com", "name": "Colegio Bellavista", "operator": "1", "school:type": "10;110", "source": "Gobierno Regional Metropolitano de Santiago (http://www.gobiernosantiago.cl/)"}}, {"type": "way", "id": 663219526, "nodes": [6208182196, 6208182204, 6208182203, 6208182200, 7562654093, 7562654094, 6208182198, 6208182199, 6208182197, 6208182196], "tags": {"addr:city": "La Florida", "addr:housenumber": "6185", "addr:street": "Avenida Vicu\u00f1a Mackenna Poniente", "amenity": "school", "check_date": "2024-09-28", "contact:email": "sesmaria@ctcinternet.cl", "name": "Colegio Santa Mar\u00eda", "operator": "3", "school:type": "10;110;310", "source": "Reconocimiento cortogr\u00e1fico de campo 2016 por KG"}}, {"type": "way", "id": 667636527, "nodes": [6251245560, 6251245561, 6251245562, 6251245563, 6251245560], "tags": {"addr:housenumber": "305", "addr:street": "Doctor S\u00f3tero del R\u00edo", "amenity": "school", "name": "Escuela B\u00e1sica Brother's School", "operator": "3", "source": "Gobierno Regional Metropolitano de Santiago (http://www.gobiernosantiago.cl/)"}}, {"type": "way", "id": 727830597, "nodes": [6820616465, 6820616464, 6820616463, 6820616466, 6820616465], "tags": {"addr:city": "La Florida", "addr:country": "CL", "addr:housenumber": "1768", "addr:street": "Santa Amalia", "amenity": "school", "name": "Colegio Saint Joseph Thomas School"}}, {"type": "way", "id": 809462737, "nodes": [7568675768, 7568675767, 7568675766, 7568675765, 7568675764, 7568675763, 7568675762, 7568675761, 7568675760, 7568675759, 7568675758, 7568675757, 7568675768], "tags": {"addr:city": "La Florida", "addr:housenumber": "7848", "addr:street": "Garc\u00eda Hurtado de Mendoza", "amenity": "school", "contact:email": "colegio.laconcepcion@gmail.com", "name": "Colegio Particular La Concepci\u00f3n", "operator": "3", "school:type": "10;110;310", "source": "Gobierno Regional Metropolitano de Santiago (http://www.gobiernosantiago.cl/)"}}, {"type": "way", "id": 829237796, "nodes": [906423899, 7740320332, 7740320331, 7740320330, 7740320329, 7740382413, 7740320328, 7740320325, 7740382412, 7740320327, 7740320326, 906423899], "tags": {"addr:housenumber": "3152", "addr:street": "Palena", "amenity": "school", "contact:email": "santalucia.laflorida@live.cl", "name": "Colegio Santa Lucia De Lo Ca\u00f1as", "operator": "3", "school:type": "10;110;310", "source": "Gobierno Regional Metropolitano de Santiago (http://www.gobiernosantiago.cl/)"}}, {"type": "way", "id": 838328008, "nodes": [7824070202, 7824070201, 7824070200, 7824070199, 7824070198, 7824070197, 7824070196, 7824070195, 7824070194, 7824070193, 7824070192, 7824070191, 7824070190, 7824070189, 7824070202], "tags": {"addr:city": "La Florida", "addr:housenumber": "9450", "addr:street": "R\u00edo Baker", "amenity": "school", "building": "school", "name": "Escuela Particular Valle Verde"}}, {"type": "way", "id": 859693832, "nodes": [4942743017, 8013304785, 7461401063, 7461401064, 8013304787, 8013304786, 4942743017], "tags": {"addr:housenumber": "3625", "addr:street": "Rojas Magallanes", "amenity": "school", "contact:email": "cqc@vtr.net", "name": "Colegio Quinto Centenario", "operator": "3", "school:type": "10;110;310", "source": "Gobierno Regional Metropolitano de Santiago (http://www.gobiernosantiago.cl/)"}}, {"type": "way", "id": 859744659, "nodes": [12146727318, 12146727319, 12146727320, 8013704682, 8013704681, 8013704680, 12146727318], "tags": {"addr:city": "La Florida", "addr:housenumber": "364", "addr:street": "Avenida San Jos\u00e9 de La Estrella", "amenity": "school", "name": "Centro Educacional La Florida"}}, {"type": "way", "id": 896752511, "nodes": [8335733280, 8335733281, 8335733282, 8335733283, 8335733280], "tags": {"addr:city": "La Florida", "addr:country": "CL", "addr:housenumber": "6081", "addr:street": "Avenida Vicu\u00f1a Mackenna Oriente", "amenity": "school", "contact:email": "Colegio@laflorida.alcantara.cl", "name": "Colegio Alc\u00e1ntara La Florida", "operator": "3", "school:type": "10;110;310", "source": "Gobierno Regional Metropolitano de Santiago (http://www.gobiernosantiago.cl/)"}}, {"type": "way", "id": 1075193852, "nodes": [9861154493, 9861154494, 9861154495, 9861154496, 9861154493], "tags": {"addr:city": "La Florida", "addr:housenumber": "11651", "addr:postcode": "8301703", "addr:street": "Jos\u00e9 Victorino Lastarria", "amenity": "school", "capacity": "300", "denomination": "catholic", "email": "correo@colegiocrisol.cl", "grades": "1-10", "image": "https://www.colegiocrisol.cl/images/logo_sinfondo.png", "internet_access": "yes", "name": "Colegio Crisol La Florida", "operator": "Corporacion Educacional Crisol La Florida", "operator:type": "private_non_profit", "phone": "+56222882270", "religion": "multifaith", "website": "http://www.colegiocrisol.cl", "wheelchair": "limited"}}, {"type": "way", "id": 1088518879, "nodes": [9972770947, 9972770948, 9972770949, 9972770950, 9972770951, 9972770952, 9972770953, 9972770947], "tags": {"addr:housenumber": "1715", "addr:street": "Real Madrid", "amenity": "school", "name": "Escuela B\u00e1sica Haydn de La Florida", "operator": "3", "school:type": "10;110", "source": "Gobierno Regional Metropolitano de Santiago (http://www.gobiernosantiago.cl/)"}}, {"type": "way", "id": 1088539460, "nodes": [9972991444, 9972991443, 9972991442, 9972991441, 9972991437, 9972991440, 9972991444], "tags": {"addr:city": "La Florida", "addr:country": "CL", "addr:housenumber": "1971", "addr:street": "Los Cactus", "amenity": "school", "contact:email": "r_sotomayor@terra.cl", "name": "Escuela Rafael Sotomayor Baeza", "operator": "3", "school:type": "10;110", "source": "Gobierno Regional Metropolitano de Santiago (http://www.gobiernosantiago.cl/)"}}, {"type": "way", "id": 1130632720, "nodes": [906419525, 10537025651, 10537025652, 10537025653, 906419525], "tags": {"addr:city": "La Florida", "addr:housenumber": "4436", "addr:street": "Lientur", "amenity": "school", "contact:email": "eduandresbello@comudef.cl", "contact:phone": "+56 2 2881519", "name": "Liceo Andr\u00e9s Bello", "operator": "1", "school:type": "10;110;310", "source": "Gobierno Regional Metropolitano de Santiago (http://www.gobiernosantiago.cl/)"}}, {"type": "way", "id": 1130632721, "nodes": [10537025653, 1250257841, 906419516, 10537025652, 10537025653], "tags": {"addr:housenumber": "1310", "addr:street": "Mar\u00eda Elena", "amenity": "school", "contact:email": "eduMar\u00edaelena@comudef.cl", "name": "Escuela B\u00e1sica Mar\u00eda Elena", "operator": "1", "school:type": "10;110", "source": "Gobierno Regional Metropolitano de Santiago (http://www.gobiernosantiago.cl/)"}}, {"type": "way", "id": 1130632728, "nodes": [906419535, 12150641395, 12150641394, 10537025681, 906419535], "tags": {"addr:city": "La Florida", "addr:housenumber": "4676", "addr:street": "Uni\u00f3n", "amenity": "school", "contact:email": "eduoscarcastro@comudef.cl", "name": "Escuela \u00d3scar Castro", "operator": "1", "school:type": "10;110", "source": "Gobierno Regional Metropolitano de Santiago (http://www.gobiernosantiago.cl/)"}}, {"type": "way", "id": 1187042916, "nodes": [906419240, 11023961826, 11023961827, 11023961828, 11023961829, 11023961830, 906419240], "tags": {"addr:housenumber": "11754", "addr:street": "Bah\u00eda Catalina", "amenity": "school", "contact:email": "eduanexopastene@comudef.cl", "name": "Escuela B\u00e1sica Capit\u00e1n Pastene Anexo", "operator": "1", "school:type": "10;110", "source": "Gobierno Regional Metropolitano de Santiago (http://www.gobiernosantiago.cl/)"}}, {"type": "way", "id": 1187493970, "nodes": [11026890578, 11026890579, 11026890580, 11026890581, 11026890578], "tags": {"addr:housenumber": "11462", "addr:street": "Av.Vicuna Mackena", "amenity": "school", "contact:email": "compuchillan@hotmail.com", "name": "Escuela B\u00e1sica Chill\u00e1n", "operator": "3", "school:type": "10;110", "source": "Gobierno Regional Metropolitano de Santiago (http://www.gobiernosantiago.cl/)"}}, {"type": "way", "id": 1187493976, "nodes": [11026890606, 11026890607, 11026890608, 11026890609, 11026890606], "tags": {"addr:city": "La Florida", "addr:housenumber": "345", "addr:street": "San Jorge", "amenity": "school", "contact:email": "snsebastian@terra.cl", "name": "Colegio Polivalente San Sebasti\u00e1n de La Florida", "operator": "3", "school:type": "10;110;160;310;361;410;460", "source": "Gobierno Regional Metropolitano de Santiago (http://www.gobiernosantiago.cl/)"}}, {"type": "way", "id": 1189759208, "nodes": [906419993, 11047400634, 11047400635, 11047400636, 11047400637, 11047400638, 11047400639, 11047400640, 906419993], "tags": {"addr:city": "La Florida", "addr:housenumber": "9154", "addr:street": "Catemu", "amenity": "school", "contact:email": "edusoterodelrio@comudef.cl", "name": "Escuela B\u00e1sica Bel\u00e9n O Higgins", "operator": "1", "school:type": "10;110", "source": "Gobierno Regional Metropolitano de Santiago (http://www.gobiernosantiago.cl/)"}}, {"type": "way", "id": 1189759212, "nodes": [906420124, 11047400657, 11047400658, 11047400659, 906420124], "tags": {"addr:city": "La Florida", "addr:country": "CL", "addr:housenumber": "8741", "addr:street": "Pedro Donoso", "amenity": "school", "contact:email": "fuco39@hotmail.com", "name": "Saint Charles College La Florida", "note": "Correcciones masivas a ortograf\u00eda en nombres de importaciones hechas por equipo de gendarmer\u00eda", "operator": "3", "school:type": "10;110;310", "source": "Gobierno Regional Metropolitano de Santiago (http://www.gobiernosantiago.cl/)"}}, {"type": "way", "id": 1190381717, "nodes": [11052796561, 11052796562, 11052796563, 11052796564, 11052796561], "tags": {"addr:city": "La Florida", "addr:housenumber": "300", "addr:street": "Jos\u00e9 Miguel Carrera", "amenity": "school", "name": "Colegio Nova"}}, {"type": "way", "id": 1190381730, "nodes": [11052812240, 11052812241, 11052812242, 11052812243, 11052812240], "tags": {"addr:city": "La Florida", "addr:housenumber": "518", "addr:street": "John Kennedy", "amenity": "school", "contact:email": "eduguardiamarina@comudef.cl", "name": "Escuela B\u00e1sica Guardiamarina Ernesto Riquelme", "operator": "1", "school:type": "10;110", "source": "Gobierno Regional Metropolitano de Santiago (http://www.gobiernosantiago.cl/)"}}, {"type": "way", "id": 1218389717, "nodes": [906423737, 9533605472, 11289812558, 11289812559, 906423737], "tags": {"addr:housenumber": "2956", "addr:street": "Palena", "amenity": "school", "contact:email": "lyanez7@hotmail.com", "name": "Escuela Basica Anida", "operator": "4", "school:type": "10;110", "source": "Gobierno Regional Metropolitano de Santiago (http://www.gobiernosantiago.cl/)"}}, {"type": "way", "id": 1218389776, "nodes": [11289813216, 11289813217, 11289813218, 11289813219, 11289813220, 11289813216], "tags": {"addr:city": "La Florida", "addr:housenumber": "6341", "addr:street": "Los Cerezos", "amenity": "school", "name": "Escuela Los Cerezos"}}, {"type": "way", "id": 1230350113, "nodes": [11409927667, 12142449318, 11409927668, 11409944269, 11409944270, 11409927667], "tags": {"addr:city": "La Florida", "addr:housenumber": "848", "addr:street": "Avenida Diego Portales", "amenity": "school", "name": "Colegio Nova Terra"}}, {"type": "way", "id": 1296132219, "nodes": [906421770, 12010195164, 12010195165, 12010195166, 906421770], "tags": {"addr:city": "La Florida", "addr:country": "CL", "addr:housenumber": "7541", "addr:street": "Garc\u00eda Hurtado de Mendoza", "amenity": "school", "name": "Colegio Andares de La Florida", "note": "Correcciones masivas a ortograf\u00eda en nombres de importaciones hechas por equipo de gendarmer\u00eda", "operator": "3", "school:type": "110;310", "source": "Gobierno Regional Metropolitano de Santiago (http://www.gobiernosantiago.cl/)"}}, {"type": "way", "id": 1311368476, "nodes": [12138701757, 12138701756, 12138701755, 12138701754, 12138701753, 12138701752, 12138701757], "tags": {"addr:city": "La Florida", "addr:housenumber": "10388", "addr:street": "Avenida Santa Raquel", "amenity": "school", "contact:email": "pamela_saa@hotmail.com", "name": "Escuela B\u00e1sica Paicav\u00ed N\u00ba 2", "operator": "3", "school:type": "10;110", "source": "Gobierno Regional Metropolitano de Santiago (http://www.gobiernosantiago.cl/)"}}, {"type": "way", "id": 1311818303, "nodes": [11409927668, 4441216160, 4441216161, 12142449318, 11409927668], "tags": {"addr:city": "La Florida", "addr:housenumber": "828", "addr:street": "Avenida Diego Portales", "amenity": "school", "name": "Escuela Las Lilas"}}, {"type": "way", "id": 1312099165, "nodes": [5882179224, 12144938585, 12144938584, 12144938583, 5882179222, 5882179223, 5882179224], "tags": {"addr:city": "La Florida", "addr:country": "CL", "addr:housenumber": "0620", "addr:street": "Avenida Trinidad", "amenity": "school", "contact:email": "Escuelalicarito@gmail.com", "name": "Escuela B\u00e1sica Licarito", "note": "Correcciones masivas a ortograf\u00eda en nombres de importaciones hechas por equipo de gendarmer\u00eda", "operator": "3", "school:type": "10;110", "source": "Gobierno Regional Metropolitano de Santiago (http://www.gobiernosantiago.cl/)"}}, {"type": "way", "id": 1312307074, "nodes": [12146727350, 12146727349, 12146727348, 12146727347, 12146727350], "tags": {"addr:city": "La Florida", "addr:country": "CL", "addr:housenumber": "820", "addr:street": "Jos\u00e9 Miguel Carrera", "amenity": "school", "name": "Colegio Santiago", "note": "Correcciones masivas a ortograf\u00eda en nombres de importaciones hechas por equipo de gendarmer\u00eda"}}, {"type": "way", "id": 1312705028, "nodes": [12150641350, 12150641349, 7888539984, 7888539987, 9533596523, 9533596522, 12150641350], "tags": {"addr:housenumber": "1396", "addr:street": "Avenida San Jos\u00e9 de La Estrella", "amenity": "school", "contact:email": "edupastene@comudef.cl", "name": "Escuela B\u00e1sica Capit\u00e1n Pastene", "operator": "1", "school:type": "10;110", "source": "Gobierno Regional Metropolitano de Santiago (http://www.gobiernosantiago.cl/)"}}, {"type": "way", "id": 1316166735, "nodes": [12182273847, 12182273846, 12182273845, 6001388207, 6522230748, 6522230746, 6522230745, 6522230744, 6522230743, 6522230747, 6001388198, 12182273844, 12182273847], "tags": {"addr:city": "La Florida", "addr:country": "CL", "addr:housenumber": "8597", "addr:street": "Alonso de Ercilla", "amenity": "school", "contact:email": "Colegioptch@gmail.com", "contact:phone": "+56 2 2819457", "name": "Colegio Pierre Teilhard de Chadin", "note": "Correcciones masivas a ortograf\u00eda en nombres de importaciones hechas por equipo de gendarmer\u00eda", "operator": "3", "school:type": "10;110;310", "source": "Gobierno Regional Metropolitano de Santiago (http://www.gobiernosantiago.cl/)"}}, {"type": "way", "id": 1316166751, "nodes": [12182279032, 12182279031, 12182279030, 12182279029, 12182279032], "tags": {"addr:city": "La Florida", "addr:housenumber": "7709", "addr:street": "Garc\u00eda Hurtado de Mendoza", "amenity": "school", "contact:email": "directora@colegioantilhue.cl", "name": "Colegio Antilhu\u00e9", "operator": "3", "school:type": "10;110;310", "source": "Gobierno Regional Metropolitano de Santiago (http://www.gobiernosantiago.cl/)"}}, {"type": "way", "id": 1316166753, "nodes": [12182279040, 12182279039, 12182279042, 12182279041, 12182279038, 12182279037, 12182279036, 12182279040], "tags": {"addr:city": "La Florida", "addr:country": "CL", "addr:housenumber": "8035", "addr:street": "Garc\u00eda Hurtado de Mendoza", "amenity": "school", "contact:email": "Colegio@emmanuelhighschool.cl", "name": "Emmanuel High School", "note": "Correcciones masivas a ortograf\u00eda en nombres de importaciones hechas por equipo de gendarmer\u00eda", "operator": "3", "school:type": "10;110", "source": "Gobierno Regional Metropolitano de Santiago (http://www.gobiernosantiago.cl/)"}}, {"type": "way", "id": 1316240108, "nodes": [12182897770, 12182897769, 12182897768, 12182897767, 12182897770], "tags": {"addr:city": "La Florida", "addr:housenumber": "8735", "addr:street": "Estados Unidos", "amenity": "school", "contact:email": "secretaria@newlittlecollege.cl", "name": "Colegio New Litlle College", "operator": "3", "school:type": "10;110;310", "source": "Gobierno Regional Metropolitano de Santiago (http://www.gobiernosantiago.cl/)"}}, {"type": "way", "id": 1317909204, "nodes": [12197180459, 4477928443, 4477928442, 4477928449, 12197180458, 12197180457, 4477928454, 4477928455, 12197180456, 12197180459], "tags": {"addr:city": "La Florida", "addr:housenumber": "8943", "addr:street": "Avenida La Florida", "amenity": "school", "contact:email": "edumes@comudef.cl", "name": "Escuela Elsa Santib\u00e1\u00f1ez", "operator": "1", "school:type": "10;110", "source": "Gobierno Regional Metropolitano de Santiago (http://www.gobiernosantiago.cl/)"}}, {"type": "way", "id": 1319705082, "nodes": [12212517007, 12212517006, 12212517005, 12212517004, 12212517007], "tags": {"addr:city": "La Florida", "addr:housenumber": "94", "addr:street": "Mirador Azul", "amenity": "school", "name": "Colegio Santa Cecilia de La Florida"}}, {"type": "way", "id": 1319903714, "nodes": [9972770950, 12214383627, 9972770948, 9972770949, 9972770950], "tags": {"addr:city": "La Florida", "addr:country": "CL", "addr:housenumber": "1700", "addr:street": "Mallorca", "amenity": "school", "name": "Escuela Especial Aurora"}}, {"type": "way", "id": 1319943956, "nodes": [12214762691, 12214762687, 12214762686, 12214762692, 12214762691], "tags": {"addr:housenumber": "7390", "addr:street": "Alicahue", "amenity": "school", "name": "America British School"}}, {"type": "way", "id": 1319943957, "nodes": [12214762692, 12214762691, 12214762690, 12214762689, 12214762688, 12214762692], "tags": {"addr:city": "La Florida", "addr:country": "CL", "addr:housenumber": "7370", "addr:street": "Alicahue", "amenity": "school", "name": "Colegio Patrona Nuestra Se\u00f1ora de Lourdes"}}, {"type": "way", "id": 1319947613, "nodes": [12214800519, 12214800518, 12214800517, 12214800516, 12214800515, 12214800519], "tags": {"addr:country": "CL", "addr:housenumber": "2567", "addr:street": "Avenida Departamental", "amenity": "school", "name": "Escuela B\u00e1sica de Adultos San Valentin"}}, {"type": "way", "id": 1319947614, "nodes": [12214800523, 12214800522, 12214800521, 3875227657, 12214800520, 12214800523], "tags": {"addr:city": "La Florida", "addr:housenumber": "5862", "addr:street": "Los Cerezos", "amenity": "school", "name": "Colegio Rocket adultos de La Florida"}}, {"type": "way", "id": 1319947615, "nodes": [12214800527, 12214800526, 12214800525, 12214800524, 12214800527], "tags": {"addr:city": "La Florida", "addr:housenumber": "5874", "addr:street": "Los Cerezos", "amenity": "school", "contact:email": "clheroes@yahoo.es", "name": "Colegio Polit\u00e9cnico Los H\u00e9roes", "operator": "3", "school:type": "10;110;410;510", "source": "Gobierno Regional Metropolitano de Santiago (http://www.gobiernosantiago.cl/)"}}, {"type": "way", "id": 1320136464, "nodes": [12216527653, 12216527652, 12216527651, 5716425567, 5716425566, 12216527650, 12216527653], "tags": {"addr:city": "La Florida", "addr:housenumber": "5850", "addr:street": "Volc\u00e1n Calbuco", "amenity": "school", "contact:email": "edunuevoamanecer@comudef.cl", "name": "Liceo Nuevo Amanecer", "operator": "1", "school:type": "10;110;310;361", "source": "Gobierno Regional Metropolitano de Santiago (http://www.gobiernosantiago.cl/)"}}, {"type": "way", "id": 1320138219, "nodes": [12216524880, 12216524879, 12216524878, 12216524877, 12216524880], "tags": {"addr:city": "La Florida", "addr:housenumber": "3015", "addr:street": "Diagonal Santa Irene", "amenity": "school", "name": "Escuela Santa Irene"}}, {"type": "way", "id": 1320139920, "nodes": [12216536627, 12216536626, 4480049216, 12216536625, 4480049226, 4480049227, 12216536624, 12216536627], "tags": {"addr:city": "La Florida", "addr:country": "CL", "addr:housenumber": "7366", "addr:street": "Andali\u00e9n", "amenity": "school", "contact:email": "maneduc@ctcinternet.cl", "name": "Colegio Manantial de La Florida", "operator": "3", "school:type": "10;110;310", "source": "Gobierno Regional Metropolitano de Santiago (http://www.gobiernosantiago.cl/)"}}, {"type": "relation", "id": 6684829, "members": [{"type": "way", "ref": 31587244, "role": "outer"}, {"type": "way", "ref": 450677657, "role": "inner"}], "tags": {"addr:city": "La Florida", "addr:housenumber": "9651", "addr:street": "Avenida Vicu\u00f1a Mackenna", "amenity": "school", "contact:email": "direlf@divinapastora.cl", "name": "Colegio Divina Pastora", "operator": "3", "school:type": "10;110;310", "source": "Gobierno Regional Metropolitano de Santiago (http://www.gobiernosantiago.cl/)", "type": "multipolygon"}}, {"type": "relation", "id": 6689770, "members": [{"type": "way", "ref": 170220298, "role": "outer"}, {"type": "way", "ref": 169976607, "role": "inner"}], "tags": {"addr:city": "La Florida", "addr:housenumber": "9688", "addr:street": "Avenida La Florida", "amenity": "school", "name": "Lincoln College", "old_name": "Boston College", "operator": "3", "school:type": "10;110;310", "source": "Gobierno Regional Metropolitano de Santiago (http://www.gobiernosantiago.cl/)", "type": "multipolygon"}}, {"type": "relation", "id": 8738151, "members": [{"type": "way", "ref": 503098355, "role": "inner"}, {"type": "way", "ref": 601419353, "role": "inner"}, {"type": "way", "ref": 628078480, "role": "outer"}], "tags": {"addr:city": "La Florida", "addr:housenumber": "900", "addr:street": "Enrique Olivares", "amenity": "school", "name": "Bicentenario College", "type": "multipolygon"}}]}