{"version": 0.6, "generator": "Overpass API 0.7.62.8 e802775f", "osm3s": {"timestamp_osm_base": "2025-08-31T22:32:56Z", "copyright": "The data included in this document is from www.openstreetmap.org. The data is made available under ODbL."}, "elements": [{"type": "node", "id": 252948719, "lat": -33.4298006, "lon": -70.579471}, {"type": "node", "id": 252948720, "lat": -33.4293438, "lon": -70.5787899}, {"type": "node", "id": 252948722, "lat": -33.4299998, "lon": -70.5779694}, {"type": "node", "id": 252957709, "lat": -33.4153061, "lon": -70.5852751, "tags": {"addr:city": "Las Condes", "addr:country": "CL", "addr:housenumber": "4335", "addr:street": "Avenida Apoquindo", "brand": "Unimarc", "brand:wikidata": "Q6156244", "brand:wikipedia": "es:Unimarc", "name": "Unimarc", "opening_hours": "Mo-Sa 08:00-22:30, Su,PH 09:00-22:00", "shop": "supermarket", "wheelchair": "yes"}}, {"type": "node", "id": 252991803, "lat": -33.4280275, "lon": -70.5405509, "tags": {"addr:city": "Las Condes", "addr:housenumber": "8750", "addr:street": "Avenida Francisco Bilbao", "brand": "Jumbo", "brand:wikidata": "Q6310864", "brand:wikipedia": "en:Jumbo (supermarket)", "name": "Jumbo", "shop": "supermarket"}}, {"type": "node", "id": 254252117, "lat": -33.3742141, "lon": -70.5187054, "tags": {"brand": "Santa Isabel", "brand:wikidata": "Q7419620", "name": "Santa Isabel", "shop": "supermarket"}}, {"type": "node", "id": 267183559, "lat": -33.3850311, "lon": -70.5333497, "tags": {"addr:city": "Las Condes", "addr:street": "Estoril", "brand": "Lider", "brand:wikidata": "Q6711261", "brand:wikipedia": "es:L\u00edder (supermercado)", "name": "Lider Express", "payment:cash": "yes", "payment:credit_cards": "yes", "shop": "supermarket", "source": "Reconocimiento cartogr\u00e1fico de campo 2016 por KG."}}, {"type": "node", "id": 314069619, "lat": -33.4281019, "lon": -70.5741051}, {"type": "node", "id": 314069620, "lat": -33.4284098, "lon": -70.5740832}, {"type": "node", "id": 314069621, "lat": -33.428775, "lon": -70.5746677}, {"type": "node", "id": 314069622, "lat": -33.4281481, "lon": -70.5747867}, {"type": "node", "id": 350553062, "lat": -33.4011978, "lon": -70.5756572, "tags": {"addr:city": "Las Condes", "addr:country": "CL", "addr:housenumber": "5601", "addr:street": "Avenida Presidente Kennedy", "brand": "Tottus", "brand:wikidata": "Q7828510", "brand:wikipedia": "en:Tottus", "level": "2", "name": "Tottus", "shop": "supermarket", "source": "Reconocimiento cartogr\u00e1fico 2016 por KG."}}, {"type": "node", "id": 358792465, "lat": -33.4019861, "lon": -70.5160297, "tags": {"addr:housenumber": "11865", "addr:street": "Camino El Alba", "atm": "yes", "brand": "Lider", "brand:wikidata": "Q6711261", "name": "Lider", "shop": "supermarket", "wheelchair": "limited"}}, {"type": "node", "id": 391698472, "lat": -33.431001, "lon": -70.5787631}, {"type": "node", "id": 391698473, "lat": -33.4308721, "lon": -70.5786312}, {"type": "node", "id": 391698474, "lat": -33.4306107, "lon": -70.5784839}, {"type": "node", "id": 391698475, "lat": -33.4303101, "lon": -70.5781635}, {"type": "node", "id": 391698476, "lat": -33.430285, "lon": -70.5781866}, {"type": "node", "id": 391698477, "lat": -33.4301632, "lon": -70.5780464}, {"type": "node", "id": 391698478, "lat": -33.4301369, "lon": -70.5780752}, {"type": "node", "id": 391698479, "lat": -33.4300518, "lon": -70.5779735}, {"type": "node", "id": 391698483, "lat": -33.4301106, "lon": -70.579826}, {"type": "node", "id": 447556358, "lat": -33.4021018, "lon": -70.5147311, "tags": {"addr:city": "Las Condes", "addr:housenumber": "11969", "addr:street": "Camino El Alba", "brand": "Jumbo", "brand:wikidata": "Q6310864", "name": "Jumbo", "shop": "supermarket", "wheelchair": "yes"}}, {"type": "node", "id": 582084202, "lat": -33.428394, "lon": -70.5737837}, {"type": "node", "id": 582084203, "lat": -33.4287058, "lon": -70.5737794}, {"type": "node", "id": 583469161, "lat": -33.3917576, "lon": -70.5461228, "tags": {"addr:housename": "Alto Las Condes", "addr:housenumber": "9001", "addr:street": "Avenida Presidente Kennedy", "brand": "Jumbo", "brand:wikidata": "Q6310864", "name": "Jumbo", "shop": "supermarket", "wheelchair": "yes"}}, {"type": "node", "id": 588163134, "lat": -33.3903494, "lon": -70.4985883, "tags": {"addr:city": "Las Condes", "addr:housenumber": "590", "addr:street": "Avenida La Plaza", "brand": "Lider", "brand:wikidata": "Q6711261", "brand:wikipedia": "es:L\u00edder (supermercado)", "name": "Lider", "shop": "supermarket"}}, {"type": "node", "id": 603970791, "lat": -33.4143025, "lon": -70.565783, "tags": {"name": "Ekono", "opening_hours": "Mo-Sa 08:00-22:00; PH,Su 09:00-22:00", "shop": "supermarket"}}, {"type": "node", "id": 616745230, "lat": -33.4109455, "lon": -70.5667827, "tags": {"addr:city": "Las Condes", "addr:housenumber": "329", "addr:street": "Avenida Manquehue Sur", "brand": "Santa Isabel", "brand:wikidata": "Q7419620", "brand:wikipedia": "es:Santa Isabel (supermercado)", "name": "Santa Isabel", "shop": "supermarket"}}, {"type": "node", "id": 829578700, "lat": -33.4307365, "lon": -70.5786299}, {"type": "node", "id": 942221476, "lat": -33.4308554, "lon": -70.5788913}, {"type": "node", "id": 1064723013, "lat": -33.4184171, "lon": -70.5516298, "tags": {"addr:city": "Las Condes", "brand": "Lider", "brand:wikidata": "Q6711261", "brand:wikipedia": "es:L\u00edder (supermercado)", "name": "Lider", "payment:cash": "yes", "payment:credit_cards": "yes", "shop": "supermarket"}}, {"type": "node", "id": 1114558044, "lat": -33.4234585, "lon": -70.5388252, "tags": {"addr:city": "Las Condes", "addr:housenumber": "1621", "addr:street": "Avenida Padre Hurtado Sur", "brand": "Santa Isabel", "brand:wikidata": "Q7419620", "brand:wikipedia": "es:Santa Isabel (supermercado)", "name": "Santa Isabel", "shop": "supermarket"}}, {"type": "node", "id": 1862365620, "lat": -33.4077706, "lon": -70.5540278}, {"type": "node", "id": 2047256756, "lat": -33.3789614, "lon": -70.5282372, "tags": {"source": "Reconocimiento cartogr\u00e1fico 2016 por KG."}}, {"type": "node", "id": 2047256791, "lat": -33.3796064, "lon": -70.5282734, "tags": {"source": "Reconocimiento cartogr\u00e1fico 2016 por KG."}}, {"type": "node", "id": 2047256797, "lat": -33.3791537, "lon": -70.5286091, "tags": {"source": "Reconocimiento cartogr\u00e1fico 2016 por KG."}}, {"type": "node", "id": 2047256801, "lat": -33.3792391, "lon": -70.5281552, "tags": {"source": "Reconocimiento cartogr\u00e1fico 2016 por KG."}}, {"type": "node", "id": 2047256809, "lat": -33.3791928, "lon": -70.5280656, "tags": {"source": "Reconocimiento cartogr\u00e1fico 2016 por KG."}}, {"type": "node", "id": 2047256810, "lat": -33.3794604, "lon": -70.5279911, "tags": {"source": "Reconocimiento cartogr\u00e1fico 2016 por KG."}}, {"type": "node", "id": 2505979851, "lat": -33.4267998, "lon": -70.5634547}, {"type": "node", "id": 2505979853, "lat": -33.4264462, "lon": -70.5632699}, {"type": "node", "id": 2505979855, "lat": -33.4268828, "lon": -70.5634782}, {"type": "node", "id": 2505979857, "lat": -33.4267312, "lon": -70.5638021}, {"type": "node", "id": 2505979859, "lat": -33.4263618, "lon": -70.5636973}, {"type": "node", "id": 2505979860, "lat": -33.4268986, "lon": -70.5633982}, {"type": "node", "id": 2781496543, "lat": -33.407581, "lon": -70.5453528, "tags": {"source": "Reconocimiento cortogr\u00e1fico de campo 2016 por KG"}}, {"type": "node", "id": 2781496544, "lat": -33.4076482, "lon": -70.5453763, "tags": {"source": "Reconocimiento cortogr\u00e1fico de campo 2016 por KG"}}, {"type": "node", "id": 2781496556, "lat": -33.4075687, "lon": -70.5458156, "tags": {"source": "Reconocimiento cortogr\u00e1fico de campo 2016 por KG"}}, {"type": "node", "id": 2781496559, "lat": -33.4075459, "lon": -70.545497, "tags": {"source": "Reconocimiento cortogr\u00e1fico de campo 2016 por KG"}}, {"type": "node", "id": 2781496569, "lat": -33.4076789, "lon": -70.5458109, "tags": {"source": "Reconocimiento cortogr\u00e1fico de campo 2016 por KG"}}, {"type": "node", "id": 2846819595, "lat": -33.4075272, "lon": -70.5535576, "tags": {"source": "Reconocimiento cortogr\u00e1fico de campo 2016 por KG"}}, {"type": "node", "id": 2846819596, "lat": -33.4074788, "lon": -70.5535315, "tags": {"source": "Reconocimiento cortogr\u00e1fico de campo 2016 por KG"}}, {"type": "node", "id": 2846819597, "lat": -33.4073724, "lon": -70.5538142, "tags": {"source": "Reconocimiento cortogr\u00e1fico de campo 2016 por KG"}}, {"type": "node", "id": 2846819599, "lat": -33.4078426, "lon": -70.5540682, "tags": {"source": "Reconocimiento cortogr\u00e1fico de campo 2016 por KG"}}, {"type": "node", "id": 2846824201, "lat": -33.4078506, "lon": -70.5540471, "tags": {"source": "Reconocimiento cortogr\u00e1fico de campo 2016 por KG"}}, {"type": "node", "id": 2846824206, "lat": -33.407889, "lon": -70.5540679, "tags": {"source": "Reconocimiento cortogr\u00e1fico de campo 2016 por KG"}}, {"type": "node", "id": 2846824208, "lat": -33.4080038, "lon": -70.5537629, "tags": {"source": "Reconocimiento cortogr\u00e1fico de campo 2016 por KG"}}, {"type": "node", "id": 2846824209, "lat": -33.4079416, "lon": -70.5537293, "tags": {"source": "Reconocimiento cortogr\u00e1fico de campo 2016 por KG"}}, {"type": "node", "id": 2846824210, "lat": -33.4075577, "lon": -70.5534767, "tags": {"source": "Reconocimiento cortogr\u00e1fico de campo 2016 por KG"}}, {"type": "node", "id": 4222941836, "lat": -33.4039396, "lon": -70.5687525}, {"type": "node", "id": 4222941837, "lat": -33.4045894, "lon": -70.5685598}, {"type": "node", "id": 4222941838, "lat": -33.4035927, "lon": -70.5681885}, {"type": "node", "id": 4222941839, "lat": -33.4036896, "lon": -70.5685911}, {"type": "node", "id": 4222941840, "lat": -33.4043925, "lon": -70.567916}, {"type": "node", "id": 4222941841, "lat": -33.4044305, "lon": -70.5678999}, {"type": "node", "id": 4222941842, "lat": -33.4037716, "lon": -70.5688067}, {"type": "node", "id": 4222941843, "lat": -33.4043455, "lon": -70.5678034}, {"type": "node", "id": 4455393990, "lat": -33.4257662, "lon": -70.5878667}, {"type": "node", "id": 4455393991, "lat": -33.4258144, "lon": -70.5880658}, {"type": "node", "id": 4455393992, "lat": -33.4257498, "lon": -70.5880883}, {"type": "node", "id": 4455393993, "lat": -33.425737, "lon": -70.5880353}, {"type": "node", "id": 4455393994, "lat": -33.4257125, "lon": -70.5880439}, {"type": "node", "id": 4455393995, "lat": -33.4256783, "lon": -70.5878981}, {"type": "node", "id": 4455393996, "lat": -33.4256968, "lon": -70.587876}, {"type": "node", "id": 4455393997, "lat": -33.4257341, "lon": -70.58786}, {"type": "node", "id": 4455393998, "lat": -33.4256725, "lon": -70.5879169}, {"type": "node", "id": 4455393999, "lat": -33.4256979, "lon": -70.5880327}, {"type": "node", "id": 4743727827, "lat": -33.4136582, "lon": -70.5583116, "tags": {"addr:city": "Las Condes", "addr:country": "CL", "addr:street": "Avenida Presidente Sebasti\u00e1n Pi\u00f1era Echenique", "name": "Juanita", "name:es": "Juanita", "shop": "supermarket"}}, {"type": "node", "id": 4868814241, "lat": -33.4300294, "lon": -70.5780027}, {"type": "node", "id": 5085920304, "lat": -33.4299067, "lon": -70.5793353}, {"type": "node", "id": 5085920305, "lat": -33.4297084, "lon": -70.5790864}, {"type": "node", "id": 5085920306, "lat": -33.4308434, "lon": -70.5788721}, {"type": "node", "id": 5085920307, "lat": -33.430893, "lon": -70.5788089}, {"type": "node", "id": 5085920308, "lat": -33.4309323, "lon": -70.5788508}, {"type": "node", "id": 5085920309, "lat": -33.4307556, "lon": -70.5786084}, {"type": "node", "id": 5085920310, "lat": -33.4307827, "lon": -70.5786046}, {"type": "node", "id": 5085920311, "lat": -33.4308186, "lon": -70.5786098}, {"type": "node", "id": 5085920312, "lat": -33.4308454, "lon": -70.5786182}, {"type": "node", "id": 5085920315, "lat": -33.4296562, "lon": -70.5791435}, {"type": "node", "id": 5085920316, "lat": -33.4298646, "lon": -70.5793891}, {"type": "node", "id": 5359511621, "lat": -33.41581, "lon": -70.540047, "tags": {"addr:city": "Las Condes", "addr:housename": "Mall Plaza Los Dom\u00ednicos", "addr:housenumber": "875", "addr:street": "Avenida Padre Hurtado Sur", "brand": "Tottus", "brand:wikidata": "Q7828510", "brand:wikipedia": "en:Tottus", "name": "Tottus", "shop": "supermarket"}}, {"type": "node", "id": 5512677233, "lat": -33.4138581, "lon": -70.5843151, "tags": {"addr:city": "Las Condes", "brand": "Lider", "brand:wikidata": "Q6711261", "name": "Lider Express", "shop": "supermarket"}}, {"type": "node", "id": 5553602501, "lat": -33.4249129, "lon": -70.5648839}, {"type": "node", "id": 5553602502, "lat": -33.4249083, "lon": -70.5645475}, {"type": "node", "id": 5553602503, "lat": -33.4247076, "lon": -70.5645513}, {"type": "node", "id": 5553602504, "lat": -33.4247121, "lon": -70.5648878}, {"type": "node", "id": 5756949390, "lat": -33.4093498, "lon": -70.5444929, "tags": {"addr:city": "Las Condes", "addr:street": "Patagonia", "brand": "Unimarc", "brand:wikidata": "Q6156244", "brand:wikipedia": "es:Unimarc", "name": "Unimarc", "shop": "supermarket"}}, {"type": "node", "id": 6538653619, "lat": -33.4308399, "lon": -70.5789107, "tags": {"amenity": "parking_entrance", "parking": "multi-storey"}}, {"type": "node", "id": 6538653632, "lat": -33.4305124, "lon": -70.5783792, "tags": {"amenity": "parking_entrance", "parking": "multi-storey"}}, {"type": "node", "id": 6765350509, "lat": -33.4259615, "lon": -70.5775358, "tags": {"addr:city": "Las Condes", "addr:street": "Avenida Isabel La Cat\u00f3lica", "brand": "Lider", "brand:wikidata": "Q6711261", "brand:wikipedia": "es:L\u00edder (supermercado)", "name": "Lider Express", "shop": "supermarket"}}, {"type": "node", "id": 7756394997, "lat": -33.4079558, "lon": -70.5536917}, {"type": "node", "id": 8001605899, "lat": -33.4234744, "lon": -70.5536547}, {"type": "node", "id": 8001605900, "lat": -33.4253213, "lon": -70.5539525}, {"type": "node", "id": 8001605901, "lat": -33.4251735, "lon": -70.5526677}, {"type": "node", "id": 8001605902, "lat": -33.4234632, "lon": -70.5534965}, {"type": "node", "id": 10543624262, "lat": -33.4039476, "lon": -70.5687812}, {"type": "node", "id": 10543624263, "lat": -33.4037157, "lon": -70.5685754}, {"type": "node", "id": 10543624264, "lat": -33.4038738, "lon": -70.5680652}, {"type": "node", "id": 10543624265, "lat": -33.403671, "lon": -70.5685137}, {"type": "node", "id": 10543624266, "lat": -33.4035506, "lon": -70.5682126}, {"type": "node", "id": 11766370010, "lat": -33.4284849, "lon": -70.5737824}, {"type": "node", "id": 11766370012, "lat": -33.4283819, "lon": -70.5747423}, {"type": "node", "id": 11766370013, "lat": -33.4283415, "lon": -70.5740881}, {"type": "node", "id": 11766370014, "lat": -33.4287721, "lon": -70.5746309}, {"type": "node", "id": 12623321429, "lat": -33.4106556, "lon": -70.5730456, "tags": {"addr:city": "Las Condes", "addr:street": "Avenida Apoquindo", "brand": "Jumbo", "brand:wikidata": "Q6310864", "name": "Jumbo", "shop": "supermarket"}}, {"type": "way", "id": 28593302, "nodes": [314069619, 11766370013, 314069620, 582084202, 11766370010, 582084203, 11766370014, 314069621, 11766370012, 314069622, 314069619], "tags": {"addr:city": "Las Condes", "addr:country": "CL", "addr:housenumber": "1790", "addr:street": "Avenida Am\u00e9rico Vespucio Sur", "brand": "Lider", "brand:wikidata": "Q6711261", "landuse": "retail", "name": "Lider Express", "shop": "supermarket"}}, {"type": "way", "id": 34152274, "nodes": [391698472, 391698473, 5085920312, 5085920311, 5085920310, 5085920309, 829578700, 391698474, 6538653632, 391698475, 391698476, 391698477, 391698478, 391698479, 4868814241, 252948722, 252948720, 5085920315, 5085920305, 5085920304, 5085920316, 252948719, 391698483, 6538653619, 942221476, 5085920306, 5085920307, 5085920308, 391698472], "tags": {"addr:city": "Las Condes", "addr:country": "CL", "addr:housenumber": "4144", "addr:street": "Avenida Francisco Bilbao", "brand": "Jumbo", "brand:wikidata": "Q6310864", "building": "yes", "name": "Jumbo", "shop": "supermarket", "wheelchair": "yes"}}, {"type": "way", "id": 194211363, "nodes": [2047256756, 2047256797, 2047256791, 2047256810, 2047256801, 2047256809, 2047256756], "tags": {"addr:city": "Las Condes", "addr:housenumber": "11097", "addr:street": "Avenida Las Condes", "building": "yes", "name": "Alvi", "shop": "supermarket", "source": "Reconocimiento cartogr\u00e1fico 2016 por KG."}}, {"type": "way", "id": 243171412, "nodes": [2505979859, 2505979857, 2505979851, 2505979855, 2505979860, 2505979853, 2505979859], "tags": {"brand": "Unimarc", "brand:wikidata": "Q6156244", "brand:wikipedia": "es:Unimarc", "building": "retail", "name": "Unimarc", "shop": "supermarket"}}, {"type": "way", "id": 273274038, "nodes": [2781496556, 2781496569, 2781496544, 2781496543, 2781496559, 2781496556], "tags": {"addr:city": "Las Condes", "addr:street": "Avenida Apoquindo", "brand": "Santa Isabel", "brand:wikidata": "Q7419620", "brand:wikipedia": "es:Santa Isabel (supermercado)", "building": "yes", "name": "Santa Isabel", "shop": "supermarket", "source": "Reconocimiento cortogr\u00e1fico de campo 2016 por KG"}}, {"type": "way", "id": 280589912, "nodes": [2846824206, 2846824208, 2846824209, 7756394997, 2846824210, 2846819595, 2846819596, 2846819597, 1862365620, 2846819599, 2846824201, 2846824206], "tags": {"addr:city": "Las Condes", "addr:housenumber": "7200", "addr:street": "Avenida Apoquindo", "brand": "Santa Isabel", "brand:wikidata": "Q7419620", "brand:wikipedia": "es:Santa Isabel (supermercado)", "building": "yes", "name": "Santa Isabel", "shop": "supermarket", "source": "Reconocimiento cortogr\u00e1fico de campo 2016 por KG"}}, {"type": "way", "id": 422538592, "nodes": [4222941843, 4222941840, 4222941841, 4222941837, 10543624262, 4222941836, 4222941842, 10543624263, 4222941839, 10543624265, 10543624266, 4222941838, 10543624264, 4222941843], "tags": {"addr:city": "Las Condes", "addr:housenumber": "457", "addr:street": "Avenida Manquehue Norte", "brand": "Unimarc", "brand:wikidata": "Q6156244", "building": "supermarket", "height": "14", "name": "Unimarc", "shop": "supermarket"}}, {"type": "way", "id": 448535081, "nodes": [4455393990, 4455393991, 4455393992, 4455393993, 4455393994, 4455393999, 4455393998, 4455393995, 4455393996, 4455393997, 4455393990], "tags": {"addr:city": "Las Condes", "addr:country": "CL", "addr:housenumber": "3707", "addr:street": "Avenida Crist\u00f3bal Col\u00f3n", "building": "yes", "building:levels": "2", "name": "RoyRoy", "shop": "supermarket"}}, {"type": "way", "id": 579998051, "nodes": [5553602501, 5553602502, 5553602503, 5553602504, 5553602501], "tags": {"addr:city": "Las Condes", "addr:street": "Avenida Manquehue Sur", "building": "yes", "name": "Ok Market", "shop": "supermarket"}}, {"type": "way", "id": 858342525, "nodes": [8001605902, 8001605901, 8001605900, 8001605899, 8001605902], "tags": {"addr:city": "Las Condes", "addr:housenumber": "1590", "addr:street": "Avenida Tom\u00e1s Moro", "brand": "Lider", "brand:wikidata": "Q6711261", "brand:wikipedia": "es:L\u00edder (supermercado)", "name": "Lider", "opening_hours": "Mo-Sa 08:00-21:30", "payment:cash": "yes", "payment:coins": "yes", "payment:contactless": "yes", "payment:credit_cards": "yes", "payment:debit_cards": "yes", "payment:google_pay": "yes", "payment:mastercard": "yes", "payment:visa": "yes", "shop": "supermarket", "wheelchair": "yes"}}]}