{"version": 0.6, "generator": "Overpass API 0.7.62.8 e802775f", "osm3s": {"timestamp_osm_base": "2025-09-02T15:00:15Z", "copyright": "The data included in this document is from www.openstreetmap.org. The data is made available under ODbL."}, "elements": [{"type": "node", "id": 443979658, "lat": -33.4796063, "lon": -70.7473548}, {"type": "node", "id": 833572879, "lat": -33.5036393, "lon": -70.7559326, "tags": {"addr:city": "Maip\u00fa", "addr:country": "CL", "addr:housenumber": "135", "addr:street": "Luis Gandarillas", "amenity": "school", "name": "Colegio Cristiano Gandarillas", "note": "Correcciones masivas a ortograf\u00eda en nombres de importaciones hechas por equipo de gendarmer\u00eda"}}, {"type": "node", "id": 906399288, "lat": -33.563983, "lon": -70.7863114, "tags": {"addr:city": "Maip\u00fa", "addr:country": "CL", "addr:housenumber": "1350", "addr:street": "El Alc\u00e1zar Poniente", "amenity": "school", "contact:email": "EscuelandeJes\u00fas @gmail.com", "name": "Escuela de Lenguaje Ni\u00f1os de Jes\u00fas", "note": "Correcciones masivas a ortograf\u00eda en nombres de importaciones hechas por equipo de gendarmer\u00eda", "operator": "3", "school:type": "214", "source": "Gobierno Regional Metropolitano de Santiago (http://www.gobiernosantiago.cl/)"}}, {"type": "node", "id": 906399295, "lat": -33.5647902, "lon": -70.7866538, "tags": {"addr:housenumber": "18880", "addr:street": "El Eucaliptus Norte", "amenity": "school", "name": "Colegio San Francisco Misionero", "operator": "3", "school:type": "110;310", "source": "Gobierno Regional Metropolitano de Santiago (http://www.gobiernosantiago.cl/)"}}, {"type": "node", "id": 906399299, "lat": -33.5482772, "lon": -70.7727251, "tags": {"addr:street": "Camino Melipilla Km 1/2", "amenity": "school", "contact:email": "mherrera@codeduc.cl", "operator": "1", "school:type": "10;110", "source": "Gobierno Regional Metropolitano de Santiago (http://www.gobiernosantiago.cl/)"}}, {"type": "node", "id": 906399301, "lat": -33.5389828, "lon": -70.7777242, "tags": {"addr:city": "Maip\u00fa", "addr:country": "CL", "addr:housenumber": "2040", "addr:street": "Glorias Navales", "amenity": "school", "contact:email": "losalercesmaip@yahoo.es", "name": "Escuela B\u00e1sica Los Alerces de Maip\u00fa", "note": "Correcciones masivas a ortograf\u00eda en nombres de importaciones hechas por equipo de gendarmer\u00eda", "operator": "1", "school:type": "10;110", "source": "Gobierno Regional Metropolitano de Santiago (http://www.gobiernosantiago.cl/)"}}, {"type": "node", "id": 906399302, "lat": -33.5389425, "lon": -70.7782482, "tags": {"addr:city": "Maip\u00fa", "addr:country": "CL", "addr:housenumber": "2040", "addr:street": "Calle Glorias Navales", "amenity": "school", "contact:email": "educapltda@123mail.cl", "name": "Colegio de Adultos Educap", "note": "Correcciones masivas a ortograf\u00eda en nombres de importaciones hechas por equipo de gendarmer\u00eda", "operator": "3", "school:type": "160;360;361", "source": "Gobierno Regional Metropolitano de Santiago (http://www.gobiernosantiago.cl/)"}}, {"type": "node", "id": 906399303, "lat": -33.5451316, "lon": -70.7727281, "tags": {"addr:housenumber": "601", "addr:street": "Egipto", "amenity": "school", "contact:email": "ivo_profe13@hotmail.com", "name": "Escuela B\u00e1sica San Marcos Ap\u00f3stol", "operator": "3", "school:type": "110", "source": "Gobierno Regional Metropolitano de Santiago (http://www.gobiernosantiago.cl/)"}}, {"type": "node", "id": 906399304, "lat": -33.5373358, "lon": -70.7846259, "tags": {"addr:housenumber": "2", "addr:street": "Calle Jos\u00e9 Manuel Balmaceda", "amenity": "school", "contact:email": "escdeparvulocarrusel@hotmail.com", "name": "Escuela de P\u00e1rvulos Carrusel de Maip\u00fa", "operator": "3", "school:type": "10;110", "source": "Gobierno Regional Metropolitano de Santiago (http://www.gobiernosantiago.cl/)"}}, {"type": "node", "id": 906399306, "lat": -33.5347915, "lon": -70.7878016, "tags": {"addr:city": "MAIPU", "addr:country": "CL", "addr:housenumber": "740", "addr:street": "Cabo de Hornos", "amenity": "school", "contact:email": "pasitos5@msn.com", "contact:phone": "+56 2 7815785", "name": "Escuela Especial Pasitos", "note": "Correcciones masivas a ortograf\u00eda en nombres de importaciones hechas por equipo de gendarmer\u00eda", "operator": "3", "school:type": "214", "source": "Gobierno Regional Metropolitano de Santiago (http://www.gobiernosantiago.cl/)"}}, {"type": "node", "id": 906399307, "lat": -33.5523931, "lon": -70.7819186, "tags": {"addr:city": "Maip\u00fa", "addr:country": "CL", "addr:housenumber": "34", "addr:street": "Calle H\u00fasares de la Muerte", "amenity": "school", "contact:email": "coelgiodelvalle@123.cl", "name": "Colegio del Valle", "note": "Correcciones masivas a ortograf\u00eda en nombres de importaciones hechas por equipo de gendarmer\u00eda", "operator": "3", "school:type": "10;110;310", "source": "Gobierno Regional Metropolitano de Santiago (http://www.gobiernosantiago.cl/)"}}, {"type": "node", "id": 906399310, "lat": -33.515464, "lon": -70.8326966, "tags": {"addr:city": "Maip\u00fa", "addr:housenumber": "30", "addr:street": "Camino Vecinal Sitio", "amenity": "school", "contact:email": "leoviga2005@yahoo.es", "name": "Escuela B\u00e1sica El Abrazo de Maip\u00fa", "operator": "3", "school:type": "10;110", "source": "Gobierno Regional Metropolitano de Santiago (http://www.gobiernosantiago.cl/)"}}, {"type": "node", "id": 906399311, "lat": -33.5114864, "lon": -70.7971525}, {"type": "node", "id": 906399312, "lat": -33.5261454, "lon": -70.7782518, "tags": {"addr:housenumber": "3;150156", "addr:street": "Avenida Poniente", "amenity": "school", "contact:email": "marisol.valenc@gamail.com", "name": "Escuela Especial Guenipillan-Maip\u00fa", "operator": "3", "school:type": "214", "source": "Gobierno Regional Metropolitano de Santiago (http://www.gobiernosantiago.cl/)"}}, {"type": "node", "id": 906399313, "lat": -33.5247907, "lon": -70.782217, "tags": {"addr:country": "CL", "addr:housenumber": "1710", "addr:street": "Avenida San Martin", "amenity": "school", "contact:email": "direccionedward@gmail.com", "name": "Colegio King Edwards School I", "operator": "3", "school:type": "10;110;310", "source": "Gobierno Regional Metropolitano De Santiago (http://www.gobiernosantiago.cl/)"}}, {"type": "node", "id": 906399316, "lat": -33.5218001, "lon": -70.7868381, "tags": {"addr:city": "Maip\u00fa", "addr:country": "CL", "addr:housenumber": "800", "addr:street": "Avenida Las Naciones", "amenity": "school", "contact:email": "bbpalomaster@gmail.com", "name": "Escuela B\u00e1sica Las Naciones", "note": "Correcciones masivas a ortograf\u00eda en nombres de importaciones hechas por equipo de gendarmer\u00eda", "operator": "3", "school:type": "10;110", "source": "Gobierno Regional Metropolitano de Santiago (http://www.gobiernosantiago.cl/)"}}, {"type": "node", "id": 906399317, "lat": -33.5217355, "lon": -70.7778918, "tags": {"addr:city": "Maip\u00fa", "addr:country": "CL", "addr:housenumber": "1412", "addr:street": "Avenida Sur", "amenity": "school", "contact:email": "Escuelamartinpescador@vtr.net", "contact:phone": "+56 2 7667248", "name": "Escuela de Lenguaje Mart\u00edn Pescador", "note": "Correcciones masivas a ortograf\u00eda en nombres de importaciones hechas por equipo de gendarmer\u00eda", "operator": "3", "school:type": "214", "source": "Reconocimiento cartogr\u00e1fico 2016 por KG"}}, {"type": "node", "id": 906399318, "lat": -33.5239798, "lon": -70.7776032, "tags": {"addr:housenumber": "1405", "addr:street": "Avenida Nueva San Mart\u00edn", "amenity": "school", "contact:email": "sanmartin@bostoncollege.cl", "name": "Colegio Boston College San Mart\u00edn", "operator": "3", "school:type": "10;110;310", "source": "Gobierno Regional Metropolitano de Santiago (http://www.gobiernosantiago.cl/)"}}, {"type": "node", "id": 906399320, "lat": -33.5239155, "lon": -70.7756118, "tags": {"addr:housenumber": "1343", "addr:street": "Nueva San Martin", "amenity": "school", "contact:email": "elolimpo@msn.com", "name": "Escuela de P\u00e1rvulos El Olimpo", "operator": "4", "school:type": "10", "source": "Gobierno Regional Metropolitano de Santiago (http://www.gobiernosantiago.cl/)"}}, {"type": "node", "id": 906399321, "lat": -33.5187056, "lon": -70.7754519, "tags": {"addr:city": "Maip\u00fa", "addr:country": "CL", "addr:housenumber": "1052", "addr:street": "El Olimpo", "amenity": "school", "contact:email": "esthercardenasr@hotmail.com", "contact:phone": "+56 2 7669652", "name": "Escuela Especial Cepel", "note": "Correcciones masivas a ortograf\u00eda en nombres de importaciones hechas por equipo de gendarmer\u00eda", "operator": "3", "school:type": "214", "source": "Gobierno Regional Metropolitano de Santiago (http://www.gobiernosantiago.cl/)"}}, {"type": "node", "id": 906399332, "lat": -33.5179447, "lon": -70.7756526, "tags": {"addr:city": "Maip\u00fa", "addr:country": "CL", "addr:housenumber": "1260", "addr:street": "Avenida El Olimpo", "amenity": "school", "contact:email": "esc.sta.Gabriela@gmail.com", "contact:phone": "+56 2 3243918", "name": "Escuela Especial Santa Gabriela", "note": "Correcciones masivas a ortograf\u00eda en nombres de importaciones hechas por equipo de gendarmer\u00eda", "operator": "3", "school:type": "214", "source": "Gobierno Regional Metropolitano de Santiago (http://www.gobiernosantiago.cl/)"}}, {"type": "node", "id": 906399333, "lat": -33.5169657, "lon": -70.7792318, "tags": {"addr:housenumber": "1500", "addr:street": "Pasaje Quiriquina", "amenity": "school", "contact:email": "palmag96@yahoo.es", "name": "Escuela Especial Palabras Magicas", "operator": "3", "school:type": "214", "source": "Gobierno Regional Metropolitano de Santiago (http://www.gobiernosantiago.cl/)"}}, {"type": "node", "id": 906399334, "lat": -33.5165915, "lon": -70.7756565, "tags": {"addr:city": "Maip\u00fa", "addr:country": "CL", "addr:housenumber": "1458", "addr:street": "Avenida El Olimpo", "amenity": "school", "contact:email": "www.belendemaipu@hotmail.com", "name": "Escuela Especial Bel\u00e9n de Maip\u00fa", "note": "Correcciones masivas a ortograf\u00eda en nombres de importaciones hechas por equipo de gendarmer\u00eda", "operator": "3", "school:type": "212", "source": "Gobierno Regional Metropolitano de Santiago (http://www.gobiernosantiago.cl/)"}}, {"type": "node", "id": 906399337, "lat": -33.5289854, "lon": -70.773322, "tags": {"addr:housenumber": "0650", "addr:street": "Avenida El Olimpo", "amenity": "school", "contact:email": "losbosquinos@gmail.com", "name": "Escuela B\u00e1sica Los Bosquinos", "operator": "1", "school:type": "10;110", "source": "Gobierno Regional Metropolitano de Santiago (http://www.gobiernosantiago.cl/)"}}, {"type": "node", "id": 906399338, "lat": -33.5264498, "lon": -70.7654192, "tags": {"addr:city": "Maip\u00fa", "addr:housenumber": "679", "addr:street": "Pasaje Montecasino", "amenity": "school", "contact:email": "divinojesus@terra.cl", "contact:phone": "+56 2 5356030", "name": "Escuela B\u00e1sica Divino Jes\u00fas", "operator": "3", "school:type": "110", "source": "Gobierno Regional Metropolitano de Santiago (http://www.gobiernosantiago.cl/)"}}, {"type": "node", "id": 906399339, "lat": -33.5263631, "lon": -70.7722257}, {"type": "node", "id": 906399340, "lat": -33.5258737, "lon": -70.7709627, "tags": {"addr:housenumber": "163", "addr:street": "Pasaje R\u00edo \u00c9ufrates", "amenity": "school", "contact:email": "patriciasilva45@hotmail.com", "name": "Escuela Especial Luna Azul", "operator": "3", "school:type": "214", "source": "Gobierno Regional Metropolitano de Santiago (http://www.gobiernosantiago.cl/)"}}, {"type": "node", "id": 906399341, "lat": -33.5267754, "lon": -70.7697422, "tags": {"addr:housenumber": "160", "addr:street": "Carlomagno", "amenity": "school", "contact:email": "colegioelrey@hotmail.com", "contact:phone": "+56 2 5350889", "name": "Escuela B\u00e1sica El Rey", "operator": "3", "school:type": "110", "source": "Gobierno Regional Metropolitano de Santiago (http://www.gobiernosantiago.cl/)"}}, {"type": "node", "id": 906399343, "lat": -33.5214339, "lon": -70.7713155}, {"type": "node", "id": 906399346, "lat": -33.5224755, "lon": -70.7637325, "tags": {"addr:housenumber": "561", "addr:street": "Pasaje Ducal", "amenity": "school", "contact:email": "escsangeronimo@yahoo.es", "contact:phone": "+56 2 5319370", "name": "Escuela Especial Ntra Sra De San Geroni", "operator": "3", "school:type": "214", "source": "Gobierno Regional Metropolitano de Santiago (http://www.gobiernosantiago.cl/)"}}, {"type": "node", "id": 906399347, "lat": -33.5250154, "lon": -70.7596027, "tags": {"addr:housenumber": "126", "addr:street": "Avenida Nueva San Mart\u00edn", "amenity": "school", "contact:email": "elsauce2007@gmail.com", "name": "Escuela B\u00e1sica El Sauce", "operator": "3", "school:type": "10;110", "source": "Gobierno Regional Metropolitano de Santiago (http://www.gobiernosantiago.cl/)"}}, {"type": "node", "id": 906399349, "lat": -33.5284857, "lon": -70.7591692}, {"type": "node", "id": 906399350, "lat": -33.5234411, "lon": -70.7628782, "tags": {"addr:city": "Maip\u00fa", "addr:housenumber": "439", "addr:street": "Santa Elena", "amenity": "school", "contact:email": "sumame01@yahoo.es", "name": "Escuela Particular La Monta\u00f1a", "operator": "3", "school:type": "10;110", "source": "Gobierno Regional Metropolitano de Santiago (http://www.gobiernosantiago.cl/)"}}, {"type": "node", "id": 906399351, "lat": -33.5242053, "lon": -70.7569851, "tags": {"addr:city": "Maip\u00fa", "addr:country": "CL", "addr:housenumber": "285", "addr:street": "Avenida Los Pajaritos", "amenity": "school", "contact:email": "institutoramonfreire@gmail.com", "name": "Escuela B\u00e1sica Instituto Ram\u00f3n Freire", "note": "Correcciones masivas a ortograf\u00eda en nombres de importaciones hechas por equipo de gendarmer\u00eda", "operator": "3", "school:type": "10;110", "source": "Gobierno Regional Metropolitano de Santiago (http://www.gobiernosantiago.cl/)"}}, {"type": "node", "id": 906399352, "lat": -33.5157357, "lon": -70.7642825, "tags": {"addr:city": "Maip\u00fa", "addr:country": "CL", "addr:housenumber": "564", "addr:street": "Los Corintios", "amenity": "school", "contact:email": "canessaycia@chile.com", "name": "Escuela Especial Elias Canessa Vergara", "note": "Correcciones masivas a ortograf\u00eda en nombres de importaciones hechas por equipo de gendarmer\u00eda", "operator": "3", "school:type": "214", "source": "Gobierno Regional Metropolitano de Santiago (http://www.gobiernosantiago.cl/)"}}, {"type": "node", "id": 906399353, "lat": -33.5155468, "lon": -70.7634297, "tags": {"addr:housenumber": "1294", "addr:street": "El Carmen", "amenity": "school", "contact:email": "escuela.franz.liszt@gmail.com", "contact:phone": "+56 2 5325356", "name": "Escuela B\u00e1sica Franz Liszt", "operator": "3", "school:type": "10;110", "source": "Gobierno Regional Metropolitano de Santiago (http://www.gobiernosantiago.cl/)"}}, {"type": "node", "id": 906399355, "lat": -33.5192473, "lon": -70.7726224}, {"type": "node", "id": 906399360, "lat": -33.5086758, "lon": -70.7650225, "tags": {"addr:city": "Maip\u00fa", "addr:country": "CL", "addr:housenumber": "608", "addr:street": "Chacabuco", "amenity": "school", "contact:email": "christschool@latinmail.com", "name": "Escuela B\u00e1sica Christ School", "note": "Correcciones masivas a ortograf\u00eda en nombres de importaciones hechas por equipo de gendarmer\u00eda", "operator": "3", "school:type": "10;110", "source": "Gobierno Regional Metropolitano de Santiago (http://www.gobiernosantiago.cl/)"}}, {"type": "node", "id": 906399363, "lat": -33.5135388, "lon": -70.7694594, "tags": {"addr:housenumber": "821", "addr:street": "Los Corceles", "amenity": "school", "contact:email": "pamie@vtr.net", "name": "Escuela Especial Los Corceles", "operator": "3", "school:type": "214", "source": "Gobierno Regional Metropolitano de Santiago (http://www.gobiernosantiago.cl/)"}}, {"type": "node", "id": 906399366, "lat": -33.5095443, "lon": -70.762502, "tags": {"addr:housenumber": "1853", "addr:street": "Emiliano Llona", "amenity": "school", "contact:email": "e.ortu@yahoo.com.ar", "contact:phone": "+56 2 7231719", "name": "Centro Educ. De Adult Bdo. Ohiggins De M", "operator": "Ilustre Municipalidad de Maip\u00fa", "school:type": "160;361", "source": "Gobierno Regional Metropolitano de Santiago (http://www.gobiernosantiago.cl/)"}}, {"type": "node", "id": 906399368, "lat": -33.5113458, "lon": -70.7712022, "tags": {"addr:city": "Maip\u00fa", "addr:country": "CL", "addr:housenumber": "910", "addr:street": "Jos\u00e9 Manuel Borgono", "amenity": "school", "contact:email": "Colegiovictoriano@hotmail.com", "name": "Colegio Victoriano", "note": "Correcciones masivas a ortograf\u00eda en nombres de importaciones hechas por equipo de gendarmer\u00eda", "operator": "3", "school:type": "10;110;310", "source": "Gobierno Regional Metropolitano de Santiago (http://www.gobiernosantiago.cl/)"}}, {"type": "node", "id": 906399369, "lat": -33.5160507, "lon": -70.7548148}, {"type": "node", "id": 906399374, "lat": -33.5161062, "lon": -70.7535854, "tags": {"addr:city": "Maip\u00fa", "addr:country": "CL", "addr:housenumber": "215", "addr:street": "Cuatro \u00c1lamos", "amenity": "school", "contact:email": "clopez@corporacionsofofa.cl", "name": "Colegio Centro de Educ Perm.De Adultos S", "note": "Correcciones masivas a ortograf\u00eda en nombres de importaciones hechas por equipo de gendarmer\u00eda", "operator": "4", "school:type": "160;361;561", "source": "Gobierno Regional Metropolitano de Santiago (http://www.gobiernosantiago.cl/)"}}, {"type": "node", "id": 906399379, "lat": -33.506828, "lon": -70.7837256, "tags": {"addr:city": "Maip\u00fa", "addr:country": "CL", "addr:housenumber": "1891", "addr:street": "Avenida Rinconada", "amenity": "school", "contact:email": "arratiaymendez@vtr.net", "contact:phone": "+56 2 5349960", "name": "Escuela Especial Rinconada", "note": "Correcciones masivas a ortograf\u00eda en nombres de importaciones hechas por equipo de gendarmer\u00eda", "operator": "3", "school:type": "214", "source": "Gobierno Regional Metropolitano de Santiago (http://www.gobiernosantiago.cl/)"}}, {"type": "node", "id": 906399380, "lat": -33.5000854, "lon": -70.7762991, "tags": {"addr:city": "Maip\u00fa", "addr:housenumber": "1440", "addr:street": "Asunci\u00f3n", "amenity": "school", "contact:email": "tomasvargas_280@yahoo.es", "name": "Escuela B\u00e1sica Tomas Vargas Y Arcaya", "operator": "1", "school:type": "10;110", "source": "Gobierno Regional Metropolitano de Santiago (http://www.gobiernosantiago.cl/)"}}, {"type": "node", "id": 906399382, "lat": -33.5092091, "lon": -70.795931}, {"type": "node", "id": 906399385, "lat": -33.503546, "lon": -70.7670824, "tags": {"addr:housenumber": "2375", "addr:street": "Rep\u00fablica", "amenity": "school", "contact:email": "colegioheroesdemaipu@gmail.com", "name": "Colegio Heroes De Maipu", "operator": "3", "school:type": "10;110;310", "source": "Gobierno Regional Metropolitano de Santiago (http://www.gobiernosantiago.cl/)"}}, {"type": "node", "id": 906399386, "lat": -33.5078959, "lon": -70.7672024, "tags": {"addr:housenumber": "2060;2080", "addr:street": "Rep\u00fablica", "amenity": "school", "contact:email": "colegiodeasis@educarchile.cl", "name": "Escuela B\u00e1sica De Assis", "operator": "3", "school:type": "10;110", "source": "Gobierno Regional Metropolitano de Santiago (http://www.gobiernosantiago.cl/)"}}, {"type": "node", "id": 906399388, "lat": -33.5060059, "lon": -70.7679323, "tags": {"addr:city": "Maip\u00fa", "addr:country": "CL", "addr:housenumber": "2236", "addr:street": "Esperanza", "amenity": "school", "contact:email": "villabres@hotmail.com", "name": "Escuela Especial Semillita de Jes\u00fas", "note": "Correcciones masivas a ortograf\u00eda en nombres de importaciones hechas por equipo de gendarmer\u00eda", "operator": "3", "school:type": "214", "source": "Gobierno Regional Metropolitano de Santiago (http://www.gobiernosantiago.cl/)"}}, {"type": "node", "id": 906399389, "lat": -33.5053259, "lon": -70.7679423, "tags": {"addr:housenumber": "2276", "addr:street": "Esperanza", "amenity": "school", "contact:email": "sixtinanavarrete@yahoo.es", "name": "Escuela B\u00e1sica Saint Francis College", "operator": "3", "school:type": "110", "source": "Gobierno Regional Metropolitano de Santiago (http://www.gobiernosantiago.cl/)"}}, {"type": "node", "id": 906399390, "lat": -33.5087546, "lon": -70.7673373, "tags": {"addr:city": "Maip\u00fa", "addr:country": "CL", "addr:housenumber": "2040", "addr:street": "Rep\u00fablica", "amenity": "school", "contact:email": "eneas_carlo@hotmail.com", "name": "Colegio Nuevos Casta\u00f1os de Maip\u00fa", "note": "Correcciones masivas a ortograf\u00eda en nombres de importaciones hechas por equipo de gendarmer\u00eda", "school:type": "10;110;310"}}, {"type": "node", "id": 906399391, "lat": -33.5082672, "lon": -70.7672891, "tags": {"addr:city": "Maip\u00fa", "addr:country": "CL", "addr:housenumber": "2040", "addr:street": "Rep\u00fablica", "amenity": "school", "contact:email": "horacioHenr\u00edquez@msn.com", "name": "Colegio de Adultos Itsa", "note": "Correcciones masivas a ortograf\u00eda en nombres de importaciones hechas por equipo de gendarmer\u00eda", "operator": "3", "school:type": "361", "source": "Gobierno Regional Metropolitano de Santiago (http://www.gobiernosantiago.cl/)"}}, {"type": "node", "id": 906399392, "lat": -33.5031233, "lon": -70.7690185, "tags": {"addr:city": "Maip\u00fa", "addr:housenumber": "2400", "addr:street": "Avenida de la Victoria", "amenity": "school", "contact:email": "lpjizenteno@yahoo.es", "name": "Liceo Jos\u00e9 Ignacio Zenteno", "operator": "1", "school:type": "10;110;160;310;360;361;362;410", "source": "Gobierno Regional Metropolitano de Santiago (http://www.gobiernosantiago.cl/)"}}, {"type": "node", "id": 906399393, "lat": -33.501565, "lon": -70.7646359, "tags": {"addr:city": "Maip\u00fa", "addr:country": "CL", "addr:housenumber": "640", "addr:street": "Libertador Bernardo O'Higgins", "amenity": "school", "contact:email": "eneas_carlo@hotmail.com", "name": "Colegio de Adultos Prebisteriano de Maip\u00fa", "note": "Correcciones masivas a ortograf\u00eda en nombres de importaciones hechas por equipo de gendarmer\u00eda", "operator": "3", "school:type": "160;360;361", "source": "Gobierno Regional Metropolitano de Santiago (http://www.gobiernosantiago.cl/)"}}, {"type": "node", "id": 906399394, "lat": -33.50367, "lon": -70.7636309}, {"type": "node", "id": 906399395, "lat": -33.4982961, "lon": -70.7713022, "tags": {"addr:city": "Maip\u00fa", "addr:housenumber": "1111", "addr:street": "Blanco Encalada", "amenity": "school", "contact:email": "jparra@codeduc.cl", "name": "Escuela B\u00e1sica N\u00b0263 Ram\u00f3n Freire", "operator": "1", "school:type": "10;110", "source": "Gobierno Regional Metropolitano de Santiago (http://www.gobiernosantiago.cl/)"}}, {"type": "node", "id": 906399396, "lat": -33.4986131, "lon": -70.7632387, "tags": {"addr:city": "Maip\u00fa", "addr:country": "CL", "addr:housenumber": "478", "addr:street": "Argentina", "amenity": "school", "name": "Escuela Especial Mi Nuevo Arlequ\u00edn", "note": "Correcciones masivas a ortograf\u00eda en nombres de importaciones hechas por equipo de gendarmer\u00eda", "operator": "3", "school:type": "214", "source": "Gobierno Regional Metropolitano de Santiago (http://www.gobiernosantiago.cl/)"}}, {"type": "node", "id": 906399397, "lat": -33.5053688, "lon": -70.7567898, "tags": {"addr:housenumber": "2315", "addr:street": "Avenida Los Pajaritos", "amenity": "school", "contact:email": "ep.bissieres@gmail.com", "name": "Colegio Instituto Humanidades Bdo. O'Hi", "operator": "3", "school:type": "10;110;310", "source": "Reconocimiento cartogr\u00e1fico de campo 2016 por KG."}}, {"type": "node", "id": 906399398, "lat": -33.5034182, "lon": -70.7534161, "tags": {"addr:city": "Maip\u00fa", "addr:country": "CL", "addr:housenumber": "350", "addr:street": "Luis Gandarillas", "amenity": "school", "contact:email": "escelporvenir@yahoo.es", "name": "Escuela B\u00e1sica El Porvenir", "note": "Correcciones masivas a ortograf\u00eda en nombres de importaciones hechas por equipo de gendarmer\u00eda", "operator": "3", "school:type": "10;110", "source": "Gobierno Regional Metropolitano de Santiago (http://www.gobiernosantiago.cl/)"}}, {"type": "node", "id": 906399399, "lat": -33.503106, "lon": -70.7530431, "tags": {"addr:housenumber": "365", "addr:street": "Luis Gandarillas", "amenity": "school", "contact:email": "direccion@colegiopehuen.cl", "name": "Escuela B\u00e1sica Pehuen", "operator": "3", "school:type": "10;110", "source": "Gobierno Regional Metropolitano de Santiago (http://www.gobiernosantiago.cl/)"}}, {"type": "node", "id": 906399400, "lat": -33.5067003, "lon": -70.7590717, "tags": {"addr:housenumber": "133", "addr:street": "Maipu", "amenity": "school", "contact:email": "escuela_sagradafamilia@yahoo.com", "name": "Escuela Especial Sagrada Familia", "operator": "3", "school:type": "214", "source": "Gobierno Regional Metropolitano de Santiago (http://www.gobiernosantiago.cl/)"}}, {"type": "node", "id": 906399401, "lat": -33.5066859, "lon": -70.7609327, "tags": {"addr:housenumber": "246", "addr:street": "Maipu A", "amenity": "school", "contact:email": "escuelacomunicate@gmail.com", "name": "Escuela Especial Comunicate", "operator": "3", "school:type": "214", "source": "Gobierno Regional Metropolitano de Santiago (http://www.gobiernosantiago.cl/)"}}, {"type": "node", "id": 906399402, "lat": -33.5038653, "lon": -70.7551059, "tags": {"addr:housenumber": "2510", "addr:street": "Bail\u00e9n", "amenity": "school", "contact:email": "gandarillano@yahoo.es", "name": "Escuela B\u00e1sica Instituto Luis Gandarilla", "operator": "3", "school:type": "110", "source": "Gobierno Regional Metropolitano de Santiago (http://www.gobiernosantiago.cl/)"}}, {"type": "node", "id": 906399486, "lat": -33.5067059, "lon": -70.7526331, "tags": {"addr:housenumber": "2181", "addr:street": "Primera Trasversal", "amenity": "school", "contact:email": "sister_venerance@hotmail.com", "name": "Escuela B\u00e1sica Sister Verenance", "operator": "4", "school:type": "110", "source": "Gobierno Regional Metropolitano de Santiago (http://www.gobiernosantiago.cl/)"}}, {"type": "node", "id": 906399549, "lat": -33.499966, "lon": -70.754323, "tags": {"addr:housenumber": "262", "addr:street": "Avenida Central", "amenity": "school", "contact:email": "strujillo@codeduc.cl", "name": "Escuela B\u00e1sica Emaus de Maip\u00fa", "operator": "1", "school:type": "110", "source": "Gobierno Regional Metropolitano de Santiago (http://www.gobiernosantiago.cl/)"}}, {"type": "node", "id": 906399619, "lat": -33.4996217, "lon": -70.7546906, "tags": {"addr:housenumber": "2998", "addr:street": "Jos\u00e9 Miguel Ramirez", "amenity": "school", "contact:email": "garg@vtr.net", "name": "Escuela Especial Santa Teresa de Los Andes", "operator": "3", "school:type": "214", "source": "Gobierno Regional Metropolitano de Santiago (http://www.gobiernosantiago.cl/)"}}, {"type": "node", "id": 906399632, "lat": -33.502076, "lon": -70.7624726, "tags": {"addr:housenumber": "2676", "addr:street": "Calle Hermanos Carrera", "amenity": "school", "contact:email": "admision@royalschool.cl", "name": "Colegio Royal American School", "operator": "3", "school:type": "10;110;310", "source": "Gobierno Regional Metropolitano de Santiago (http://www.gobiernosantiago.cl/)"}}, {"type": "node", "id": 906399648, "lat": -33.5011074, "lon": -70.7625637, "tags": {"addr:city": "Maip\u00fa", "addr:housenumber": "431", "addr:street": "Libertador Bernardo O'Higgins", "amenity": "school", "contact:email": "orlandocordova@trememn.cl", "name": "Colegio Intercultural Trememn", "operator": "3", "school:type": "10;110;310", "source": "Gobierno Regional Metropolitano de Santiago (http://www.gobiernosantiago.cl/)"}}, {"type": "node", "id": 906399707, "lat": -33.4972003, "lon": -70.7620833, "tags": {"addr:housenumber": "3256", "addr:street": "Hermanos Carrera", "amenity": "school", "contact:email": "escuelabarcelona@gmail.com", "name": "Escuela Especial Barcelona", "operator": "3", "school:type": "212", "source": "Gobierno Regional Metropolitano de Santiago (http://www.gobiernosantiago.cl/)"}}, {"type": "node", "id": 906399720, "lat": -33.4939889, "lon": -70.7606836, "tags": {"addr:housenumber": "1141", "addr:street": "Sierra Bella", "amenity": "school", "contact:email": "liceoa22@terra.cl", "name": "Liceo Industrial", "operator": "5", "school:type": "510", "source": "Gobierno Regional Metropolitano de Santiago (http://www.gobiernosantiago.cl/)"}}, {"type": "node", "id": 906399748, "lat": -33.4948967, "lon": -70.759183, "tags": {"addr:city": "Maip\u00fa", "addr:country": "CL", "addr:housenumber": "193", "addr:street": "Pasaje In\u00e9s Riesco", "amenity": "school", "contact:email": "maggiaedo@hotmail.com", "name": "Escuela Especial Profesora Raquel Torres", "note": "Correcciones masivas a ortograf\u00eda en nombres de importaciones hechas por equipo de gendarmer\u00eda", "operator": "3", "school:type": "214", "source": "Gobierno Regional Metropolitano de Santiago (http://www.gobiernosantiago.cl/)"}}, {"type": "node", "id": 906399798, "lat": -33.486103, "lon": -70.7631309, "tags": {"addr:housenumber": "801", "addr:street": "Calle La Reforma", "amenity": "school", "contact:email": "maelidiaz@gmail.com", "name": "Colegio Centro Educacional Rousseau", "operator": "3", "school:type": "10;110;160;310;361", "source": "Gobierno Regional Metropolitano de Santiago (http://www.gobiernosantiago.cl/)"}}, {"type": "node", "id": 906399814, "lat": -33.489302, "lon": -70.7666538, "tags": {"addr:city": "Maip\u00fa", "addr:country": "CL", "addr:housenumber": "257", "addr:street": "Diagonal Arquitecto Mardones Restat", "amenity": "school", "contact:email": "plazasesamo@123mail.cl", "name": "Escuela Especial Plaza S\u00e9samo", "note": "Correcciones masivas a ortograf\u00eda en nombres de importaciones hechas por equipo de gendarmer\u00eda", "operator": "3", "school:type": "214", "source": "Gobierno Regional Metropolitano de Santiago (http://www.gobiernosantiago.cl/)"}}, {"type": "node", "id": 906399825, "lat": -33.4895591, "lon": -70.7691281, "tags": {"addr:housenumber": "1356", "addr:street": "Campos de Batalla", "amenity": "school", "contact:email": "ecodiser@terra.cl", "contact:phone": "+56 2 7626112", "name": "Escuela B\u00e1sica Y Especial Mario Baeza", "operator": "3", "school:type": "110;214", "source": "Gobierno Regional Metropolitano de Santiago (http://www.gobiernosantiago.cl/)"}}, {"type": "node", "id": 906401388, "lat": -33.5163856, "lon": -70.7433835, "tags": {"addr:housenumber": "535", "addr:street": "Cuatro \u00c1lamos", "amenity": "school", "contact:email": "maravena@codeduc.cl", "contact:phone": "+56 2 5859280", "name": "Liceo El Llano De Maipu", "operator": "1", "school:type": "10;110;310", "source": "Gobierno Regional Metropolitano de Santiago (http://www.gobiernosantiago.cl/)"}}, {"type": "node", "id": 906401430, "lat": -33.5096158, "lon": -70.7504432, "tags": {"addr:housenumber": "1920", "addr:street": "Las Terrazas", "amenity": "school", "contact:email": "escuelalosaromos@hotmail.com", "name": "Escuela Especial Los Aromos de Maip\u00fa", "operator": "3", "school:type": "212", "source": "Gobierno Regional Metropolitano de Santiago (http://www.gobiernosantiago.cl/)"}}, {"type": "node", "id": 906401460, "lat": -33.5051956, "lon": -70.7472341, "tags": {"addr:city": "Maip\u00fa", "addr:housenumber": "955", "addr:street": "Luis Gandarillas", "amenity": "school", "contact:email": "mater_purissima@mixmail.com", "name": "Liceo Mater Purissima", "operator": "3", "school:type": "10;110;310", "source": "Gobierno Regional Metropolitano de Santiago (http://www.gobiernosantiago.cl/)"}}, {"type": "node", "id": 906401470, "lat": -33.5002078, "lon": -70.7504291, "tags": {"addr:city": "Maip\u00fa", "addr:housenumber": "568", "addr:street": "Avenida Central Gonzalo P\u00e9rez Llona", "amenity": "school", "contact:email": "sanfelix01_@hotmail.com", "name": "Colegio Particular San F\u00e9lix", "operator": "3", "school:type": "10;110;310", "source": "Gobierno Regional Metropolitano de Santiago (http://www.gobiernosantiago.cl/)"}}, {"type": "node", "id": 906401569, "lat": -33.5036659, "lon": -70.7501732, "tags": {"addr:housenumber": "523", "addr:street": "Luis Gandarillas", "amenity": "school", "contact:email": "sec@colegiohermanoscarrera.cl", "name": "Escuela B\u00e1sica Hermanos Carrera De Maip\u00fa", "school:type": "10;110"}}, {"type": "node", "id": 906401597, "lat": -33.500556, "lon": -70.7452735, "tags": {"addr:city": "Maip\u00fa", "addr:housenumber": "3195", "addr:street": "Avenida Segunda Transversal", "amenity": "school", "contact:email": "escuelalenguajemeb@gmail.com", "name": "Escuela Especial Monse\u00f1or Escriv\u00e1 de Balaguer", "school:type": "214", "source": "Gobierno Regional Metropolitano de Santiago (http://www.gobiernosantiago.cl/)"}}, {"type": "node", "id": 906401626, "lat": -33.501146, "lon": -70.7516931, "tags": {"addr:city": "Maip\u00fa", "addr:country": "CL", "addr:housenumber": "2811", "addr:street": "Primera Transversal", "amenity": "school", "contact:email": "profesormarcos@hotmail.com", "contact:phone": "+56 2 7933422", "name": "Colegio El Redentor", "note": "Correcciones masivas a ortograf\u00eda en nombres de importaciones hechas por equipo de gendarmer\u00eda", "operator": "3", "school:type": "10;110", "source": "Gobierno Regional Metropolitano de Santiago (http://www.gobiernosantiago.cl/)"}}, {"type": "node", "id": 906401640, "lat": -33.5077159, "lon": -70.742299, "tags": {"addr:housenumber": "1200", "addr:street": "Jorge Fernandez Pradel", "amenity": "school", "contact:email": "csanvale@vtr.net", "name": "Colegio San Valentin De Maipu", "operator": "3", "school:type": "10;110;310", "source": "Gobierno Regional Metropolitano de Santiago (http://www.gobiernosantiago.cl/)"}}, {"type": "node", "id": 906401654, "lat": -33.4872063, "lon": -70.7378239, "tags": {"addr:housenumber": "4210", "addr:street": "Las Golondrinas", "amenity": "school", "contact:email": "colegiosanandres@gmail.com", "contact:phone": "+56 2 3165791", "name": "Colegio San Andres De Maipu", "operator": "3", "school:type": "10;110;310", "source": "Gobierno Regional Metropolitano de Santiago (http://www.gobiernosantiago.cl/)"}}, {"type": "node", "id": 906401729, "lat": -33.497029, "lon": -70.7494964, "tags": {"addr:housenumber": "3315", "addr:street": "Presidente German Reisco", "amenity": "school", "contact:email": "rguatemala@codeduc.cl", "name": "Escuela B\u00e1sica Rep\u00fablica De Guatemala", "operator": "1", "school:type": "10;110", "source": "Gobierno Regional Metropolitano de Santiago (http://www.gobiernosantiago.cl/)"}}, {"type": "node", "id": 906401763, "lat": -33.4886996, "lon": -70.7348759, "tags": {"addr:city": "Maip\u00fa", "addr:country": "CL", "addr:housenumber": "4144", "addr:street": "Avenida Lumen", "amenity": "school", "contact:email": "audilenco@vtr.net", "contact:phone": "+56 2 7461908", "name": "Escuela Especial Aulenco", "note": "Correcciones masivas a ortograf\u00eda en nombres de importaciones hechas por equipo de gendarmer\u00eda", "operator": "3", "school:type": "214", "source": "Gobierno Regional Metropolitano de Santiago (http://www.gobiernosantiago.cl/)"}}, {"type": "node", "id": 906401775, "lat": -33.4929226, "lon": -70.7405866, "tags": {"addr:city": "Maip\u00fa", "addr:country": "CL", "addr:housenumber": "3734", "addr:street": "Longotoma", "amenity": "school", "contact:email": "maquita23@hotmail.com", "name": "Escuela de P\u00e1rvulos y Lenguaje Gabriela Mistral", "note": "Correcciones masivas a ortograf\u00eda en nombres de importaciones hechas por equipo de gendarmer\u00eda", "operator": "3", "school:type": "10;214", "source": "Gobierno Regional Metropolitano de Santiago (http://www.gobiernosantiago.cl/)"}}, {"type": "node", "id": 906403270, "lat": -33.4864792, "lon": -70.7612664, "tags": {"addr:city": "Maip\u00fa", "addr:country": "CL", "addr:housenumber": "799", "addr:street": "Avenida Alto Jahuel", "amenity": "school", "contact:email": "solange_avaria@yahoo.com", "name": "Escuela Especial Alta-Vida", "note": "Correcciones masivas a ortograf\u00eda en nombres de importaciones hechas por equipo de gendarmer\u00eda", "operator": "3", "school:type": "216", "source": "Gobierno Regional Metropolitano de Santiago (http://www.gobiernosantiago.cl/)"}}, {"type": "node", "id": 906403299, "lat": -33.4657069, "lon": -70.7585529, "tags": {"addr:housenumber": "5537", "addr:street": "Calle Jorge Guillen", "amenity": "school", "contact:email": "pat.gonz@hotmail.com", "name": "Escuela Especial Packamawa Limitada", "operator": "3", "school:type": "214", "source": "Gobierno Regional Metropolitano de Santiago (http://www.gobiernosantiago.cl/)"}}, {"type": "node", "id": 906403329, "lat": -33.4826696, "lon": -70.7567462, "tags": {"addr:city": "Maip\u00fa", "addr:country": "CL", "addr:housenumber": "215", "addr:street": "Talcamavida", "amenity": "school", "contact:email": "Escuelaarlequin@vtr.net", "name": "Escuela de Lenguaje Manquemapu", "note": "Correcciones masivas a ortograf\u00eda en nombres de importaciones hechas por equipo de gendarmer\u00eda", "operator": "3", "school:type": "214", "source": "Gobierno Regional Metropolitano de Santiago (http://www.gobiernosantiago.cl/)"}}, {"type": "node", "id": 906404926, "lat": -33.484641, "lon": -70.7478978, "tags": {"addr:city": "Maip\u00fa", "addr:housenumber": "4198", "addr:street": "Avenida Los Pajaritos", "amenity": "school", "contact:email": "ceducsanandres@hotmail.com", "name": "Centro Educacional San Andr\u00e9s", "operator": "3", "school:type": "10;110", "source": "Gobierno Regional Metropolitano de Santiago (http://www.gobiernosantiago.cl/)"}}, {"type": "node", "id": 906404958, "lat": -33.4790065, "lon": -70.7372239, "tags": {"addr:housenumber": "621", "addr:street": "San Jose", "amenity": "school", "contact:email": "providenciamaipu@hotmail.com", "contact:phone": "+56 2 5314157", "name": "Colegio Carmela Larrain De Infante", "operator": "3", "school:type": "10;110;310", "source": "Gobierno Regional Metropolitano de Santiago (http://www.gobiernosantiago.cl/)"}}, {"type": "node", "id": 906405178, "lat": -33.4965105, "lon": -70.7605888, "tags": {"addr:housenumber": "236", "addr:street": "Santiago Bueras", "amenity": "school", "contact:email": "ximenadeviaj@hotmail.com", "contact:phone": "+56 2 3247857", "name": "Escuela B\u00e1sica Kind's School", "operator": "3", "school:type": "10;110", "source": "Gobierno Regional Metropolitano de Santiago (http://www.gobiernosantiago.cl/)"}}, {"type": "node", "id": 906405288, "lat": -33.4749339, "lon": -70.7429829, "tags": {"addr:city": "Maip\u00fa", "addr:country": "CL", "addr:housenumber": "125", "addr:street": "Hugo Bravo", "amenity": "school", "contact:email": "educa_integral@hotmail.com", "name": "Escuela Esp Leng Nuestra Se\u00f1ora del Buen Consejo", "note": "Correcciones masivas a ortograf\u00eda en nombres de importaciones hechas por equipo de gendarmer\u00eda", "operator": "3", "school:type": "214", "source": "Gobierno Regional Metropolitano de Santiago (http://www.gobiernosantiago.cl/)"}}, {"type": "node", "id": 906405403, "lat": -33.4676202, "lon": -70.7513349, "tags": {"addr:city": "Maipu", "addr:country": "CL", "addr:housenumber": "917", "addr:street": "Longitudinal", "amenity": "school", "contact:email": "villlabres@hotmail.com", "name": "Escuela de Lenguaje Semillita de Jes\u00fas 2", "note": "Correcciones masivas a ortograf\u00eda en nombres de importaciones hechas por equipo de gendarmer\u00eda", "operator": "3", "school:type": "214", "source": "Gobierno Regional Metropolitano de Santiago (http://www.gobiernosantiago.cl/)"}}, {"type": "node", "id": 906405458, "lat": -33.4813165, "lon": -70.7284943, "tags": {"addr:housenumber": "3651", "addr:street": "Las Brisas", "amenity": "school", "contact:email": "axhalley@ctcreuna.cl", "name": "Colegio Halley Anexo", "operator": "3", "school:type": "10;110", "source": "Gobierno Regional Metropolitano de Santiago (http://www.gobiernosantiago.cl/)"}}, {"type": "node", "id": 906405485, "lat": -33.4774265, "lon": -70.7292043, "tags": {"addr:housenumber": "3810", "addr:street": "Simon Bolivar", "amenity": "school", "contact:email": "halley13@ctcreuna.cl", "name": "Colegio Halley", "operator": "3", "school:type": "110", "source": "Gobierno Regional Metropolitano de Santiago (http://www.gobiernosantiago.cl/)"}}, {"type": "node", "id": 906405640, "lat": -33.4722051, "lon": -70.7298375, "tags": {"addr:housenumber": "698", "addr:street": "Barros Arana", "amenity": "school", "contact:email": "minijoseph13@yahoo.es", "name": "Escuela B\u00e1sica La Merced", "operator": "3", "school:type": "10;110", "source": "Gobierno Regional Metropolitano de Santiago (http://www.gobiernosantiago.cl/)"}}, {"type": "node", "id": 906405849, "lat": -33.4740237, "lon": -70.7275426}, {"type": "node", "id": 1244621549, "lat": -33.5570687, "lon": -70.7914415, "tags": {"addr:housenumber": "502", "addr:street": "Avenida Parque Central Poniente"}}, {"type": "node", "id": 1833521654, "lat": -33.5164175, "lon": -70.7740955}, {"type": "node", "id": 1833521656, "lat": -33.5164842, "lon": -70.7752669}, {"type": "node", "id": 1833521660, "lat": -33.5180174, "lon": -70.7752499}, {"type": "node", "id": 1833521662, "lat": -33.5179674, "lon": -70.7740785}, {"type": "node", "id": 1854984007, "lat": -33.5184758, "lon": -70.7920736}, {"type": "node", "id": 1854984027, "lat": -33.517979, "lon": -70.7931614}, {"type": "node", "id": 1854984031, "lat": -33.5190259, "lon": -70.7920817}, {"type": "node", "id": 1854984034, "lat": -33.5192472, "lon": -70.7928166}, {"type": "node", "id": 1854984040, "lat": -33.5191511, "lon": -70.792087}, {"type": "node", "id": 1854984047, "lat": -33.519302, "lon": -70.793176}, {"type": "node", "id": 1864995346, "lat": -33.5168509, "lon": -70.7751547}, {"type": "node", "id": 1864995359, "lat": -33.5167957, "lon": -70.7751885}, {"type": "node", "id": 1864995361, "lat": -33.5168853, "lon": -70.7751135}, {"type": "node", "id": 1864995365, "lat": -33.5167139, "lon": -70.7747731}, {"type": "node", "id": 1864995367, "lat": -33.5165464, "lon": -70.7872609}, {"type": "node", "id": 1864995374, "lat": -33.5165902, "lon": -70.7748742}, {"type": "node", "id": 1864995383, "lat": -33.5166067, "lon": -70.7751218}, {"type": "node", "id": 1864995384, "lat": -33.5160937, "lon": -70.7872936}, {"type": "node", "id": 1864995385, "lat": -33.5168859, "lon": -70.7748558}, {"type": "node", "id": 1864995429, "lat": -33.5166194, "lon": -70.7748302}, {"type": "node", "id": 1864995430, "lat": -33.5166708, "lon": -70.7747887}, {"type": "node", "id": 1864995431, "lat": -33.5165659, "lon": -70.7750064}, {"type": "node", "id": 1864995432, "lat": -33.5160408, "lon": -70.7857344}, {"type": "node", "id": 1864995434, "lat": -33.5168407, "lon": -70.774805}, {"type": "node", "id": 1864995440, "lat": -33.5169216, "lon": -70.7749849}, {"type": "node", "id": 1864995441, "lat": -33.5169111, "lon": -70.7749117}, {"type": "node", "id": 1864995472, "lat": -33.5165681, "lon": -70.7749436}, {"type": "node", "id": 1864995473, "lat": -33.5166843, "lon": -70.775186}, {"type": "node", "id": 1864995496, "lat": -33.5165829, "lon": -70.7750778}, {"type": "node", "id": 1864995501, "lat": -33.5167454, "lon": -70.775198}, {"type": "node", "id": 1864995503, "lat": -33.5167759, "lon": -70.7747738}, {"type": "node", "id": 1864995511, "lat": -33.5166542, "lon": -70.7751695}, {"type": "node", "id": 1864995516, "lat": -33.5165442, "lon": -70.785802}, {"type": "node", "id": 1864995532, "lat": -33.5169136, "lon": -70.7750475}, {"type": "node", "id": 1871847170, "lat": -33.5095219, "lon": -70.7480338}, {"type": "node", "id": 1871847174, "lat": -33.5094314, "lon": -70.7617598}, {"type": "node", "id": 1871847177, "lat": -33.5099639, "lon": -70.7626596}, {"type": "node", "id": 1871847178, "lat": -33.509953, "lon": -70.7617371}, {"type": "node", "id": 1871847179, "lat": -33.5104729, "lon": -70.7617273}, {"type": "node", "id": 1871847186, "lat": -33.5099691, "lon": -70.7630512}, {"type": "node", "id": 1871847192, "lat": -33.5121131, "lon": -70.7517168}, {"type": "node", "id": 1871847194, "lat": -33.5096006, "lon": -70.7631055}, {"type": "node", "id": 1871847205, "lat": -33.5110022, "lon": -70.751672}, {"type": "node", "id": 1871847207, "lat": -33.5097404, "lon": -70.7480799}, {"type": "node", "id": 1871847209, "lat": -33.5102162, "lon": -70.7481529}, {"type": "node", "id": 1871847210, "lat": -33.5128495, "lon": -70.7526411}, {"type": "node", "id": 1871847214, "lat": -33.5094681, "lon": -70.7633639}, {"type": "node", "id": 1871847227, "lat": -33.5095987, "lon": -70.7632791}, {"type": "node", "id": 1871847228, "lat": -33.5104911, "lon": -70.7626546}, {"type": "node", "id": 1871847230, "lat": -33.5127755, "lon": -70.7521013}, {"type": "node", "id": 1881469055, "lat": -33.5103535, "lon": -70.7767885}, {"type": "node", "id": 1881469070, "lat": -33.5109688, "lon": -70.7756856}, {"type": "node", "id": 1881469103, "lat": -33.5103097, "lon": -70.7767744}, {"type": "node", "id": 1881469134, "lat": -33.5102538, "lon": -70.775688}, {"type": "node", "id": 1881469136, "lat": -33.5110291, "lon": -70.7769912}, {"type": "node", "id": 1884322326, "lat": -33.515992, "lon": -70.7605934}, {"type": "node", "id": 1884322329, "lat": -33.51672, "lon": -70.7604431}, {"type": "node", "id": 1884322330, "lat": -33.5167605, "lon": -70.7606411}, {"type": "node", "id": 1884322337, "lat": -33.5159594, "lon": -70.7603985}, {"type": "node", "id": 1926641610, "lat": -33.5239956, "lon": -70.7779707}, {"type": "node", "id": 1926641617, "lat": -33.5243826, "lon": -70.777802}, {"type": "node", "id": 1926641622, "lat": -33.5226005, "lon": -70.7772894}, {"type": "node", "id": 1926641625, "lat": -33.5243757, "lon": -70.7772841}, {"type": "node", "id": 1926641642, "lat": -33.5226407, "lon": -70.7779493}, {"type": "node", "id": 1994408852, "lat": -33.5179212, "lon": -70.7920629}, {"type": "node", "id": 2051752800, "lat": -33.5285993, "lon": -70.7971892}, {"type": "node", "id": 2051752811, "lat": -33.5280728, "lon": -70.7970076}, {"type": "node", "id": 2051752820, "lat": -33.5285912, "lon": -70.7958085}, {"type": "node", "id": 2051752823, "lat": -33.5280614, "lon": -70.795596}, {"type": "node", "id": 2071101161, "lat": -33.5160558, "lon": -70.7861028}, {"type": "node", "id": 2071101162, "lat": -33.516066, "lon": -70.7863471}, {"type": "node", "id": 2071101163, "lat": -33.5160891, "lon": -70.7870177}, {"type": "node", "id": 2295326875, "lat": -33.5520667, "lon": -70.7616762}, {"type": "node", "id": 2295326938, "lat": -33.5535101, "lon": -70.75943}, {"type": "node", "id": 2295326958, "lat": -33.5516755, "lon": -70.7613007}, {"type": "node", "id": 2295363689, "lat": -33.5486068, "lon": -70.7679337}, {"type": "node", "id": 2295363693, "lat": -33.5494966, "lon": -70.7677367}, {"type": "node", "id": 2295363709, "lat": -33.5492177, "lon": -70.7683402}, {"type": "node", "id": 2295363734, "lat": -33.5488857, "lon": -70.7673302}, {"type": "node", "id": 2295364561, "lat": -33.5477695, "lon": -70.7731342}, {"type": "node", "id": 2300348381, "lat": -33.5160793, "lon": -70.7866882}, {"type": "node", "id": 2300348382, "lat": -33.5164887, "lon": -70.7872913}, {"type": "node", "id": 2300348383, "lat": -33.5164916, "lon": -70.7872664}, {"type": "node", "id": 2463431722, "lat": -33.5110536, "lon": -70.749397}, {"type": "node", "id": 2463431725, "lat": -33.5133184, "lon": -70.7522294}, {"type": "node", "id": 2463431727, "lat": -33.5133928, "lon": -70.7495244}, {"type": "node", "id": 2691044446, "lat": -33.467456, "lon": -70.7531567}, {"type": "node", "id": 2691044449, "lat": -33.4673405, "lon": -70.7533711}, {"type": "node", "id": 2691044451, "lat": -33.4671784, "lon": -70.7535478}, {"type": "node", "id": 2691044453, "lat": -33.4670015, "lon": -70.7536804}, {"type": "node", "id": 2691044454, "lat": -33.4668725, "lon": -70.7537467}, {"type": "node", "id": 2691044456, "lat": -33.4667361, "lon": -70.753782}, {"type": "node", "id": 2691044458, "lat": -33.466655, "lon": -70.7537908}, {"type": "node", "id": 2691044460, "lat": -33.4657041, "lon": -70.7535788}, {"type": "node", "id": 2691044462, "lat": -33.4664198, "lon": -70.7529053}, {"type": "node", "id": 2691044464, "lat": -33.4664567, "lon": -70.7527122}, {"type": "node", "id": 2691044466, "lat": -33.4663068, "lon": -70.7526706}, {"type": "node", "id": 2691044468, "lat": -33.4663336, "lon": -70.7524829}, {"type": "node", "id": 2691044470, "lat": -33.4659285, "lon": -70.7523836}, {"type": "node", "id": 2691044472, "lat": -33.4655303, "lon": -70.7547502, "tags": {"source": "Reconocimiento cartogr\u00e1fico 2016 por KG."}}, {"type": "node", "id": 2691044474, "lat": -33.4656947, "lon": -70.7539008, "tags": {"source": "Reconocimiento cartogr\u00e1fico 2016 por KG."}}, {"type": "node", "id": 2775638784, "lat": -33.5086241, "lon": -70.768265}, {"type": "node", "id": 2775638788, "lat": -33.5090084, "lon": -70.7682717}, {"type": "node", "id": 2775638791, "lat": -33.5090352, "lon": -70.7681228}, {"type": "node", "id": 2775638793, "lat": -33.5086173, "lon": -70.7681202}, {"type": "node", "id": 2775638810, "lat": -33.4993219, "lon": -70.7814412}, {"type": "node", "id": 2775638811, "lat": -33.4993891, "lon": -70.7816922}, {"type": "node", "id": 2775638812, "lat": -33.4989545, "lon": -70.7817033}, {"type": "node", "id": 2775638814, "lat": -33.4989506, "lon": -70.7815393}, {"type": "node", "id": 2775638815, "lat": -33.4987469, "lon": -70.7815442}, {"type": "node", "id": 2775638816, "lat": -33.4987178, "lon": -70.7814551}, {"type": "node", "id": 2832915140, "lat": -33.5094603, "lon": -70.7678027}, {"type": "node", "id": 2832915141, "lat": -33.5101668, "lon": -70.7679905}, {"type": "node", "id": 2832915142, "lat": -33.5102641, "lon": -70.7671825}, {"type": "node", "id": 2832915143, "lat": -33.5095666, "lon": -70.7672043}, {"type": "node", "id": 2832917978, "lat": -33.5146706, "lon": -70.7633174}, {"type": "node", "id": 2832917979, "lat": -33.5144726, "lon": -70.7632636}, {"type": "node", "id": 2832917980, "lat": -33.5144039, "lon": -70.7626863}, {"type": "node", "id": 2832917982, "lat": -33.5148798, "lon": -70.7624985}, {"type": "node", "id": 2832917983, "lat": -33.5149673, "lon": -70.7629422}, {"type": "node", "id": 2838896358, "lat": -33.5120615, "lon": -70.7681014}, {"type": "node", "id": 2838896359, "lat": -33.5128742, "lon": -70.7680858}, {"type": "node", "id": 2838896360, "lat": -33.5130175, "lon": -70.7679764}, {"type": "node", "id": 2838896361, "lat": -33.5133528, "lon": -70.7680031}, {"type": "node", "id": 2838896362, "lat": -33.5132757, "lon": -70.7687351}, {"type": "node", "id": 2838896363, "lat": -33.5130675, "lon": -70.7689409}, {"type": "node", "id": 2838896364, "lat": -33.5125287, "lon": -70.768938}, {"type": "node", "id": 2838898644, "lat": -33.5161525, "lon": -70.7699107}, {"type": "node", "id": 2838898645, "lat": -33.5165827, "lon": -70.769886}, {"type": "node", "id": 2838898646, "lat": -33.5165538, "lon": -70.7689871}, {"type": "node", "id": 2838898647, "lat": -33.5161029, "lon": -70.7690101}, {"type": "node", "id": 2840009529, "lat": -33.509088, "lon": -70.7470197}, {"type": "node", "id": 2840009530, "lat": -33.5088532, "lon": -70.7473057}, {"type": "node", "id": 2840009531, "lat": -33.5086842, "lon": -70.7472927}, {"type": "node", "id": 2840009532, "lat": -33.5086112, "lon": -70.7478601}, {"type": "node", "id": 2860528327, "lat": -33.511201, "lon": -70.7226194}, {"type": "node", "id": 2860528328, "lat": -33.5118329, "lon": -70.7241205}, {"type": "node", "id": 2860528329, "lat": -33.5109887, "lon": -70.7246655}, {"type": "node", "id": 2860528330, "lat": -33.5104609, "lon": -70.7234894}, {"type": "node", "id": 3130593438, "lat": -33.5001092, "lon": -70.7799084}, {"type": "node", "id": 3130593439, "lat": -33.4992313, "lon": -70.7799581}, {"type": "node", "id": 3130593440, "lat": -33.4984216, "lon": -70.7799996}, {"type": "node", "id": 3130593441, "lat": -33.4983081, "lon": -70.7800687}, {"type": "node", "id": 3130593442, "lat": -33.4985424, "lon": -70.7808298}, {"type": "node", "id": 3130593443, "lat": -33.4991653, "lon": -70.7808044}, {"type": "node", "id": 3130593444, "lat": -33.4994717, "lon": -70.7819349}, {"type": "node", "id": 3130593445, "lat": -33.5005163, "lon": -70.7819543}, {"type": "node", "id": 3231687044, "lat": -33.5157073, "lon": -70.7666506}, {"type": "node", "id": 3231687045, "lat": -33.5155216, "lon": -70.7657219}, {"type": "node", "id": 3231687046, "lat": -33.5144242, "lon": -70.7660367}, {"type": "node", "id": 3231687049, "lat": -33.5145708, "lon": -70.7667813}, {"type": "node", "id": 3254269240, "lat": -33.5091782, "lon": -70.7662425}, {"type": "node", "id": 3254269241, "lat": -33.5091804, "lon": -70.7659019}, {"type": "node", "id": 3254269242, "lat": -33.5094644, "lon": -70.7658751}, {"type": "node", "id": 3254269243, "lat": -33.5094153, "lon": -70.7662291}, {"type": "node", "id": 3309462125, "lat": -33.5196623, "lon": -70.7731519}, {"type": "node", "id": 3309462126, "lat": -33.5192701, "lon": -70.7731685}, {"type": "node", "id": 3309473698, "lat": -33.5151002, "lon": -70.7635882}, {"type": "node", "id": 3309473700, "lat": -33.5134731, "lon": -70.7669219}, {"type": "node", "id": 3309473705, "lat": -33.5147058, "lon": -70.7644389}, {"type": "node", "id": 3309473708, "lat": -33.5152775, "lon": -70.7644762}, {"type": "node", "id": 3309473718, "lat": -33.514752, "lon": -70.7635703}, {"type": "node", "id": 3391405981, "lat": -33.4847893, "lon": -70.7445791}, {"type": "node", "id": 3391405983, "lat": -33.4847107, "lon": -70.7465592}, {"type": "node", "id": 3391405985, "lat": -33.4852658, "lon": -70.7454052}, {"type": "node", "id": 3391405987, "lat": -33.4848788, "lon": -70.7447588}, {"type": "node", "id": 3391405988, "lat": -33.4846596, "lon": -70.7441606}, {"type": "node", "id": 3391405992, "lat": -33.4839951, "lon": -70.7460999}, {"type": "node", "id": 3391413493, "lat": -33.4847244, "lon": -70.7444235}, {"type": "node", "id": 3527172233, "lat": -33.5155528, "lon": -70.7611387}, {"type": "node", "id": 3527172234, "lat": -33.5155262, "lon": -70.7609822}, {"type": "node", "id": 3527172235, "lat": -33.514723, "lon": -70.761146}, {"type": "node", "id": 3527172236, "lat": -33.5146589, "lon": -70.7607713}, {"type": "node", "id": 3527172237, "lat": -33.5151774, "lon": -70.760632}, {"type": "node", "id": 3527172238, "lat": -33.5152452, "lon": -70.7609777}, {"type": "node", "id": 3527172284, "lat": -33.514618, "lon": -70.7629044}, {"type": "node", "id": 3527172285, "lat": -33.514251, "lon": -70.7627117}, {"type": "node", "id": 3527172286, "lat": -33.5143417, "lon": -70.7624834}, {"type": "node", "id": 3527172288, "lat": -33.5143025, "lon": -70.7622458}, {"type": "node", "id": 3527172289, "lat": -33.5141882, "lon": -70.7622491}, {"type": "node", "id": 3672420209, "lat": -33.5003809, "lon": -70.7812697}, {"type": "node", "id": 3892582207, "lat": -33.5000011, "lon": -70.7769966}, {"type": "node", "id": 3892582208, "lat": -33.4999615, "lon": -70.7760558}, {"type": "node", "id": 3892582209, "lat": -33.5005851, "lon": -70.7759116}, {"type": "node", "id": 3892582210, "lat": -33.5004732, "lon": -70.7770444}, {"type": "node", "id": 3961387736, "lat": -33.5122237, "lon": -70.7850454}, {"type": "node", "id": 3961387737, "lat": -33.5115533, "lon": -70.7849449}, {"type": "node", "id": 3961387738, "lat": -33.5143502, "lon": -70.7962859}, {"type": "node", "id": 3961387739, "lat": -33.5096502, "lon": -70.7882702}, {"type": "node", "id": 3961387740, "lat": -33.5114885, "lon": -70.7855761}, {"type": "node", "id": 3961387741, "lat": -33.5099744, "lon": -70.7883131}, {"type": "node", "id": 3961387742, "lat": -33.5097486, "lon": -70.7903828}, {"type": "node", "id": 3961387743, "lat": -33.5096582, "lon": -70.7903747}, {"type": "node", "id": 3961387745, "lat": -33.5142421, "lon": -70.7946106}, {"type": "node", "id": 3961387746, "lat": -33.51215, "lon": -70.7857444}, {"type": "node", "id": 3961387747, "lat": -33.5098911, "lon": -70.7890546}, {"type": "node", "id": 3961387748, "lat": -33.5095159, "lon": -70.7890331}, {"type": "node", "id": 3961387749, "lat": -33.5137222, "lon": -70.7963541}, {"type": "node", "id": 3961387752, "lat": -33.5136053, "lon": -70.7946264}, {"type": "node", "id": 3961387754, "lat": -33.50957, "lon": -70.7895435}, {"type": "node", "id": 4022397381, "lat": -33.5565655, "lon": -70.7913767}, {"type": "node", "id": 4022397382, "lat": -33.5566321, "lon": -70.7911603}, {"type": "node", "id": 4022397383, "lat": -33.5571983, "lon": -70.7908424}, {"type": "node", "id": 4022397384, "lat": -33.5573813, "lon": -70.7910469}, {"type": "node", "id": 4231968298, "lat": -33.4907058, "lon": -70.7809867}, {"type": "node", "id": 4231968301, "lat": -33.4910122, "lon": -70.7807869}, {"type": "node", "id": 4231968303, "lat": -33.4907606, "lon": -70.7810658}, {"type": "node", "id": 4231968304, "lat": -33.4902179, "lon": -70.7801123}, {"type": "node", "id": 4231968306, "lat": -33.4904463, "lon": -70.7794189}, {"type": "node", "id": 4231968307, "lat": -33.4907371, "lon": -70.7792956}, {"type": "node", "id": 4231968308, "lat": -33.4912991, "lon": -70.7787336}, {"type": "node", "id": 4231968312, "lat": -33.4918846, "lon": -70.7794029}, {"type": "node", "id": 4434583029, "lat": -33.4932005, "lon": -70.7362042, "tags": {"source": "Reconocimiento cortogr\u00e1fico de campo 2016 por KG"}}, {"type": "node", "id": 4434583030, "lat": -33.49359, "lon": -70.7362755, "tags": {"source": "Reconocimiento cortogr\u00e1fico de campo 2016 por KG"}}, {"type": "node", "id": 4434583031, "lat": -33.4941639, "lon": -70.7367423, "tags": {"source": "Reconocimiento cortogr\u00e1fico de campo 2016 por KG"}}, {"type": "node", "id": 4434583032, "lat": -33.4941264, "lon": -70.7370524, "tags": {"source": "Reconocimiento cortogr\u00e1fico de campo 2016 por KG"}}, {"type": "node", "id": 4434583033, "lat": -33.4931236, "lon": -70.7367899, "tags": {"source": "Reconocimiento cortogr\u00e1fico de campo 2016 por KG"}}, {"type": "node", "id": 4436619808, "lat": -33.5003266, "lon": -70.7488665, "tags": {"source": "Reconocimiento cortogr\u00e1fico de campo 2016 por KG"}}, {"type": "node", "id": 4436619812, "lat": -33.5004144, "lon": -70.7488832, "tags": {"source": "Reconocimiento cortogr\u00e1fico de campo 2016 por KG"}}, {"type": "node", "id": 4441019582, "lat": -33.500823, "lon": -70.7519876, "tags": {"source": "Reconocimiento cortogr\u00e1fico de campo 2016 por KG"}}, {"type": "node", "id": 4441019583, "lat": -33.5010827, "lon": -70.7520347, "tags": {"source": "Reconocimiento cortogr\u00e1fico de campo 2016 por KG"}}, {"type": "node", "id": 4441019584, "lat": -33.5011306, "lon": -70.7516551, "tags": {"source": "Reconocimiento cortogr\u00e1fico de campo 2016 por KG"}}, {"type": "node", "id": 4441019585, "lat": -33.5008709, "lon": -70.751608, "tags": {"source": "Reconocimiento cortogr\u00e1fico de campo 2016 por KG"}}, {"type": "node", "id": 4441070597, "lat": -33.5004532, "lon": -70.7521359, "tags": {"source": "Reconocimiento cortogr\u00e1fico de campo 2016 por KG"}}, {"type": "node", "id": 4441070598, "lat": -33.5004484, "lon": -70.7524921, "tags": {"source": "Reconocimiento cortogr\u00e1fico de campo 2016 por KG"}}, {"type": "node", "id": 4441070599, "lat": -33.5005951, "lon": -70.752495, "tags": {"source": "Reconocimiento cortogr\u00e1fico de campo 2016 por KG"}}, {"type": "node", "id": 4441070600, "lat": -33.5005999, "lon": -70.7521387, "tags": {"source": "Reconocimiento cortogr\u00e1fico de campo 2016 por KG"}}, {"type": "node", "id": 4441405145, "lat": -33.4997379, "lon": -70.7551987}, {"type": "node", "id": 4441405146, "lat": -33.4997416, "lon": -70.7558014}, {"type": "node", "id": 4441405150, "lat": -33.4997842, "lon": -70.7558345}, {"type": "node", "id": 4441405151, "lat": -33.5001734, "lon": -70.7558311}, {"type": "node", "id": 4455267480, "lat": -33.4907243, "lon": -70.7691501}, {"type": "node", "id": 4455267482, "lat": -33.4900602, "lon": -70.7674998}, {"type": "node", "id": 4455271062, "lat": -33.5565651, "lon": -70.7915825}, {"type": "node", "id": 4455271063, "lat": -33.5567798, "lon": -70.791815}, {"type": "node", "id": 4455313315, "lat": -33.5621544, "lon": -70.7740459}, {"type": "node", "id": 4455313316, "lat": -33.5622608, "lon": -70.7737196}, {"type": "node", "id": 4455313317, "lat": -33.5627984, "lon": -70.7739686}, {"type": "node", "id": 4455313318, "lat": -33.56269, "lon": -70.7742929}, {"type": "node", "id": 4455711905, "lat": -33.4667597, "lon": -70.7549533, "tags": {"source": "Reconocimiento cartogr\u00e1fico 2016 por KG."}}, {"type": "node", "id": 4455711906, "lat": -33.4668145, "lon": -70.7540862, "tags": {"source": "Reconocimiento cartogr\u00e1fico 2016 por KG."}}, {"type": "node", "id": 4457003463, "lat": -33.5014384, "lon": -70.7572629}, {"type": "node", "id": 4457003464, "lat": -33.5017108, "lon": -70.7572572}, {"type": "node", "id": 4457003465, "lat": -33.5017033, "lon": -70.7567406}, {"type": "node", "id": 4457003466, "lat": -33.5022317, "lon": -70.7567253}, {"type": "node", "id": 4457003467, "lat": -33.5022234, "lon": -70.756235}, {"type": "node", "id": 4457003468, "lat": -33.5014236, "lon": -70.756252}, {"type": "node", "id": 4458203476, "lat": -33.5246786, "lon": -70.7903056}, {"type": "node", "id": 4458203477, "lat": -33.5246727, "lon": -70.7901079}, {"type": "node", "id": 4458203478, "lat": -33.5245235, "lon": -70.7901143}, {"type": "node", "id": 4458203479, "lat": -33.5245294, "lon": -70.790312}, {"type": "node", "id": 4462422464, "lat": -33.5055707, "lon": -70.7552388, "tags": {"addr:country": "CL", "note": "Correcciones masivas a ortograf\u00eda en nombres de importaciones hechas por equipo de gendarmer\u00eda", "source": "Reconocimiento cortogr\u00e1fico de campo 2016 por KG"}}, {"type": "node", "id": 4462422465, "lat": -33.5055707, "lon": -70.7550348, "tags": {"addr:country": "CL", "note": "Correcciones masivas a ortograf\u00eda en nombres de importaciones hechas por equipo de gendarmer\u00eda", "source": "Reconocimiento cortogr\u00e1fico de campo 2016 por KG"}}, {"type": "node", "id": 4462422466, "lat": -33.5058689, "lon": -70.7550301, "tags": {"addr:country": "CL", "note": "Correcciones masivas a ortograf\u00eda en nombres de importaciones hechas por equipo de gendarmer\u00eda", "source": "Reconocimiento cortogr\u00e1fico de campo 2016 por KG"}}, {"type": "node", "id": 4462422467, "lat": -33.5058667, "lon": -70.7552381, "tags": {"addr:country": "CL", "note": "Correcciones masivas a ortograf\u00eda en nombres de importaciones hechas por equipo de gendarmer\u00eda", "source": "Reconocimiento cortogr\u00e1fico de campo 2016 por KG"}}, {"type": "node", "id": 4463741376, "lat": -33.5007555, "lon": -70.7631274, "tags": {"addr:country": "CL", "note": "Correcciones masivas a ortograf\u00eda en nombres de importaciones hechas por equipo de gendarmer\u00eda", "source": "Reconocimiento cortogr\u00e1fico de campo 2016 por KG"}}, {"type": "node", "id": 4463741377, "lat": -33.5012539, "lon": -70.7631163, "tags": {"addr:country": "CL", "note": "Correcciones masivas a ortograf\u00eda en nombres de importaciones hechas por equipo de gendarmer\u00eda", "source": "Reconocimiento cortogr\u00e1fico de campo 2016 por KG"}}, {"type": "node", "id": 4463742794, "lat": -33.500594, "lon": -70.763131, "tags": {"addr:country": "CL", "note": "Correcciones masivas a ortograf\u00eda en nombres de importaciones hechas por equipo de gendarmer\u00eda", "source": "Reconocimiento cortogr\u00e1fico de campo 2016 por KG"}}, {"type": "node", "id": 4463742795, "lat": -33.500583, "lon": -70.7624232, "tags": {"addr:country": "CL", "note": "Correcciones masivas a ortograf\u00eda en nombres de importaciones hechas por equipo de gendarmer\u00eda", "source": "Reconocimiento cortogr\u00e1fico de campo 2016 por KG"}}, {"type": "node", "id": 4463742796, "lat": -33.5012429, "lon": -70.7624085, "tags": {"addr:country": "CL", "note": "Correcciones masivas a ortograf\u00eda en nombres de importaciones hechas por equipo de gendarmer\u00eda", "source": "Reconocimiento cortogr\u00e1fico de campo 2016 por KG"}}, {"type": "node", "id": 4463955210, "lat": -33.500194, "lon": -70.7488412, "tags": {"source": "Reconocimiento cortogr\u00e1fico de campo 2016 por KG"}}, {"type": "node", "id": 4463955211, "lat": -33.5001753, "lon": -70.7489821, "tags": {"source": "Reconocimiento cortogr\u00e1fico de campo 2016 por KG"}}, {"type": "node", "id": 4463955212, "lat": -33.5003187, "lon": -70.7490095, "tags": {"source": "Reconocimiento cortogr\u00e1fico de campo 2016 por KG"}}, {"type": "node", "id": 4463955213, "lat": -33.500324, "lon": -70.7489696, "tags": {"source": "Reconocimiento cortogr\u00e1fico de campo 2016 por KG"}}, {"type": "node", "id": 4463955214, "lat": -33.500401, "lon": -70.7489842, "tags": {"source": "Reconocimiento cortogr\u00e1fico de campo 2016 por KG"}}, {"type": "node", "id": 4465090201, "lat": -33.525895, "lon": -70.7706706, "tags": {"source": "Reconocimiento cartogr\u00e1fico 2016 por KG"}}, {"type": "node", "id": 4465090202, "lat": -33.5258967, "lon": -70.7705366, "tags": {"source": "Reconocimiento cartogr\u00e1fico 2016 por KG"}}, {"type": "node", "id": 4465090203, "lat": -33.5259938, "lon": -70.7705384, "tags": {"source": "Reconocimiento cartogr\u00e1fico 2016 por KG"}}, {"type": "node", "id": 4465090204, "lat": -33.5259921, "lon": -70.7706723, "tags": {"source": "Reconocimiento cartogr\u00e1fico 2016 por KG"}}, {"type": "node", "id": 4465190905, "lat": -33.5296943, "lon": -70.7757029, "tags": {"addr:country": "CL", "note": "Correcciones masivas a ortograf\u00eda en nombres de importaciones hechas por equipo de gendarmer\u00eda", "source": "Reconocimiento cartogr\u00e1fico 2016 por KG"}}, {"type": "node", "id": 4465190906, "lat": -33.5298006, "lon": -70.7756105, "tags": {"addr:country": "CL", "note": "Correcciones masivas a ortograf\u00eda en nombres de importaciones hechas por equipo de gendarmer\u00eda", "source": "Reconocimiento cartogr\u00e1fico 2016 por KG"}}, {"type": "node", "id": 4465190907, "lat": -33.5297534, "lon": -70.7755323, "tags": {"addr:country": "CL", "note": "Correcciones masivas a ortograf\u00eda en nombres de importaciones hechas por equipo de gendarmer\u00eda", "source": "Reconocimiento cartogr\u00e1fico 2016 por KG"}}, {"type": "node", "id": 4465190908, "lat": -33.5296471, "lon": -70.7756247, "tags": {"addr:country": "CL", "note": "Correcciones masivas a ortograf\u00eda en nombres de importaciones hechas por equipo de gendarmer\u00eda", "source": "Reconocimiento cartogr\u00e1fico 2016 por KG"}}, {"type": "node", "id": 4465373450, "lat": -33.5117925, "lon": -70.7585948, "tags": {"amenity": "school", "name": "Academia de Emprendimiento", "source": "Reconocimiento cortogr\u00e1fico de campo 2016 por KG"}}, {"type": "node", "id": 4466619244, "lat": -33.525474, "lon": -70.7584092}, {"type": "node", "id": 4466619245, "lat": -33.5257935, "lon": -70.7584076}, {"type": "node", "id": 4466619246, "lat": -33.5258835, "lon": -70.7578415}, {"type": "node", "id": 4466619247, "lat": -33.5258725, "lon": -70.7574012}, {"type": "node", "id": 4466619248, "lat": -33.5254567, "lon": -70.7574898}, {"type": "node", "id": 4466657757, "lat": -33.5164591, "lon": -70.7555335, "tags": {"source": "Reconocimiento cartogr\u00e1fico 2016 por KG"}}, {"type": "node", "id": 4466657758, "lat": -33.5165185, "lon": -70.7555333, "tags": {"source": "Reconocimiento cartogr\u00e1fico 2016 por KG"}}, {"type": "node", "id": 4466657759, "lat": -33.5165183, "lon": -70.7554204, "tags": {"source": "Reconocimiento cartogr\u00e1fico 2016 por KG"}}, {"type": "node", "id": 4466657760, "lat": -33.5163277, "lon": -70.755363, "tags": {"source": "Reconocimiento cartogr\u00e1fico 2016 por KG"}}, {"type": "node", "id": 4466657761, "lat": -33.5163178, "lon": -70.7553758, "tags": {"source": "Reconocimiento cartogr\u00e1fico 2016 por KG"}}, {"type": "node", "id": 4469010513, "lat": -33.4987046, "lon": -70.7445489}, {"type": "node", "id": 4469010514, "lat": -33.4993465, "lon": -70.7447071}, {"type": "node", "id": 4469010515, "lat": -33.4998095, "lon": -70.7433566}, {"type": "node", "id": 4469010516, "lat": -33.4994371, "lon": -70.7436517}, {"type": "node", "id": 4469010517, "lat": -33.4988924, "lon": -70.7441291}, {"type": "node", "id": 4469010518, "lat": -33.4995019, "lon": -70.7442753}, {"type": "node", "id": 4469062986, "lat": -33.5047621, "lon": -70.7517339}, {"type": "node", "id": 4469062987, "lat": -33.5049206, "lon": -70.7510574}, {"type": "node", "id": 4469062988, "lat": -33.5057873, "lon": -70.7511673}, {"type": "node", "id": 4469062989, "lat": -33.5056316, "lon": -70.7518338}, {"type": "node", "id": 4473018931, "lat": -33.4774918, "lon": -70.7392779, "tags": {"source": "Reconocimiento cortogr\u00e1fico de campo 2016 por KG"}}, {"type": "node", "id": 4473018932, "lat": -33.4781329, "lon": -70.7390937, "tags": {"source": "Reconocimiento cortogr\u00e1fico de campo 2016 por KG"}}, {"type": "node", "id": 4473018933, "lat": -33.4780542, "lon": -70.7386999, "tags": {"source": "Reconocimiento cortogr\u00e1fico de campo 2016 por KG"}}, {"type": "node", "id": 4473018934, "lat": -33.4774131, "lon": -70.738884, "tags": {"source": "Reconocimiento cortogr\u00e1fico de campo 2016 por KG"}}, {"type": "node", "id": 4860861129, "lat": -33.5566013, "lon": -70.7912333}, {"type": "node", "id": 4931884501, "lat": -33.5567466, "lon": -70.7910008}, {"type": "node", "id": 4931884503, "lat": -33.5565744, "lon": -70.7913226}, {"type": "node", "id": 4931884504, "lat": -33.5569439, "lon": -70.7908916}, {"type": "node", "id": 4942944686, "lat": -33.5621789, "lon": -70.7739725}, {"type": "node", "id": 4942944687, "lat": -33.5622342, "lon": -70.7737993}, {"type": "node", "id": 4942944688, "lat": -33.5622195, "lon": -70.7737922}, {"type": "node", "id": 4942944689, "lat": -33.562162, "lon": -70.7739644}, {"type": "node", "id": 4942944690, "lat": -33.562606, "lon": -70.7742525}, {"type": "node", "id": 4942944691, "lat": -33.5626128, "lon": -70.7742321}, {"type": "node", "id": 4942944692, "lat": -33.5622261, "lon": -70.7740805}, {"type": "node", "id": 4942944693, "lat": -33.562236, "lon": -70.7740508}, {"type": "node", "id": 4942944694, "lat": -33.562711, "lon": -70.7739266}, {"type": "node", "id": 4942944695, "lat": -33.5627059, "lon": -70.7739418}, {"type": "node", "id": 4942944696, "lat": -33.5626246, "lon": -70.7739027}, {"type": "node", "id": 4942944697, "lat": -33.5626391, "lon": -70.7738593}, {"type": "node", "id": 4942944698, "lat": -33.5623344, "lon": -70.773755}, {"type": "node", "id": 4942944699, "lat": -33.5623465, "lon": -70.7737186}, {"type": "node", "id": 4946317455, "lat": -33.5525822, "lon": -70.7929276}, {"type": "node", "id": 4947105972, "lat": -33.4843608, "lon": -70.7450327}, {"type": "node", "id": 4961032846, "lat": -33.5613217, "lon": -70.7919025}, {"type": "node", "id": 4961032847, "lat": -33.5611448, "lon": -70.7916764}, {"type": "node", "id": 5170028453, "lat": -33.5565614, "lon": -70.7914823}, {"type": "node", "id": 5170028454, "lat": -33.5566817, "lon": -70.7910828}, {"type": "node", "id": 5170028455, "lat": -33.5568058, "lon": -70.7909543}, {"type": "node", "id": 5170072721, "lat": -33.5571381, "lon": -70.7908504}, {"type": "node", "id": 5170072722, "lat": -33.5570332, "lon": -70.7908692}, {"type": "node", "id": 5177357064, "lat": -33.5055769, "lon": -70.7630684}, {"type": "node", "id": 5177357065, "lat": -33.5055729, "lon": -70.7627605}, {"type": "node", "id": 5177357066, "lat": -33.5062687, "lon": -70.7627474}, {"type": "node", "id": 5177357071, "lat": -33.5062727, "lon": -70.7630554}, {"type": "node", "id": 5177372738, "lat": -33.5000691, "lon": -70.7760318}, {"type": "node", "id": 5177372739, "lat": -33.5000675, "lon": -70.7758738}, {"type": "node", "id": 5177372740, "lat": -33.5001079, "lon": -70.7758382}, {"type": "node", "id": 5177372741, "lat": -33.5000792, "lon": -70.7758509}, {"type": "node", "id": 5322314895, "lat": -33.5528117, "lon": -70.7588407}, {"type": "node", "id": 5338126800, "lat": -33.5524464, "lon": -70.7931847}, {"type": "node", "id": 5338126801, "lat": -33.5527203, "lon": -70.7926865}, {"type": "node", "id": 5338126802, "lat": -33.552523, "lon": -70.7924766}, {"type": "node", "id": 5338126803, "lat": -33.5522591, "lon": -70.7929277}, {"type": "node", "id": 5339930280, "lat": -33.5652749, "lon": -70.7822405}, {"type": "node", "id": 5339930281, "lat": -33.5646062, "lon": -70.7814729}, {"type": "node", "id": 5339930282, "lat": -33.5647239, "lon": -70.7813239}, {"type": "node", "id": 5339930283, "lat": -33.5648011, "lon": -70.7812638}, {"type": "node", "id": 5339930284, "lat": -33.5648553, "lon": -70.7812412}, {"type": "node", "id": 5339930285, "lat": -33.5649199, "lon": -70.7812228}, {"type": "node", "id": 5339930286, "lat": -33.5649748, "lon": -70.7812115}, {"type": "node", "id": 5339930287, "lat": -33.5650307, "lon": -70.7812087}, {"type": "node", "id": 5339930288, "lat": -33.5650892, "lon": -70.7812199}, {"type": "node", "id": 5339930289, "lat": -33.5651488, "lon": -70.7812393}, {"type": "node", "id": 5339930290, "lat": -33.5651997, "lon": -70.7812612}, {"type": "node", "id": 5339930291, "lat": -33.5652676, "lon": -70.7813076}, {"type": "node", "id": 5339930292, "lat": -33.565325, "lon": -70.7813646}, {"type": "node", "id": 5339930293, "lat": -33.5653707, "lon": -70.7814163}, {"type": "node", "id": 5339930294, "lat": -33.5655138, "lon": -70.7816039}, {"type": "node", "id": 5339930295, "lat": -33.5655343, "lon": -70.7816566}, {"type": "node", "id": 5339930296, "lat": -33.5655533, "lon": -70.7817227}, {"type": "node", "id": 5339930297, "lat": -33.5655602, "lon": -70.7818032}, {"type": "node", "id": 5339930298, "lat": -33.565548, "lon": -70.7818795}, {"type": "node", "id": 5339930299, "lat": -33.5655247, "lon": -70.7819526}, {"type": "node", "id": 5341309324, "lat": -33.552307, "lon": -70.7815822}, {"type": "node", "id": 5341309325, "lat": -33.5532294, "lon": -70.7819881}, {"type": "node", "id": 5341309326, "lat": -33.5542665, "lon": -70.7824189}, {"type": "node", "id": 5341309327, "lat": -33.5540192, "lon": -70.7832182}, {"type": "node", "id": 5341309328, "lat": -33.5529382, "lon": -70.7827396}, {"type": "node", "id": 5341309329, "lat": -33.5520776, "lon": -70.7823419}, {"type": "node", "id": 5354422060, "lat": -33.5285627, "lon": -70.795765}, {"type": "node", "id": 5355109350, "lat": -33.5117317, "lon": -70.7856842}, {"type": "node", "id": 5355109351, "lat": -33.511739, "lon": -70.7856132}, {"type": "node", "id": 5355532492, "lat": -33.5005286, "lon": -70.7818262}, {"type": "node", "id": 5355532493, "lat": -33.5004987, "lon": -70.781956}, {"type": "node", "id": 5355532494, "lat": -33.5002456, "lon": -70.7806917}, {"type": "node", "id": 5355532496, "lat": -33.4984272, "lon": -70.7804462}, {"type": "node", "id": 5393146447, "lat": -33.4910428, "lon": -70.7840697}, {"type": "node", "id": 5393146448, "lat": -33.4913097, "lon": -70.7852863}, {"type": "node", "id": 5393146449, "lat": -33.4932316, "lon": -70.78458}, {"type": "node", "id": 5393146450, "lat": -33.4925717, "lon": -70.7845197}, {"type": "node", "id": 5393146454, "lat": -33.4912364, "lon": -70.7840582}, {"type": "node", "id": 5393146456, "lat": -33.4932484, "lon": -70.7846688}, {"type": "node", "id": 5496355941, "lat": -33.4993823, "lon": -70.7764536}, {"type": "node", "id": 5496355942, "lat": -33.4997912, "lon": -70.7765019}, {"type": "node", "id": 5496355943, "lat": -33.4997668, "lon": -70.7757689}, {"type": "node", "id": 5496355944, "lat": -33.4994566, "lon": -70.7757255}, {"type": "node", "id": 5503790416, "lat": -33.5103111, "lon": -70.7672254}, {"type": "node", "id": 5503790417, "lat": -33.5071317, "lon": -70.7641598}, {"type": "node", "id": 5503790418, "lat": -33.5071223, "lon": -70.7651806}, {"type": "node", "id": 5503790419, "lat": -33.5078935, "lon": -70.7651765}, {"type": "node", "id": 5503790420, "lat": -33.5078826, "lon": -70.7644043}, {"type": "node", "id": 5521377953, "lat": -33.4741059, "lon": -70.7554441}, {"type": "node", "id": 5524026940, "lat": -33.4904181, "lon": -70.768484}, {"type": "node", "id": 5524026941, "lat": -33.4904575, "lon": -70.7686024}, {"type": "node", "id": 5528620418, "lat": -33.5001907, "lon": -70.7568664}, {"type": "node", "id": 5528620419, "lat": -33.500186, "lon": -70.7564253}, {"type": "node", "id": 5528620420, "lat": -33.4999259, "lon": -70.7563012}, {"type": "node", "id": 5555363774, "lat": -33.5001696, "lon": -70.7551949}, {"type": "node", "id": 5555363775, "lat": -33.4999272, "lon": -70.7564293}, {"type": "node", "id": 5555363776, "lat": -33.4993877, "lon": -70.7563095}, {"type": "node", "id": 5555363777, "lat": -33.4993932, "lon": -70.756824}, {"type": "node", "id": 5644724828, "lat": -33.5170984, "lon": -70.7512083}, {"type": "node", "id": 5644724829, "lat": -33.517098, "lon": -70.7503428}, {"type": "node", "id": 5644724830, "lat": -33.5165526, "lon": -70.7503431}, {"type": "node", "id": 5644724831, "lat": -33.516553, "lon": -70.7512086}, {"type": "node", "id": 5644777372, "lat": -33.5021224, "lon": -70.7431114}, {"type": "node", "id": 5644777373, "lat": -33.5024902, "lon": -70.7423773}, {"type": "node", "id": 5644777375, "lat": -33.5015241, "lon": -70.7428727}, {"type": "node", "id": 5644777377, "lat": -33.5019222, "lon": -70.7420836}, {"type": "node", "id": 5685391784, "lat": -33.5096348, "lon": -70.7885852}, {"type": "node", "id": 5685391785, "lat": -33.5094814, "lon": -70.7887115}, {"type": "node", "id": 5685457400, "lat": -33.5069737, "lon": -70.7943598}, {"type": "node", "id": 5685457401, "lat": -33.5073349, "lon": -70.7956304}, {"type": "node", "id": 5685457402, "lat": -33.5069938, "lon": -70.7957677}, {"type": "node", "id": 5685457403, "lat": -33.506963, "lon": -70.7958416}, {"type": "node", "id": 5707076140, "lat": -33.5035627, "lon": -70.7700283}, {"type": "node", "id": 5707076141, "lat": -33.5035659, "lon": -70.7689596}, {"type": "node", "id": 5707076142, "lat": -33.5029499, "lon": -70.7689569}, {"type": "node", "id": 5707076143, "lat": -33.5029467, "lon": -70.7700256}, {"type": "node", "id": 5714307227, "lat": -33.5111691, "lon": -70.7679907}, {"type": "node", "id": 5714307228, "lat": -33.5110371, "lon": -70.767516}, {"type": "node", "id": 5714307229, "lat": -33.5109461, "lon": -70.7675524}, {"type": "node", "id": 5714307230, "lat": -33.5105887, "lon": -70.7675447}, {"type": "node", "id": 5714307231, "lat": -33.5104847, "lon": -70.7679955}, {"type": "node", "id": 5714307232, "lat": -33.5107183, "lon": -70.76806}, {"type": "node", "id": 5714307233, "lat": -33.5108494, "lon": -70.7680447}, {"type": "node", "id": 5714307234, "lat": -33.510852, "lon": -70.7679298}, {"type": "node", "id": 5714307235, "lat": -33.5109633, "lon": -70.7679222}, {"type": "node", "id": 5714307236, "lat": -33.5109991, "lon": -70.7680514}, {"type": "node", "id": 5721570589, "lat": -33.4977785, "lon": -70.7713822}, {"type": "node", "id": 5721570590, "lat": -33.4977445, "lon": -70.7707295}, {"type": "node", "id": 5721570591, "lat": -33.4983387, "lon": -70.7706849}, {"type": "node", "id": 5721570592, "lat": -33.4986166, "lon": -70.7708157}, {"type": "node", "id": 5721570593, "lat": -33.4983886, "lon": -70.7715118}, {"type": "node", "id": 5721570594, "lat": -33.4980674, "lon": -70.7713605}, {"type": "node", "id": 5721570694, "lat": -33.5168631, "lon": -70.7501066}, {"type": "node", "id": 5721570695, "lat": -33.5168604, "lon": -70.7498521}, {"type": "node", "id": 5721570696, "lat": -33.5162711, "lon": -70.7498612}, {"type": "node", "id": 5721570697, "lat": -33.5162738, "lon": -70.7501158}, {"type": "node", "id": 5724340239, "lat": -33.5395513, "lon": -70.7777378}, {"type": "node", "id": 5724340240, "lat": -33.5392065, "lon": -70.777324}, {"type": "node", "id": 5724340241, "lat": -33.5387838, "lon": -70.7777378}, {"type": "node", "id": 5724340242, "lat": -33.5392142, "lon": -70.7782138}, {"type": "node", "id": 5724340243, "lat": -33.5402035, "lon": -70.7770298}, {"type": "node", "id": 5724340244, "lat": -33.5399275, "lon": -70.7766161}, {"type": "node", "id": 5724340245, "lat": -33.5395373, "lon": -70.7769925}, {"type": "node", "id": 5724340246, "lat": -33.5399055, "lon": -70.777417}, {"type": "node", "id": 5724379497, "lat": -33.5137404, "lon": -70.7645939, "tags": {"source": "Reconocimiento cartogr\u00e1fico 2016 por KG"}}, {"type": "node", "id": 5724379512, "lat": -33.5141351, "lon": -70.7644284, "tags": {"source": "Reconocimiento cartogr\u00e1fico 2016 por KG"}}, {"type": "node", "id": 5724379514, "lat": -33.5141312, "lon": -70.7646426}, {"type": "node", "id": 5724379745, "lat": -33.5113098, "lon": -70.7228617}, {"type": "node", "id": 5724379746, "lat": -33.5114885, "lon": -70.7227464}, {"type": "node", "id": 5724379747, "lat": -33.5117739, "lon": -70.7233825}, {"type": "node", "id": 5724379748, "lat": -33.5115629, "lon": -70.7235187}, {"type": "node", "id": 5724399885, "lat": -33.5228939, "lon": -70.7641062}, {"type": "node", "id": 5724399886, "lat": -33.522993, "lon": -70.7641019}, {"type": "node", "id": 5724399887, "lat": -33.5229898, "lon": -70.7639931}, {"type": "node", "id": 5724399888, "lat": -33.5228906, "lon": -70.7639974}, {"type": "node", "id": 5759625921, "lat": -33.5479357, "lon": -70.7727769}, {"type": "node", "id": 5759625923, "lat": -33.5482532, "lon": -70.772996}, {"type": "node", "id": 5759625924, "lat": -33.5485011, "lon": -70.7724533}, {"type": "node", "id": 5759625925, "lat": -33.5487533, "lon": -70.7726307}, {"type": "node", "id": 5759625926, "lat": -33.5483424, "lon": -70.7735021}, {"type": "node", "id": 5759876129, "lat": -33.5096303, "lon": -70.788474}, {"type": "node", "id": 5759876131, "lat": -33.5099561, "lon": -70.7883107}, {"type": "node", "id": 5849738121, "lat": -33.5176498, "lon": -70.7560869}, {"type": "node", "id": 5849738122, "lat": -33.517673, "lon": -70.7557422}, {"type": "node", "id": 5849738123, "lat": -33.5179278, "lon": -70.7557668}, {"type": "node", "id": 5849738124, "lat": -33.5179046, "lon": -70.7561116}, {"type": "node", "id": 5868536602, "lat": -33.4743433, "lon": -70.75808}, {"type": "node", "id": 5868536608, "lat": -33.4741892, "lon": -70.7574892}, {"type": "node", "id": 5868536610, "lat": -33.4742944, "lon": -70.7558531}, {"type": "node", "id": 5868536625, "lat": -33.4748649, "lon": -70.7556304}, {"type": "node", "id": 5868536628, "lat": -33.4754492, "lon": -70.7574058}, {"type": "node", "id": 5878480121, "lat": -33.5117535, "lon": -70.7856873}, {"type": "node", "id": 5880159506, "lat": -33.4746992, "lon": -70.7492927}, {"type": "node", "id": 5880159507, "lat": -33.4748346, "lon": -70.7493168}, {"type": "node", "id": 5880159508, "lat": -33.4748346, "lon": -70.7493557}, {"type": "node", "id": 5880159509, "lat": -33.4750158, "lon": -70.7493986}, {"type": "node", "id": 5880159510, "lat": -33.4749755, "lon": -70.7496454}, {"type": "node", "id": 5880159511, "lat": -33.4751724, "lon": -70.7496869}, {"type": "node", "id": 5880159512, "lat": -33.4752127, "lon": -70.7492591}, {"type": "node", "id": 5880159513, "lat": -33.4747059, "lon": -70.7492001}, {"type": "node", "id": 5880352524, "lat": -33.5105805, "lon": -70.7756898}, {"type": "node", "id": 5880352525, "lat": -33.5108255, "lon": -70.7756816}, {"type": "node", "id": 5880352526, "lat": -33.5108386, "lon": -70.7760017}, {"type": "node", "id": 5880352527, "lat": -33.5106593, "lon": -70.7760082}, {"type": "node", "id": 5880352528, "lat": -33.5106222, "lon": -70.7767456}, {"type": "node", "id": 5880352529, "lat": -33.5106877, "lon": -70.7767429}, {"type": "node", "id": 5880498876, "lat": -33.5123694, "lon": -70.7680885}, {"type": "node", "id": 5880498877, "lat": -33.5122564, "lon": -70.7679268}, {"type": "node", "id": 5882206121, "lat": -33.5264945, "lon": -70.7653185}, {"type": "node", "id": 5882206123, "lat": -33.5262434, "lon": -70.7652983}, {"type": "node", "id": 5882206132, "lat": -33.5262298, "lon": -70.7655411}, {"type": "node", "id": 5882206135, "lat": -33.5264808, "lon": -70.7655614}, {"type": "node", "id": 5899967567, "lat": -33.4775981, "lon": -70.7358547}, {"type": "node", "id": 5899967568, "lat": -33.4775405, "lon": -70.7354761}, {"type": "node", "id": 5899967569, "lat": -33.4777531, "lon": -70.7353097}, {"type": "node", "id": 5899967570, "lat": -33.4778579, "lon": -70.735653}, {"type": "node", "id": 5932533683, "lat": -33.4997787, "lon": -70.7611882}, {"type": "node", "id": 5932533684, "lat": -33.4992334, "lon": -70.7611898}, {"type": "node", "id": 5932533785, "lat": -33.4992324, "lon": -70.7606833}, {"type": "node", "id": 5932533786, "lat": -33.4994998, "lon": -70.7606825}, {"type": "node", "id": 5932533787, "lat": -33.4995004, "lon": -70.7610039}, {"type": "node", "id": 5932533788, "lat": -33.4997783, "lon": -70.761003}, {"type": "node", "id": 5932533789, "lat": -33.4998929, "lon": -70.7611482}, {"type": "node", "id": 5932533790, "lat": -33.4998889, "lon": -70.7609016}, {"type": "node", "id": 5932533791, "lat": -33.5005543, "lon": -70.7608854}, {"type": "node", "id": 5932533792, "lat": -33.5005523, "lon": -70.7610932}, {"type": "node", "id": 5932555693, "lat": -33.5041542, "lon": -70.7552405}, {"type": "node", "id": 5932555694, "lat": -33.5041533, "lon": -70.7558017}, {"type": "node", "id": 5932555695, "lat": -33.5042448, "lon": -70.7558019}, {"type": "node", "id": 5932555696, "lat": -33.5042441, "lon": -70.7562427}, {"type": "node", "id": 5932555697, "lat": -33.5044245, "lon": -70.7562431}, {"type": "node", "id": 5932555698, "lat": -33.5044262, "lon": -70.7552411}, {"type": "node", "id": 5967768759, "lat": -33.4868176, "lon": -70.7655543}, {"type": "node", "id": 5967768760, "lat": -33.4865263, "lon": -70.7650391}, {"type": "node", "id": 6008978355, "lat": -33.4805616, "lon": -70.7458017}, {"type": "node", "id": 6008978356, "lat": -33.4798976, "lon": -70.7467778}, {"type": "node", "id": 6090947734, "lat": -33.4805199, "lon": -70.7447317}, {"type": "node", "id": 6090947735, "lat": -33.4795714, "lon": -70.7463109}, {"type": "node", "id": 6090947736, "lat": -33.4793755, "lon": -70.7471556}, {"type": "node", "id": 6090947737, "lat": -33.4793604, "lon": -70.7466879}, {"type": "node", "id": 6090947738, "lat": -33.4795093, "lon": -70.7462613}, {"type": "node", "id": 6150387714, "lat": -33.4993498, "lon": -70.8328539, "tags": {"amenity": "school", "name": "Escuela de Suboficiales del Ej\u00e9rcito de Chile", "population": "388", "population:date": "2017", "source:population": "INE"}}, {"type": "node", "id": 6221321584, "lat": -33.5565597, "lon": -70.7914251}, {"type": "node", "id": 6221321885, "lat": -33.5569564, "lon": -70.7909425}, {"type": "node", "id": 6221321886, "lat": -33.5568388, "lon": -70.7909982}, {"type": "node", "id": 6221321887, "lat": -33.5567734, "lon": -70.790976}, {"type": "node", "id": 6221321888, "lat": -33.5569854, "lon": -70.7908783}, {"type": "node", "id": 6221321889, "lat": -33.557086, "lon": -70.7908587}, {"type": "node", "id": 6221321891, "lat": -33.5647591, "lon": -70.7812939}, {"type": "node", "id": 6221321892, "lat": -33.5654224, "lon": -70.7814763}, {"type": "node", "id": 6221321893, "lat": -33.5654791, "lon": -70.7815498}, {"type": "node", "id": 6221321894, "lat": -33.5654972, "lon": -70.7820051}, {"type": "node", "id": 6346426321, "lat": -33.5612936, "lon": -70.7914272}, {"type": "node", "id": 6346426322, "lat": -33.5620641, "lon": -70.7905481}, {"type": "node", "id": 6783728351, "lat": -33.5233857, "lon": -70.7772871}, {"type": "node", "id": 6783728353, "lat": -33.5242547, "lon": -70.7778578}, {"type": "node", "id": 6783728362, "lat": -33.5236784, "lon": -70.7772862}, {"type": "node", "id": 6783728369, "lat": -33.5230158, "lon": -70.7779552}, {"type": "node", "id": 6904266036, "lat": -33.5632835, "lon": -70.7905401}, {"type": "node", "id": 6904266037, "lat": -33.5626961, "lon": -70.7898038}, {"type": "node", "id": 6904266038, "lat": -33.562663, "lon": -70.7912563}, {"type": "node", "id": 6904266039, "lat": -33.5618737, "lon": -70.7921658}, {"type": "node", "id": 6904379831, "lat": -33.5616933, "lon": -70.7923772}, {"type": "node", "id": 6904379832, "lat": -33.5611103, "lon": -70.7916337}, {"type": "node", "id": 6907633617, "lat": -33.5618866, "lon": -70.7747541}, {"type": "node", "id": 6907633618, "lat": -33.5621943, "lon": -70.7749237}, {"type": "node", "id": 6907633619, "lat": -33.5624814, "lon": -70.7750864}, {"type": "node", "id": 6907633620, "lat": -33.5625543, "lon": -70.7749182}, {"type": "node", "id": 6907633621, "lat": -33.5627321, "lon": -70.7745025}, {"type": "node", "id": 6907633622, "lat": -33.5628016, "lon": -70.7742482}, {"type": "node", "id": 6907633623, "lat": -33.5628369, "lon": -70.7741347}, {"type": "node", "id": 6907633624, "lat": -33.5629292, "lon": -70.7739187}, {"type": "node", "id": 6907633625, "lat": -33.5627742, "lon": -70.773849}, {"type": "node", "id": 6907633626, "lat": -33.5622558, "lon": -70.7736056}, {"type": "node", "id": 6981776907, "lat": -33.5142733, "lon": -70.795036}, {"type": "node", "id": 6981776908, "lat": -33.5142914, "lon": -70.7953976}, {"type": "node", "id": 6981794827, "lat": -33.5247165, "lon": -70.7826222}, {"type": "node", "id": 6981794828, "lat": -33.5247395, "lon": -70.7821536}, {"type": "node", "id": 6981794829, "lat": -33.5256374, "lon": -70.782217}, {"type": "node", "id": 6981794830, "lat": -33.5256144, "lon": -70.7826857}, {"type": "node", "id": 6981798964, "lat": -33.5089957, "lon": -70.7951881}, {"type": "node", "id": 6981798965, "lat": -33.5083442, "lon": -70.7954433}, {"type": "node", "id": 6981798966, "lat": -33.508583, "lon": -70.7962095}, {"type": "node", "id": 6985163938, "lat": -33.5095212, "lon": -70.7890813}, {"type": "node", "id": 6985163939, "lat": -33.509554, "lon": -70.7893921}, {"type": "node", "id": 7485365996, "lat": -33.4911677, "lon": -70.7676168}, {"type": "node", "id": 7485365999, "lat": -33.4909362, "lon": -70.7685171}, {"type": "node", "id": 7485366000, "lat": -33.4911062, "lon": -70.7679887}, {"type": "node", "id": 7485366001, "lat": -33.4911947, "lon": -70.7676961}, {"type": "node", "id": 7485366002, "lat": -33.4912004, "lon": -70.767633}, {"type": "node", "id": 7485366007, "lat": -33.4907257, "lon": -70.7675522}, {"type": "node", "id": 7485366008, "lat": -33.4903888, "lon": -70.7675052}, {"type": "node", "id": 7485366009, "lat": -33.4900856, "lon": -70.7674643}, {"type": "node", "id": 7485366010, "lat": -33.4900929, "lon": -70.7676043}, {"type": "node", "id": 7488144037, "lat": -33.4910352, "lon": -70.7790059}, {"type": "node", "id": 7488144038, "lat": -33.4908926, "lon": -70.77914}, {"type": "node", "id": 7488144039, "lat": -33.4906432, "lon": -70.7793995}, {"type": "node", "id": 7488144040, "lat": -33.4906208, "lon": -70.7794163}, {"type": "node", "id": 7488144041, "lat": -33.4906051, "lon": -70.7794196}, {"type": "node", "id": 7488144042, "lat": -33.4902218, "lon": -70.7800929}, {"type": "node", "id": 7488144043, "lat": -33.4909161, "lon": -70.7809518}, {"type": "node", "id": 7488144044, "lat": -33.4908635, "lon": -70.7810444}, {"type": "node", "id": 7488144045, "lat": -33.4908462, "lon": -70.7810641}, {"type": "node", "id": 7488144046, "lat": -33.4908221, "lon": -70.7810739}, {"type": "node", "id": 7488144047, "lat": -33.4907863, "lon": -70.7810725}, {"type": "node", "id": 7488144048, "lat": -33.4907388, "lon": -70.7810484}, {"type": "node", "id": 7488144049, "lat": -33.4904586, "lon": -70.7805213}, {"type": "node", "id": 7488144050, "lat": -33.4902911, "lon": -70.7802357}, {"type": "node", "id": 7488144051, "lat": -33.4902551, "lon": -70.7801851}, {"type": "node", "id": 7488144052, "lat": -33.4902366, "lon": -70.7801633}, {"type": "node", "id": 7488144053, "lat": -33.4902232, "lon": -70.7801462}, {"type": "node", "id": 7488144054, "lat": -33.4902176, "lon": -70.7801294}, {"type": "node", "id": 7488144055, "lat": -33.4902908, "lon": -70.7798843}, {"type": "node", "id": 7488144056, "lat": -33.4904776, "lon": -70.7793358}, {"type": "node", "id": 7488144057, "lat": -33.4905906, "lon": -70.7794163}, {"type": "node", "id": 7488144058, "lat": -33.4913992, "lon": -70.7788745}, {"type": "node", "id": 7488144059, "lat": -33.4914059, "lon": -70.7801512}, {"type": "node", "id": 7488479738, "lat": -33.4927469, "lon": -70.7845451}, {"type": "node", "id": 7488479742, "lat": -33.4918057, "lon": -70.7843177}, {"type": "node", "id": 7488479743, "lat": -33.4912452, "lon": -70.784133}, {"type": "node", "id": 7488479745, "lat": -33.4910743, "lon": -70.7839477}, {"type": "node", "id": 7488584960, "lat": -33.5004726, "lon": -70.7819516}, {"type": "node", "id": 7488584961, "lat": -33.5004441, "lon": -70.7819429}, {"type": "node", "id": 7488584962, "lat": -33.5003754, "lon": -70.7819268}, {"type": "node", "id": 7488584963, "lat": -33.4995925, "lon": -70.7819308}, {"type": "node", "id": 7488584964, "lat": -33.4996976, "lon": -70.7819268}, {"type": "node", "id": 7488584965, "lat": -33.5003407, "lon": -70.7819241}, {"type": "node", "id": 7488584966, "lat": -33.5004061, "lon": -70.7819302}, {"type": "node", "id": 7488584967, "lat": -33.5005308, "lon": -70.7819436}, {"type": "node", "id": 7488584968, "lat": -33.5005437, "lon": -70.7819295}, {"type": "node", "id": 7488584969, "lat": -33.5005504, "lon": -70.7819067}, {"type": "node", "id": 7488584970, "lat": -33.5005453, "lon": -70.7818772}, {"type": "node", "id": 7488584971, "lat": -33.5004693, "lon": -70.7816197}, {"type": "node", "id": 7488584972, "lat": -33.5003317, "lon": -70.7810833}, {"type": "node", "id": 7488584973, "lat": -33.5001998, "lon": -70.780469}, {"type": "node", "id": 7488584974, "lat": -33.4996406, "lon": -70.7799433}, {"type": "node", "id": 7488584975, "lat": -33.498756, "lon": -70.7799849}, {"type": "node", "id": 7488584976, "lat": -33.498345, "lon": -70.7800043}, {"type": "node", "id": 7488584977, "lat": -33.4983271, "lon": -70.7800124}, {"type": "node", "id": 7488584978, "lat": -33.4983148, "lon": -70.7800238}, {"type": "node", "id": 7488584979, "lat": -33.4983075, "lon": -70.7800365}, {"type": "node", "id": 7488584980, "lat": -33.4983064, "lon": -70.7800493}, {"type": "node", "id": 7491770797, "lat": -33.4985908, "lon": -70.7445201}, {"type": "node", "id": 7491770798, "lat": -33.4985603, "lon": -70.7444989}, {"type": "node", "id": 7491770799, "lat": -33.4985418, "lon": -70.7444694}, {"type": "node", "id": 7491770800, "lat": -33.4985432, "lon": -70.7444225}, {"type": "node", "id": 7491770801, "lat": -33.4997709, "lon": -70.7434519}, {"type": "node", "id": 7491770802, "lat": -33.499791, "lon": -70.7433292}, {"type": "node", "id": 7491770803, "lat": -33.4997004, "lon": -70.7434153}, {"type": "node", "id": 7491770804, "lat": -33.4992805, "lon": -70.7437791}, {"type": "node", "id": 7491770805, "lat": -33.4990926, "lon": -70.7439494}, {"type": "node", "id": 7491770806, "lat": -33.4986716, "lon": -70.7443189}, {"type": "node", "id": 7491770807, "lat": -33.4985513, "lon": -70.7444148}, {"type": "node", "id": 7491770808, "lat": -33.4985374, "lon": -70.7444342}, {"type": "node", "id": 7491770809, "lat": -33.4985379, "lon": -70.744455}, {"type": "node", "id": 7491770810, "lat": -33.4985491, "lon": -70.7444832}, {"type": "node", "id": 7491770811, "lat": -33.498576, "lon": -70.7445113}, {"type": "node", "id": 7491770812, "lat": -33.4986084, "lon": -70.7445247}, {"type": "node", "id": 7491770813, "lat": -33.4990143, "lon": -70.7446267}, {"type": "node", "id": 7491770814, "lat": -33.4994516, "lon": -70.7444067}, {"type": "node", "id": 7491770815, "lat": -33.4995774, "lon": -70.7440668}, {"type": "node", "id": 7491770816, "lat": -33.4995478, "lon": -70.7440513}, {"type": "node", "id": 7491770817, "lat": -33.4997306, "lon": -70.7435585}, {"type": "node", "id": 7509289723, "lat": -33.5123808, "lon": -70.7494801}, {"type": "node", "id": 7509289724, "lat": -33.510994, "lon": -70.7516544}, {"type": "node", "id": 7550528197, "lat": -33.499929, "lon": -70.7568157}, {"type": "node", "id": 7550528198, "lat": -33.4999296, "lon": -70.7568705}, {"type": "node", "id": 7551062867, "lat": -33.5183639, "lon": -70.7930821}, {"type": "node", "id": 7551062868, "lat": -33.5183651, "lon": -70.7931559}, {"type": "node", "id": 7551062869, "lat": -33.5185127, "lon": -70.7930902}, {"type": "node", "id": 7551062870, "lat": -33.518516, "lon": -70.7931599}, {"type": "node", "id": 7562037542, "lat": -33.4742317, "lon": -70.756828}, {"type": "node", "id": 7562037543, "lat": -33.4742026, "lon": -70.7571419}, {"type": "node", "id": 7562037544, "lat": -33.4741937, "lon": -70.757284}, {"type": "node", "id": 7562037545, "lat": -33.4741903, "lon": -70.7574235}, {"type": "node", "id": 7562037546, "lat": -33.4742004, "lon": -70.7576488}, {"type": "node", "id": 7562037547, "lat": -33.4742127, "lon": -70.757791}, {"type": "node", "id": 7562037548, "lat": -33.4742082, "lon": -70.757738}, {"type": "node", "id": 7562037549, "lat": -33.4742217, "lon": -70.7578486}, {"type": "node", "id": 7562037550, "lat": -33.4742401, "lon": -70.7579298}, {"type": "node", "id": 7562037551, "lat": -33.4742664, "lon": -70.7580055}, {"type": "node", "id": 7562037552, "lat": -33.4742871, "lon": -70.7580508}, {"type": "node", "id": 7562037553, "lat": -33.4743056, "lon": -70.7580722}, {"type": "node", "id": 7562037554, "lat": -33.4743321, "lon": -70.758083}, {"type": "node", "id": 7562037555, "lat": -33.4743212, "lon": -70.7580806}, {"type": "node", "id": 7562037556, "lat": -33.4749242, "lon": -70.7577226}, {"type": "node", "id": 7562037557, "lat": -33.4752173, "lon": -70.7566953}, {"type": "node", "id": 7562037560, "lat": -33.4744577, "lon": -70.7558316}, {"type": "node", "id": 7562037561, "lat": -33.474432, "lon": -70.7558464}, {"type": "node", "id": 7562037562, "lat": -33.4743839, "lon": -70.7558557}, {"type": "node", "id": 7590112184, "lat": -33.49383, "lon": -70.7369707}, {"type": "node", "id": 7590112208, "lat": -33.4931276, "lon": -70.7367704}, {"type": "node", "id": 7781734755, "lat": -33.4894294, "lon": -70.7691922}, {"type": "node", "id": 7781734756, "lat": -33.4896785, "lon": -70.7689852}, {"type": "node", "id": 7781734757, "lat": -33.4897704, "lon": -70.769144}, {"type": "node", "id": 7781734758, "lat": -33.4895213, "lon": -70.7693511}, {"type": "node", "id": 7782861349, "lat": -33.4864888, "lon": -70.765049}, {"type": "node", "id": 7782861350, "lat": -33.4861396, "lon": -70.7650834}, {"type": "node", "id": 7782861351, "lat": -33.486129, "lon": -70.7651101}, {"type": "node", "id": 7782861352, "lat": -33.4862951, "lon": -70.7654024}, {"type": "node", "id": 7782861354, "lat": -33.4867559, "lon": -70.7657055}, {"type": "node", "id": 7782861356, "lat": -33.4866445, "lon": -70.766003}, {"type": "node", "id": 7782861362, "lat": -33.4866202, "lon": -70.765961}, {"type": "node", "id": 7821284515, "lat": -33.490903, "lon": -70.7686175, "tags": {"addr:country": "CL", "barrier": "gate", "note": "Correcciones masivas a ortograf\u00eda en nombres de importaciones hechas por equipo de gendarmer\u00eda"}}, {"type": "node", "id": 7821284518, "lat": -33.4904803, "lon": -70.7686489, "tags": {"addr:country": "CL", "barrier": "gate", "note": "Correcciones masivas a ortograf\u00eda en nombres de importaciones hechas por equipo de gendarmer\u00eda"}}, {"type": "node", "id": 7821284520, "lat": -33.4907363, "lon": -70.7691481}, {"type": "node", "id": 7821284521, "lat": -33.4904939, "lon": -70.7686768}, {"type": "node", "id": 7821284525, "lat": -33.490884, "lon": -70.768678}, {"type": "node", "id": 7870044974, "lat": -33.5523808, "lon": -70.7927196}, {"type": "node", "id": 8213596472, "lat": -33.4811564, "lon": -70.7451662}, {"type": "node", "id": 8213596473, "lat": -33.4804494, "lon": -70.7457331}, {"type": "node", "id": 8917338809, "lat": -33.4741111, "lon": -70.755372}, {"type": "node", "id": 8917338810, "lat": -33.4740841, "lon": -70.7561615}, {"type": "node", "id": 8917338811, "lat": -33.4735292, "lon": -70.7563546}, {"type": "node", "id": 8917338812, "lat": -33.4733994, "lon": -70.7555178}, {"type": "node", "id": 8929528869, "lat": -33.4735134, "lon": -70.7562526}, {"type": "node", "id": 8930964433, "lat": -33.4657464, "lon": -70.7538812}, {"type": "node", "id": 8930964434, "lat": -33.466735, "lon": -70.7541286}, {"type": "node", "id": 9181298020, "lat": -33.5300707, "lon": -70.77384}, {"type": "node", "id": 9181298021, "lat": -33.5291842, "lon": -70.7736401}, {"type": "node", "id": 9181298022, "lat": -33.5296861, "lon": -70.7731909}, {"type": "node", "id": 9181298023, "lat": -33.5295631, "lon": -70.7742772}, {"type": "node", "id": 9605968596, "lat": -33.474821, "lon": -70.755647}, {"type": "node", "id": 9862953923, "lat": -33.5110897, "lon": -70.7516062}, {"type": "node", "id": 9862953924, "lat": -33.5111016, "lon": -70.7510554}, {"type": "node", "id": 9862953925, "lat": -33.5112115, "lon": -70.7510588}, {"type": "node", "id": 9862953926, "lat": -33.5112017, "lon": -70.7515116}, {"type": "node", "id": 9862953927, "lat": -33.5113718, "lon": -70.7515169}, {"type": "node", "id": 9862953928, "lat": -33.5113786, "lon": -70.7512061}, {"type": "node", "id": 9862953929, "lat": -33.5114848, "lon": -70.7512094}, {"type": "node", "id": 9862953930, "lat": -33.5114771, "lon": -70.7515673}, {"type": "node", "id": 9862953931, "lat": -33.5115554, "lon": -70.7515697}, {"type": "node", "id": 9862953932, "lat": -33.5115579, "lon": -70.7514523}, {"type": "node", "id": 9862953933, "lat": -33.5118537, "lon": -70.7514615}, {"type": "node", "id": 9862953934, "lat": -33.5118521, "lon": -70.751536}, {"type": "node", "id": 9862953935, "lat": -33.5120075, "lon": -70.7515408}, {"type": "node", "id": 9862953936, "lat": -33.5120046, "lon": -70.751674}, {"type": "node", "id": 9862953937, "lat": -33.5114401, "lon": -70.7516567}, {"type": "node", "id": 9862953938, "lat": -33.5114415, "lon": -70.7515923}, {"type": "node", "id": 9862953939, "lat": -33.5113587, "lon": -70.7515897}, {"type": "node", "id": 9862953940, "lat": -33.5113582, "lon": -70.7516146}, {"type": "node", "id": 9862954092, "lat": -33.4980935, "lon": -70.765732}, {"type": "node", "id": 9862954093, "lat": -33.4980683, "lon": -70.764839}, {"type": "node", "id": 9862954094, "lat": -33.498033, "lon": -70.7647721}, {"type": "node", "id": 9862954095, "lat": -33.4974959, "lon": -70.7647922}, {"type": "node", "id": 9862954096, "lat": -33.4974531, "lon": -70.7648189}, {"type": "node", "id": 9862954097, "lat": -33.4974794, "lon": -70.7657568}, {"type": "node", "id": 9986229156, "lat": -33.5143651, "lon": -70.7626823}, {"type": "node", "id": 9986229157, "lat": -33.514529, "lon": -70.7633038}, {"type": "node", "id": 9996110004, "lat": -33.5184697, "lon": -70.7567809}, {"type": "node", "id": 9996110005, "lat": -33.5188169, "lon": -70.7567682}, {"type": "node", "id": 9996110006, "lat": -33.5188287, "lon": -70.7571323}, {"type": "node", "id": 9996110007, "lat": -33.5188148, "lon": -70.7571553}, {"type": "node", "id": 9996110008, "lat": -33.5184473, "lon": -70.7571527}, {"type": "node", "id": 9996419004, "lat": -33.4935476, "lon": -70.7366128}, {"type": "node", "id": 9997757920, "lat": -33.5104759, "lon": -70.7618795}, {"type": "node", "id": 9997757921, "lat": -33.5104878, "lon": -70.7624896}, {"type": "node", "id": 9997757963, "lat": -33.5099665, "lon": -70.762852}, {"type": "node", "id": 9997757991, "lat": -33.5093455, "lon": -70.762282}, {"type": "node", "id": 9997757992, "lat": -33.5093029, "lon": -70.7622844}, {"type": "node", "id": 9997757993, "lat": -33.5093012, "lon": -70.762243}, {"type": "node", "id": 9997757994, "lat": -33.5092455, "lon": -70.7622461}, {"type": "node", "id": 9997757995, "lat": -33.5092467, "lon": -70.7622755}, {"type": "node", "id": 9997757996, "lat": -33.5091971, "lon": -70.7622784}, {"type": "node", "id": 9997757997, "lat": -33.5092008, "lon": -70.7623723}, {"type": "node", "id": 9997757998, "lat": -33.5093488, "lon": -70.7623638}, {"type": "node", "id": 9997758087, "lat": -33.5096751, "lon": -70.7631047}, {"type": "node", "id": 9997758088, "lat": -33.5096749, "lon": -70.7630593}, {"type": "node", "id": 9997758093, "lat": -33.5078622, "lon": -70.7643653}, {"type": "node", "id": 9997758098, "lat": -33.5071452, "lon": -70.7641434}, {"type": "node", "id": 9997758153, "lat": -33.504392, "lon": -70.7672161}, {"type": "node", "id": 9997758154, "lat": -33.5043772, "lon": -70.7663764}, {"type": "node", "id": 9997758155, "lat": -33.5037389, "lon": -70.7664002}, {"type": "node", "id": 9997758156, "lat": -33.5037546, "lon": -70.7672246}, {"type": "node", "id": 9998358054, "lat": -33.5123829, "lon": -70.768677}, {"type": "node", "id": 9998358056, "lat": -33.5123185, "lon": -70.7685615}, {"type": "node", "id": 9998358070, "lat": -33.5122488, "lon": -70.7684368}, {"type": "node", "id": 9998358072, "lat": -33.5121733, "lon": -70.7683016}, {"type": "node", "id": 9998358318, "lat": -33.5108559, "lon": -70.7680394}, {"type": "node", "id": 10003218072, "lat": -33.5056846, "lon": -70.7627584}, {"type": "node", "id": 10003218161, "lat": -33.5028382, "lon": -70.7641767}, {"type": "node", "id": 10003218162, "lat": -33.5028607, "lon": -70.7649579}, {"type": "node", "id": 10003218163, "lat": -33.50313, "lon": -70.7649598}, {"type": "node", "id": 10003218164, "lat": -33.5031268, "lon": -70.764167}, {"type": "node", "id": 10057252144, "lat": -33.5277178, "lon": -70.7580987}, {"type": "node", "id": 10057252145, "lat": -33.5273636, "lon": -70.7582423}, {"type": "node", "id": 10057252146, "lat": -33.5271754, "lon": -70.7583419}, {"type": "node", "id": 10136710295, "lat": -33.5026455, "lon": -70.7769085}, {"type": "node", "id": 10136710296, "lat": -33.5026169, "lon": -70.7762495}, {"type": "node", "id": 10136710297, "lat": -33.5025041, "lon": -70.7762517}, {"type": "node", "id": 10136710298, "lat": -33.5024862, "lon": -70.7760241}, {"type": "node", "id": 10136710299, "lat": -33.5023412, "lon": -70.7760327}, {"type": "node", "id": 10136710300, "lat": -33.5022374, "lon": -70.7769257}, {"type": "node", "id": 10299679254, "lat": -33.4743042, "lon": -70.7272814}, {"type": "node", "id": 10299679255, "lat": -33.474584, "lon": -70.7277133}, {"type": "node", "id": 10299679256, "lat": -33.4743034, "lon": -70.7279745}, {"type": "node", "id": 10944097147, "lat": -33.4918438, "lon": -70.7843071}, {"type": "node", "id": 10944097148, "lat": -33.4910246, "lon": -70.7840367}, {"type": "node", "id": 10944101721, "lat": -33.4880634, "lon": -70.7792766}, {"type": "node", "id": 10944101722, "lat": -33.487983, "lon": -70.7792442}, {"type": "node", "id": 10944101723, "lat": -33.4880009, "lon": -70.7791803}, {"type": "node", "id": 10944101724, "lat": -33.4880813, "lon": -70.7792127}, {"type": "node", "id": 10944140355, "lat": -33.4911375, "lon": -70.7752461}, {"type": "node", "id": 10944140356, "lat": -33.4911547, "lon": -70.7751901}, {"type": "node", "id": 10944140357, "lat": -33.4910635, "lon": -70.77515}, {"type": "node", "id": 10944140358, "lat": -33.4910464, "lon": -70.775206}, {"type": "node", "id": 10958165967, "lat": -33.4860354, "lon": -70.7633541}, {"type": "node", "id": 10958165968, "lat": -33.4863732, "lon": -70.7630705}, {"type": "node", "id": 10958165969, "lat": -33.4862675, "lon": -70.7628876}, {"type": "node", "id": 10958165970, "lat": -33.485788, "lon": -70.7629085}, {"type": "node", "id": 10965832772, "lat": -33.4893507, "lon": -70.7665642}, {"type": "node", "id": 10965832773, "lat": -33.4895157, "lon": -70.7663085}, {"type": "node", "id": 10965832774, "lat": -33.4891028, "lon": -70.7663332}, {"type": "node", "id": 10972336277, "lat": -33.4976553, "lon": -70.74972}, {"type": "node", "id": 10972336278, "lat": -33.4977922, "lon": -70.7490086}, {"type": "node", "id": 10972336279, "lat": -33.4972203, "lon": -70.7488754}, {"type": "node", "id": 10972336280, "lat": -33.497129, "lon": -70.7495102}, {"type": "node", "id": 10972336281, "lat": -33.4974013, "lon": -70.749658}, {"type": "node", "id": 10974317841, "lat": -33.5414951, "lon": -70.7974221, "tags": {"addr:city": "maipu", "addr:country": "CL", "addr:housenumber": "101", "addr:street": "Camino El Bosque", "amenity": "school", "name": "Escuela Especial Pandy", "note": "Correcciones masivas a ortograf\u00eda en nombres de importaciones hechas por equipo de gendarmer\u00eda"}}, {"type": "node", "id": 10977221819, "lat": -33.5517883, "lon": -70.7693154}, {"type": "node", "id": 10977596081, "lat": -33.4989862, "lon": -70.7603478, "tags": {"addr:city": "Maip\u00fa", "addr:country": "CL", "addr:housenumber": "3172", "addr:street": "Manuel Rodr\u00edguez", "amenity": "school", "name": "Escuela Especial Manuel Rodriguez"}}, {"type": "node", "id": 10977691192, "lat": -33.4999949, "lon": -70.7878864, "tags": {"addr:city": "Maip\u00fa", "addr:housenumber": "3067", "addr:street": "Santa Berta", "amenity": "school", "name": "Escuela Especial de Lenguaje Mis Peque\u00f1os Tesoros"}}, {"type": "node", "id": 10977771256, "lat": -33.4726133, "lon": -70.7344227, "tags": {"addr:city": "Maip\u00fa", "addr:country": "CL", "addr:housenumber": "3634", "addr:street": "Orleans", "amenity": "school", "name": "Escuela Especial de Lenguaje Nova Aurora", "note": "Correcciones masivas a ortograf\u00eda en nombres de importaciones hechas por equipo de gendarmer\u00eda"}}, {"type": "node", "id": 10977783248, "lat": -33.4999513, "lon": -70.755003, "tags": {"addr:city": "Maip\u00fa", "addr:country": "CL", "addr:housenumber": "2998", "addr:street": "Jos\u00e9 Manuel Ram\u00edrez", "amenity": "school", "name": "Escuela Especial De Lenguaje San Benito"}}, {"type": "node", "id": 10978955570, "lat": -33.5083671, "lon": -70.7952716}, {"type": "node", "id": 10979168573, "lat": -33.5677055, "lon": -70.7821708, "tags": {"addr:city": "Maip\u00fa", "addr:country": "CL", "addr:housenumber": "18844", "addr:street": "Filodendro 10", "amenity": "school", "name": "Escuela de P\u00e1rvulos Exploradores del Mundo", "note": "Correcciones masivas a ortograf\u00eda en nombres de importaciones hechas por equipo de gendarmer\u00eda"}}, {"type": "node", "id": 10979280355, "lat": -33.5462508, "lon": -70.793507}, {"type": "node", "id": 10979874359, "lat": -33.4997337, "lon": -70.7506139}, {"type": "node", "id": 10979874360, "lat": -33.4997839, "lon": -70.7501952}, {"type": "node", "id": 10979874361, "lat": -33.5003637, "lon": -70.7502951}, {"type": "node", "id": 10979874362, "lat": -33.5003135, "lon": -70.7507138}, {"type": "node", "id": 10980867836, "lat": -33.5041003, "lon": -70.7507211, "tags": {"addr:city": "Maip\u00fa", "addr:country": "CL", "addr:housenumber": "507", "addr:street": "Luis Gandarillas", "amenity": "school", "name": "Escuela Especial ALTA MAIP\u00da", "note": "Correcciones masivas a ortograf\u00eda en nombres de importaciones hechas por equipo de gendarmer\u00eda"}}, {"type": "node", "id": 10981142618, "lat": -33.4886946, "lon": -70.7776512, "tags": {"addr:city": "Maipu", "addr:country": "CL", "addr:housenumber": "1957", "addr:street": "Chilco", "amenity": "school", "name": "ESC PARV N\u00ba2400 OASIS de STA. Mar\u00eda", "note": "Correcciones masivas a ortograf\u00eda en nombres de importaciones hechas por equipo de gendarmer\u00eda"}}, {"type": "node", "id": 10989741425, "lat": -33.5274035, "lon": -70.7940638, "tags": {"addr:city": "Maip\u00fa", "addr:country": "CL", "addr:housenumber": "107", "addr:street": "La Galaxia", "amenity": "school", "name": "Escuela Especial 2411 Tesoritos", "note": "Correcciones masivas a ortograf\u00eda en nombres de importaciones hechas por equipo de gendarmer\u00eda"}}, {"type": "node", "id": 10989878771, "lat": -33.4893574, "lon": -70.7422868, "tags": {"addr:city": "Maip\u00fa", "addr:country": "CL", "addr:housenumber": "4071", "addr:street": "Avenida Segunda Transversal", "amenity": "school", "name": "Escuela Especial de Lenguaje Nuevo Sol", "note": "Correcciones masivas a ortograf\u00eda en nombres de importaciones hechas por equipo de gendarmer\u00eda"}}, {"type": "node", "id": 10989879524, "lat": -33.5281742, "lon": -70.788166, "tags": {"addr:city": "Maip\u00fa", "addr:country": "CL", "addr:housenumber": "1530", "addr:street": "Doctor Manuel Escutti", "amenity": "school", "name": "Escuela Especial Tagore", "note": "Correcciones masivas a ortograf\u00eda en nombres de importaciones hechas por equipo de gendarmer\u00eda"}}, {"type": "node", "id": 10990416987, "lat": -33.5280635, "lon": -70.7958619}, {"type": "node", "id": 10990468228, "lat": -33.5086406, "lon": -70.7951535}, {"type": "node", "id": 10990468229, "lat": -33.5084411, "lon": -70.7944487}, {"type": "node", "id": 10990468230, "lat": -33.5081499, "lon": -70.794528}, {"type": "node", "id": 11012914309, "lat": -33.5067256, "lon": -70.7944668}, {"type": "node", "id": 11012914310, "lat": -33.5066868, "lon": -70.7943084}, {"type": "node", "id": 11246173013, "lat": -33.563319, "lon": -70.7827818, "tags": {"addr:country": "CL", "amenity": "school", "name": "Escuela Especial Carnaval", "note": "Correcciones masivas a ortograf\u00eda en nombres de importaciones hechas por equipo de gendarmer\u00eda"}}, {"type": "node", "id": 11246686379, "lat": -33.5098074, "lon": -70.7506899, "tags": {"addr:city": "Maip\u00fa", "addr:country": "CL", "addr:housenumber": "1920", "addr:street": "Las Terrazas", "amenity": "school", "name": "Escuela Especial Los Aromos de Maipu", "note": "Correcciones masivas a ortograf\u00eda en nombres de importaciones hechas por equipo de gendarmer\u00eda"}}, {"type": "node", "id": 11326083013, "lat": -33.5247311, "lon": -70.7707113}, {"type": "node", "id": 11326083016, "lat": -33.5244481, "lon": -70.7707196}, {"type": "node", "id": 11326083017, "lat": -33.5244458, "lon": -70.7707085}, {"type": "node", "id": 11326083018, "lat": -33.5244993, "lon": -70.7706545}, {"type": "node", "id": 11326083019, "lat": -33.5245756, "lon": -70.7705944}, {"type": "node", "id": 11326083020, "lat": -33.5246497, "lon": -70.7705548}, {"type": "node", "id": 11326083021, "lat": -33.5247733, "lon": -70.7705637}, {"type": "node", "id": 11326083022, "lat": -33.5247653, "lon": -70.7707105}, {"type": "node", "id": 11329161910, "lat": -33.5305326, "lon": -70.7765958}, {"type": "node", "id": 11329163965, "lat": -33.5019226, "lon": -70.7422491, "tags": {"addr:city": "Maip\u00fa", "addr:country": "CL", "addr:housenumber": "3016", "addr:street": "Mateo Toro y Zambrano", "amenity": "school", "name": "Colegio Particular San Nicol\u00e1s de Maipu", "note": "Correcciones masivas a ortograf\u00eda en nombres de importaciones hechas por equipo de gendarmer\u00eda"}}, {"type": "node", "id": 11329501961, "lat": -33.5084092, "lon": -70.7421949, "tags": {"addr:city": "Maip\u00fa", "addr:country": "CL", "addr:housenumber": "2001", "addr:street": "Gast\u00f3n Palma", "amenity": "school", "name": "Colegio San Valent\u00edn de Maip\u00fa", "note": "Correcciones masivas a ortograf\u00eda en nombres de importaciones hechas por equipo de gendarmer\u00eda"}}, {"type": "node", "id": 11329580116, "lat": -33.5264445, "lon": -70.7634205, "tags": {"addr:country": "CL", "amenity": "school", "name": "Escuela de Lenguaje Mis futuras Palabras", "note": "Correcciones masivas a ortograf\u00eda en nombres de importaciones hechas por equipo de gendarmer\u00eda"}}, {"type": "node", "id": 11333454351, "lat": -33.5271532, "lon": -70.7695804, "tags": {"addr:city": "Santiago", "addr:country": "CL", "addr:housenumber": "160", "addr:street": "Carlomagno", "amenity": "school", "name": "Escuela B\u00e1sica El Rey", "note": "Correcciones masivas a ortograf\u00eda en nombres de importaciones hechas por equipo de gendarmer\u00eda"}}, {"type": "node", "id": 11341420458, "lat": -33.4805045, "lon": -70.7373273}, {"type": "node", "id": 11341420459, "lat": -33.480355, "lon": -70.736897}, {"type": "node", "id": 11341420460, "lat": -33.4806277, "lon": -70.7367608}, {"type": "node", "id": 11341420461, "lat": -33.4807772, "lon": -70.7371911}, {"type": "node", "id": 11341421334, "lat": -33.4881524, "lon": -70.7375954}, {"type": "node", "id": 11341421335, "lat": -33.487614, "lon": -70.737581}, {"type": "node", "id": 11341421336, "lat": -33.4876003, "lon": -70.7383163}, {"type": "node", "id": 11341421337, "lat": -33.4881388, "lon": -70.7383306}, {"type": "node", "id": 11349548497, "lat": -33.5060842, "lon": -70.75107, "tags": {"addr:country": "CL", "amenity": "school", "name": "Escuela Especial N 2489 San Miguel", "note": "Correcciones masivas a ortograf\u00eda en nombres de importaciones hechas por equipo de gendarmer\u00eda"}}, {"type": "node", "id": 11367159825, "lat": -33.5243894, "lon": -70.7749045, "tags": {"addr:country": "CL", "amenity": "school", "name": "Escuela de P\u00e1rvulos El Olympo", "note": "Correcciones masivas a ortograf\u00eda en nombres de importaciones hechas por equipo de gendarmer\u00eda"}}, {"type": "node", "id": 11373138278, "lat": -33.5265724, "lon": -70.7784839, "tags": {"addr:city": "Maip\u00fa", "addr:country": "CL", "addr:housenumber": "150", "addr:street": "Avenida 3 Poniente", "amenity": "school", "name": "Escuela Especial Guenipillan-Maipu", "note": "Correcciones masivas a ortograf\u00eda en nombres de importaciones hechas por equipo de gendarmer\u00eda"}}, {"type": "node", "id": 11381745257, "lat": -33.5071403, "lon": -70.7505451, "tags": {"addr:city": "Maip\u00fa", "addr:country": "CL", "addr:housenumber": "341", "addr:street": "Maip\u00fa", "amenity": "school", "name": "Colegio Sister Venerance", "note": "Correcciones masivas a ortograf\u00eda en nombres de importaciones hechas por equipo de gendarmer\u00eda"}}, {"type": "node", "id": 11383649778, "lat": -33.5300692, "lon": -70.7671964, "tags": {"addr:city": "Maip\u00fa", "addr:country": "CL", "addr:housenumber": "290", "addr:street": "Los Diamantes", "amenity": "school", "name": "SaLa Cuna y Jard\u00edn Infantil Caracol", "note": "Correcciones masivas a ortograf\u00eda en nombres de importaciones hechas por equipo de gendarmer\u00eda"}}, {"type": "node", "id": 11384389846, "lat": -33.5115337, "lon": -70.7243707, "tags": {"addr:city": "Maip\u00fa", "addr:country": "CL", "addr:housenumber": "8720", "addr:street": "Camino a Melipilla", "amenity": "school", "name": "Escuela de las Artes y la Tecnologia de Maip\u00fa", "note": "Correcciones masivas a ortograf\u00eda en nombres de importaciones hechas por equipo de gendarmer\u00eda"}}, {"type": "node", "id": 11395936222, "lat": -33.487374, "lon": -70.7608369, "tags": {"addr:city": "Maip\u00fa", "addr:country": "CL", "addr:housenumber": "551", "addr:street": "PINTOR LAUREANO GUEVARA", "amenity": "school", "name": "Escuela de P\u00e1rvulos Camino de Vida", "note": "Correcciones masivas a ortograf\u00eda en nombres de importaciones hechas por equipo de gendarmer\u00eda"}}, {"type": "node", "id": 11398600838, "lat": -33.5088284, "lon": -70.747247, "tags": {"addr:city": "Maip\u00fa", "addr:country": "CL", "addr:housenumber": "1900", "addr:street": "Avenida Segunda Transversal", "amenity": "school", "name": "Centro de Educaci\u00f3n de Adultos Bernardo O'Higgins de Maip\u00fa"}}, {"type": "node", "id": 11405662488, "lat": -33.5092333, "lon": -70.7643025, "tags": {"addr:city": "Maip\u00fa", "addr:country": "CL", "addr:housenumber": "530", "addr:street": "Chacabuco", "amenity": "school", "name": "Escuela Especial de Lenguaje Peumay\u00e9n", "note": "Correcciones masivas a ortograf\u00eda en nombres de importaciones hechas por equipo de gendarmer\u00eda"}}, {"type": "node", "id": 11405773233, "lat": -33.5581114, "lon": -70.7849401, "tags": {"addr:city": "Maip\u00fa", "addr:country": "CL", "addr:housenumber": "1069", "addr:street": "El Alc\u00e1zar Oriente", "amenity": "school", "name": "Escuela de P\u00e1rvulos y Lenguaje Adrianna Berzins", "note": "Correcciones masivas a ortograf\u00eda en nombres de importaciones hechas por equipo de gendarmer\u00eda"}}, {"type": "node", "id": 11409533807, "lat": -33.5486153, "lon": -70.7914176}, {"type": "node", "id": 11409583493, "lat": -33.4997091, "lon": -70.7521743, "tags": {"addr:city": "Maip\u00fa", "addr:housenumber": "3062", "addr:street": "Primera Transversal", "amenity": "school", "name": "Colegio de adultos los libertadores de Maip\u00fa"}}, {"type": "node", "id": 11409846454, "lat": -33.4966515, "lon": -70.7715412, "tags": {"addr:city": "Maipu", "addr:housenumber": "1150", "addr:street": "Hern\u00e1n Bravo Cruz", "amenity": "school", "name": "ESCUELA DE PARVULOS Y ESPECIAL SAN FRANCISCO"}}, {"type": "node", "id": 11409914589, "lat": -33.5398203, "lon": -70.7847999, "tags": {"addr:city": "Maip\u00fa", "addr:housenumber": "2493", "addr:street": "Ren\u00e9 Olivares Becerra", "amenity": "school", "name": "Escuela de P\u00e1rvulos Fantas\u00edas"}}, {"type": "node", "id": 11410055022, "lat": -33.4984473, "lon": -70.7639711, "tags": {"addr:city": "Maip\u00fa", "addr:housenumber": "3141", "addr:street": "General San Mart\u00edn", "amenity": "school", "name": "Colegio Padre \u00c1lvaro Lav\u00edn"}}, {"type": "node", "id": 11410294310, "lat": -33.5186189, "lon": -70.75596, "tags": {"addr:city": "Maip\u00fa", "addr:housenumber": "100", "addr:street": "Fernando Riesco", "amenity": "school", "name": "Escuela Especial de Lenguaje Ventanal"}}, {"type": "node", "id": 11410328727, "lat": -33.5475298, "lon": -70.7693091, "tags": {"addr:city": "Maip\u00fa", "addr:housenumber": "972", "addr:street": "Avenida 4 Poniente", "amenity": "school", "name": "Escuela especial mi mundo en palabras de maip\u00fa"}}, {"type": "node", "id": 11412126506, "lat": -33.5344622, "lon": -70.7852773, "tags": {"addr:city": "Maip\u00fa", "addr:housenumber": "2203", "addr:street": "Pasaje Bah\u00eda Nassau", "amenity": "school", "name": "Escuela de Lenguaje Nueva Esperanza"}}, {"type": "node", "id": 11413035910, "lat": -33.5634635, "lon": -70.7877846, "tags": {"addr:city": "Maip\u00fa", "addr:housenumber": "18884", "addr:street": "Lago de Lugano", "amenity": "school", "name": "Escuela de lenguaje Sonsoles"}}, {"type": "node", "id": 11417500436, "lat": -33.5086777, "lon": -70.8279775, "tags": {"addr:city": "Maipu", "addr:housenumber": "265", "addr:street": "Germ\u00e1n Greves", "amenity": "school", "name": "Liceo Reino De Dinamarca"}}, {"type": "node", "id": 11429123053, "lat": -33.5053507, "lon": -70.7562067, "tags": {"addr:city": "Maip\u00fa", "addr:housenumber": "142", "addr:street": "Trist\u00e1n Vald\u00e9s", "amenity": "school", "name": "Escuela Premilitar Internacional De L\u00edderes"}}, {"type": "node", "id": 11445453007, "lat": -33.5479433, "lon": -70.7936469}, {"type": "node", "id": 11445453008, "lat": -33.547914, "lon": -70.7942003}, {"type": "node", "id": 11445453009, "lat": -33.5477615, "lon": -70.7942675}, {"type": "node", "id": 11445453010, "lat": -33.5476497, "lon": -70.794361}, {"type": "node", "id": 11445453011, "lat": -33.5472431, "lon": -70.794918}, {"type": "node", "id": 11445453012, "lat": -33.5471008, "lon": -70.7935825}, {"type": "node", "id": 11445453013, "lat": -33.5492354, "lon": -70.7908566}, {"type": "node", "id": 11445453014, "lat": -33.5488559, "lon": -70.790324}, {"type": "node", "id": 11445453015, "lat": -33.5484527, "lon": -70.7907509}, {"type": "node", "id": 11445453016, "lat": -33.5485103, "lon": -70.7908363}, {"type": "node", "id": 11445453017, "lat": -33.5484256, "lon": -70.7909135}, {"type": "node", "id": 11445453018, "lat": -33.5485171, "lon": -70.7910639}, {"type": "node", "id": 11445453019, "lat": -33.5484493, "lon": -70.7911208}, {"type": "node", "id": 11445453055, "lat": -33.5489976, "lon": -70.791076}, {"type": "node", "id": 11445453056, "lat": -33.5488748, "lon": -70.7911844}, {"type": "node", "id": 11445467574, "lat": -33.5114127, "lon": -70.7968552}, {"type": "node", "id": 11445467575, "lat": -33.5125694, "lon": -70.7964269}, {"type": "node", "id": 11445467576, "lat": -33.5127376, "lon": -70.7966747}, {"type": "node", "id": 11445467577, "lat": -33.5196427, "lon": -70.7726047}, {"type": "node", "id": 11445467582, "lat": -33.52186, "lon": -70.7712988}, {"type": "node", "id": 11445467583, "lat": -33.5218495, "lon": -70.7709152}, {"type": "node", "id": 11445467584, "lat": -33.5214235, "lon": -70.7709319}, {"type": "node", "id": 11445467585, "lat": -33.526978, "lon": -70.7723357}, {"type": "node", "id": 11445467586, "lat": -33.5269847, "lon": -70.7721506}, {"type": "node", "id": 11445467587, "lat": -33.5267253, "lon": -70.7721184}, {"type": "node", "id": 11445467588, "lat": -33.5267566, "lon": -70.7717698}, {"type": "node", "id": 11445467589, "lat": -33.5265375, "lon": -70.7717563}, {"type": "node", "id": 11445467590, "lat": -33.5265174, "lon": -70.7721345}, {"type": "node", "id": 11445467591, "lat": -33.5263765, "lon": -70.7721184}, {"type": "node", "id": 11445467597, "lat": -33.526032, "lon": -70.7591854}, {"type": "node", "id": 11445467598, "lat": -33.5260388, "lon": -70.7589537}, {"type": "node", "id": 11445467599, "lat": -33.526825, "lon": -70.7589456}, {"type": "node", "id": 11445467600, "lat": -33.526825, "lon": -70.7587139}, {"type": "node", "id": 11445467601, "lat": -33.5271605, "lon": -70.7587057}, {"type": "node", "id": 11445467602, "lat": -33.5254924, "lon": -70.7574332}, {"type": "node", "id": 11445467603, "lat": -33.5260947, "lon": -70.7578431}, {"type": "node", "id": 11445467604, "lat": -33.5260912, "lon": -70.7586454}, {"type": "node", "id": 11445467605, "lat": -33.5257914, "lon": -70.7586485}, {"type": "node", "id": 11445467710, "lat": -33.5042866, "lon": -70.7635877}, {"type": "node", "id": 11445467711, "lat": -33.5042866, "lon": -70.7631225}, {"type": "node", "id": 11445467712, "lat": -33.5036803, "lon": -70.7631533}, {"type": "node", "id": 11445467737, "lat": -33.5519437, "lon": -70.7693959}, {"type": "node", "id": 11445467738, "lat": -33.551785, "lon": -70.7699149}, {"type": "node", "id": 11445467739, "lat": -33.5516129, "lon": -70.7698438}, {"type": "node", "id": 11590218078, "lat": -33.5478317, "lon": -70.7942346}, {"type": "node", "id": 11735372386, "lat": -33.4913737, "lon": -70.7788386, "tags": {"barrier": "gate"}}, {"type": "node", "id": 11835176328, "lat": -33.4954274, "lon": -70.7613917}, {"type": "node", "id": 11835176329, "lat": -33.495432, "lon": -70.760884}, {"type": "node", "id": 11835176330, "lat": -33.4962059, "lon": -70.7608455}, {"type": "node", "id": 11835176331, "lat": -33.4961971, "lon": -70.7611858}, {"type": "node", "id": 11835176332, "lat": -33.495865, "lon": -70.7611928}, {"type": "node", "id": 11835176333, "lat": -33.4958665, "lon": -70.761363}, {"type": "node", "id": 11835176390, "lat": -33.4990162, "lon": -70.7589623}, {"type": "node", "id": 11835176391, "lat": -33.4990066, "lon": -70.7581528}, {"type": "node", "id": 11835176392, "lat": -33.4986344, "lon": -70.7581592}, {"type": "node", "id": 11835176393, "lat": -33.4986512, "lon": -70.7595634}, {"type": "node", "id": 11835176394, "lat": -33.4992095, "lon": -70.7595538}, {"type": "node", "id": 11835176395, "lat": -33.4992082, "lon": -70.7594486}, {"type": "node", "id": 11835176396, "lat": -33.4997222, "lon": -70.7594398}, {"type": "node", "id": 11835176397, "lat": -33.4997164, "lon": -70.7589504}, {"type": "node", "id": 11851069378, "lat": -33.5307472, "lon": -70.7763357}, {"type": "node", "id": 11851069379, "lat": -33.5312123, "lon": -70.7768802}, {"type": "node", "id": 11851069380, "lat": -33.5312458, "lon": -70.7769955}, {"type": "node", "id": 11851069381, "lat": -33.5312458, "lon": -70.7771001}, {"type": "node", "id": 11851069382, "lat": -33.531219, "lon": -70.7773495}, {"type": "node", "id": 11851069387, "lat": -33.5277369, "lon": -70.7591741}, {"type": "node", "id": 11851069408, "lat": -33.516896, "lon": -70.7548389}, {"type": "node", "id": 11851069409, "lat": -33.5169139, "lon": -70.7534844}, {"type": "node", "id": 11851069410, "lat": -33.5160836, "lon": -70.7534844}, {"type": "node", "id": 11992919310, "lat": -33.5164298, "lon": -70.7860939, "tags": {"amenity": "school", "name": "Instituto para Adultos Jacques Cousteau"}}, {"type": "node", "id": 12011177985, "lat": -33.5162256, "lon": -70.7644406, "tags": {"addr:housenumber": "564", "addr:street": "Los Corintios", "amenity": "school", "name": "Escuela de Lenguaje El\u00edas Canessa Vergara"}}, {"type": "node", "id": 12013633916, "lat": -33.4688594, "lon": -70.7482956, "tags": {"addr:housenumber": "5494", "addr:street": "Avenida Longitudinal", "amenity": "school", "name": "Escuela de P\u00e1rvulos Girasol"}}, {"type": "node", "id": 12035954140, "lat": -33.4956984, "lon": -70.7643798}, {"type": "node", "id": 12035954141, "lat": -33.4960786, "lon": -70.7643744}, {"type": "node", "id": 12035954142, "lat": -33.4960854, "lon": -70.7646775}, {"type": "node", "id": 12035954143, "lat": -33.4960026, "lon": -70.7646829}, {"type": "node", "id": 12035954144, "lat": -33.496016, "lon": -70.7656646}, {"type": "node", "id": 12035954145, "lat": -33.495723, "lon": -70.7656807}, {"type": "node", "id": 12035954146, "lat": -33.4957141, "lon": -70.7653132}, {"type": "node", "id": 12115761643, "lat": -33.5072688, "lon": -70.795398}, {"type": "node", "id": 12115761644, "lat": -33.5071872, "lon": -70.7951129}, {"type": "node", "id": 12174146288, "lat": -33.5084855, "lon": -70.7959422}, {"type": "node", "id": 12174146289, "lat": -33.5084194, "lon": -70.7957039}, {"type": "node", "id": 12174146291, "lat": -33.5083995, "lon": -70.7956349}, {"type": "node", "id": 12174146292, "lat": -33.5083518, "lon": -70.7954696}, {"type": "node", "id": 12174160729, "lat": -33.5086608, "lon": -70.795338}, {"type": "node", "id": 12174160730, "lat": -33.5088388, "lon": -70.7952676}, {"type": "node", "id": 12174160731, "lat": -33.5088618, "lon": -70.7952358}, {"type": "node", "id": 12174160732, "lat": -33.50919, "lon": -70.7959783}, {"type": "node", "id": 12174160733, "lat": -33.5085503, "lon": -70.7961984}, {"type": "node", "id": 12174160734, "lat": -33.5084754, "lon": -70.795415}, {"type": "node", "id": 12174160735, "lat": -33.5084243, "lon": -70.7954071}, {"type": "node", "id": 12174160758, "lat": -33.5086023, "lon": -70.7950181}, {"type": "node", "id": 12174160759, "lat": -33.5085726, "lon": -70.7949132}, {"type": "node", "id": 12174160762, "lat": -33.5085472, "lon": -70.7948235}, {"type": "node", "id": 12174160763, "lat": -33.5084313, "lon": -70.7944148}, {"type": "node", "id": 12179635241, "lat": -33.5096022, "lon": -70.7898471}, {"type": "node", "id": 12179635242, "lat": -33.509615, "lon": -70.7899673}, {"type": "node", "id": 12179635256, "lat": -33.5096444, "lon": -70.7884754}, {"type": "node", "id": 12179635264, "lat": -33.5095003, "lon": -70.7888882}, {"type": "node", "id": 12179635265, "lat": -33.5095105, "lon": -70.788983}, {"type": "node", "id": 12179635275, "lat": -33.5142714, "lon": -70.7949981}, {"type": "node", "id": 12179637016, "lat": -33.5142659, "lon": -70.794921}, {"type": "node", "id": 12179637060, "lat": -33.5142604, "lon": -70.7948493}, {"type": "node", "id": 12179637061, "lat": -33.5142522, "lon": -70.7947419}, {"type": "node", "id": 12179637131, "lat": -33.5141745, "lon": -70.796305}, {"type": "node", "id": 12179637161, "lat": -33.5116377, "lon": -70.7855982}, {"type": "node", "id": 12281588706, "lat": -33.5118876, "lon": -70.7759635}, {"type": "node", "id": 12281588707, "lat": -33.5117272, "lon": -70.7759699}, {"type": "node", "id": 12281588708, "lat": -33.5117169, "lon": -70.7756798}, {"type": "node", "id": 12281588709, "lat": -33.511878, "lon": -70.7756722}, {"type": "node", "id": 12281588750, "lat": -33.5117233, "lon": -70.7758605}, {"type": "node", "id": 12299314414, "lat": -33.5084078, "lon": -70.7676753}, {"type": "node", "id": 12299314415, "lat": -33.5084134, "lon": -70.7678382}, {"type": "node", "id": 12299314416, "lat": -33.5084022, "lon": -70.7675142}, {"type": "node", "id": 12299314422, "lat": -33.5083507, "lon": -70.7675169}, {"type": "node", "id": 12299314423, "lat": -33.5083461, "lon": -70.7672559}, {"type": "node", "id": 12299314456, "lat": -33.5087667, "lon": -70.7678258}, {"type": "node", "id": 12299314457, "lat": -33.5087601, "lon": -70.7674587}, {"type": "node", "id": 12299314489, "lat": -33.5089176, "lon": -70.7672346}, {"type": "node", "id": 12299314490, "lat": -33.5089216, "lon": -70.7674538}, {"type": "node", "id": 12307095680, "lat": -33.5165177, "lon": -70.7698865}, {"type": "node", "id": 12468307449, "lat": -33.5069454, "lon": -70.7958574}, {"type": "node", "id": 12468307451, "lat": -33.5065336, "lon": -70.7943763}, {"type": "node", "id": 12514232931, "lat": -33.5089569, "lon": -70.747207}, {"type": "node", "id": 12514232932, "lat": -33.5089916, "lon": -70.7470192}, {"type": "node", "id": 12514232934, "lat": -33.5101905, "lon": -70.7472606}, {"type": "node", "id": 12844080472, "lat": -33.5648921, "lon": -70.7818005}, {"type": "node", "id": 12844080473, "lat": -33.5648128, "lon": -70.7817104}, {"type": "way", "id": 172446828, "nodes": [1833521656, 1833521654, 1833521662, 1833521660, 1833521656], "tags": {"addr:city": "Maip\u00fa", "addr:housenumber": "1313", "addr:street": "Avenida El Olimpo", "amenity": "school", "name": "Complejo Educacional Maip\u00fa"}}, {"type": "way", "id": 174845163, "nodes": [1994408852, 1854984027, 7551062868, 7551062867, 7551062869, 7551062870, 1854984047, 1854984034, 1854984040, 1854984031, 1854984007, 1994408852], "tags": {"addr:city": "Maipu", "addr:country": "CL", "addr:housenumber": "2471", "addr:street": "Avenida Portales", "alt_name": "Liceo Nacional de Maip\u00fa", "amenity": "school", "contact:email": "cfernandez@codeduc.cl", "name": "Liceo Municipal Nacional de Maip\u00fa", "note": "Correcciones masivas a ortograf\u00eda en nombres de importaciones hechas por equipo de gendarmer\u00eda", "operator": "1", "school:type": "110;310", "source": "Gobierno Regional Metropolitano de Santiago (http://www.gobiernosantiago.cl/)", "wikidata": "Q110331222", "wikimedia_commons": "Category:Liceo Nacional de Maip\u00fa", "wikipedia": "es:Liceo Nacional de Maip\u00fa (Chile)"}}, {"type": "way", "id": 175937006, "nodes": [1864995384, 2071101163, 2300348381, 2071101162, 2071101161, 1864995432, 1864995516, 1864995367, 2300348383, 2300348382, 1864995384], "tags": {"addr:housenumber": "1620", "addr:street": "Avenida Las Naciones", "amenity": "school", "contact:email": "ewertnm@gmail.com", "name": "Colegio Jacques Cousteau", "operator": "3", "school:type": "10;110;310;510", "source": "Gobierno Regional Metropolitano de Santiago (http://www.gobiernosantiago.cl/)"}}, {"type": "way", "id": 175937009, "nodes": [1864995440, 1864995441, 1864995385, 1864995434, 1864995503, 1864995365, 1864995430, 1864995429, 1864995374, 1864995472, 1864995431, 1864995496, 1864995383, 1864995511, 1864995473, 1864995501, 1864995359, 1864995346, 1864995361, 1864995532, 1864995440], "tags": {"addr:housenumber": "1313", "addr:street": "El Olimpo", "amenity": "school", "building": "yes", "contact:email": "cemolimpo@hotmail.com", "name": "Complejo Educacional Maip\u00fa", "operator": "3", "school:type": "10;110;310", "source": "Gobierno Regional Metropolitano de Santiago (http://www.gobiernosantiago.cl/)"}}, {"type": "way", "id": 176708480, "nodes": [1871847186, 9997757963, 1871847177, 1871847178, 1871847174, 1871847214, 1871847227, 1871847194, 9997758087, 9997758088, 1871847186], "tags": {"addr:city": "Maip\u00fa", "addr:housenumber": "1853", "addr:street": "Emiliano Llona", "amenity": "school", "contact:email": "jrojas@codeduc.cl", "name": "Escuela B\u00e1sica General Bernardo O\"Higgins", "operator": "Ilustre Municipalidad de Maip\u00fa", "school:type": "10;110"}}, {"type": "way", "id": 176708481, "nodes": [1871847177, 1871847178, 1871847179, 9997757920, 9997757921, 1871847228, 1871847177], "tags": {"addr:city": "Maip\u00fa", "addr:housenumber": "409", "addr:street": "Avenida 5 de Abril", "amenity": "school", "contact:email": "sbenvenuto@codeduc.cl", "name": "Colegio General San Mart\u00edn", "operator": "Ilustre Municipalidad de Maip\u00fa", "school:type": "10;110"}}, {"type": "way", "id": 177708302, "nodes": [1881469134, 5880352524, 5880352528, 5880352529, 5880352527, 5880352526, 5880352525, 1881469070, 1881469136, 1881469055, 1881469103, 1881469134], "tags": {"addr:city": "Maip\u00fa", "addr:housenumber": "2088", "addr:street": "Avenida El Olimpo", "amenity": "school", "designation": "Colegio Particular Subvencionado", "name": "Colegio Polivalente Patricio Mekis"}}, {"type": "way", "id": 178042639, "nodes": [1884322326, 1884322337, 1884322329, 1884322330, 1884322326], "tags": {"addr:housenumber": "285", "addr:street": "Avenida Portales", "amenity": "school", "contact:email": "montecarmelo@escuelasespeciale", "name": "Escuela Diferencial Montecarmelo", "operator": "3", "school:type": "212", "source": "Gobierno Regional Metropolitano de Santiago (http://www.gobiernosantiago.cl/)"}}, {"type": "way", "id": 182312379, "nodes": [1926641622, 1926641642, 6783728369, 1926641610, 6783728353, 1926641617, 1926641625, 6783728362, 6783728351, 1926641622], "tags": {"addr:city": "Maip\u00fa", "addr:country": "CL", "addr:housenumber": "1405", "addr:street": "Carolina San Mart\u00edn", "amenity": "school", "name": "Colegio Boston College San Mart\u00edn", "note": "Correcciones masivas a ortograf\u00eda en nombres de importaciones hechas por equipo de gendarmer\u00eda"}}, {"type": "way", "id": 194670285, "nodes": [2051752811, 10990416987, 2051752823, 5354422060, 2051752820, 2051752800, 2051752811], "tags": {"addr:city": "Maip\u00fa", "addr:housenumber": "1561", "addr:street": "El Conquistador", "amenity": "school", "name": "Liceo Tecnol\u00f3gico Enrique Kirgberg"}}, {"type": "way", "id": 220408193, "nodes": [2295326875, 2295326938, 5322314895, 2295326958, 2295326875], "tags": {"amenity": "school", "name": "Colegio Terraustral"}}, {"type": "way", "id": 220411363, "nodes": [2295363693, 2295363709, 2295363689, 2295363734, 2295363693], "tags": {"addr:housenumber": "1063", "addr:street": "Avenida 4 Poniente", "alt_name": "Escuela Basica Del Real", "amenity": "school", "name": "Colegio del Real", "source": "Kaart Ground Survey 2017"}}, {"type": "way", "id": 238513940, "nodes": [2463431727, 2463431725, 1871847210, 1871847230, 1871847192, 1871847205, 7509289724, 2463431722, 7509289723, 2463431727], "tags": {"addr:city": "Maip\u00fa", "addr:housenumber": "575", "addr:street": "Avenida Esquina Blanca", "amenity": "school", "contact:email": "colegiomaipu@santaursula.cl", "name": "Colegio Santa \u00darsula", "operator": "Compa\u00f1\u00eda de Santa \u00darsula", "school:type": "10;110;310"}}, {"type": "way", "id": 256917996, "nodes": [9181298023, 9181298021, 9181298022, 9181298020, 9181298023], "tags": {"addr:city": "Maip\u00fa", "addr:country": "CL", "addr:housenumber": "650", "addr:street": "Avenida El Olimpo", "amenity": "school", "name": "Colegio Los Bosquinos", "note": "Correcciones masivas a ortograf\u00eda en nombres de importaciones hechas por equipo de gendarmer\u00eda"}}, {"type": "way", "id": 263488151, "nodes": [2691044470, 2691044468, 2691044466, 2691044464, 2691044462, 2691044446, 2691044449, 2691044451, 2691044453, 2691044454, 2691044456, 2691044458, 2691044460, 2691044470], "tags": {"addr:city": "Maipu", "addr:housenumber": "1081", "addr:street": "Avenida Longitudinal", "amenity": "school", "name": "Colegio Boston College Maip\u00fa", "operator": "3", "phone": "+56 2 2744 55 24", "source": "http://www.bostoncollege.cl/minisitio/contacto.php", "website": "http://www.bostoncollege.cl"}}, {"type": "way", "id": 263488152, "nodes": [4455711906, 4455711905, 2691044472, 2691044474, 8930964433, 8930964434, 4455711906], "tags": {"amenity": "school", "name": "Colegio Boston College Maip\u00fa", "source": "Reconocimiento cartogr\u00e1fico 2016 por KG."}}, {"type": "way", "id": 272617399, "nodes": [2775638784, 2775638788, 2775638791, 2775638793, 2775638784], "tags": {"addr:city": "Maip\u00fa", "addr:housenumber": "869", "addr:street": "Chacabuco", "amenity": "school", "check_date": "2024-06-18", "contact:email": "rhernandez@aspaut.cl", "contact:phone": "56-25324090", "name": "Escuela Especial Rompe Mi Silencio", "operator": "Asociaci\u00f3n Chilena de Padres y Amigos de los Autistas", "school:type": "214"}}, {"type": "way", "id": 272617426, "nodes": [2775638810, 2775638811, 2775638812, 2775638814, 2775638815, 2775638816, 2775638810], "tags": {"addr:city": "Maip\u00fa", "addr:housenumber": "1850", "addr:street": "Aguada Sur", "amenity": "school", "name": "Agrupaci\u00f3n Int\u00e9grame a Tu Mundo", "operator": "Agrupaci\u00f3n Int\u00e9grame a Tu Mundo"}}, {"type": "way", "id": 279027162, "nodes": [2832915140, 2832915141, 5503790416, 2832915142, 2832915143, 2832915140], "tags": {"addr:city": "Maip\u00fa", "addr:housenumber": "816", "addr:street": "Camino a Rinconada", "amenity": "school", "contact:email": "liceoawidmer@terra.cl", "name": "Liceo Industrial Alberto Widmer", "operator": "Instituci\u00f3n Alberto Widmer", "school:type": "510"}}, {"type": "way", "id": 279027312, "nodes": [2832917978, 9986229157, 2832917979, 2832917980, 9986229156, 3527172285, 3527172289, 3527172288, 3527172286, 2832917982, 2832917983, 3527172284, 2832917978], "tags": {"addr:city": "Maip\u00fa", "addr:housenumber": "459", "addr:street": "San Jos\u00e9", "amenity": "school", "contact:email": "camilohenriquez459@yahoo.com", "name": "Colegio Polivalente Camilo Henr\u00edquez", "operator": "Colegio Camilo Henr\u00edquez", "school:type": "110;310"}}, {"type": "way", "id": 279682843, "nodes": [2838896358, 5880498877, 5880498876, 2838896359, 2838896360, 2838896361, 2838896362, 2838896363, 2838896364, 9998358054, 9998358056, 9998358070, 9998358072, 2838896358], "tags": {"addr:city": "Maip\u00fa", "addr:country": "CL", "addr:housenumber": "1891", "addr:street": "San Alberto Hurtado", "amenity": "school", "contact:email": "Colegiocnsc@yahoo.es", "name": "Colegio de Nuestra Se\u00f1ora del Carmen de Maip\u00fa", "note": "Correcciones masivas a ortograf\u00eda en nombres de importaciones hechas por equipo de gendarmer\u00eda", "school:type": "10;110;310"}}, {"type": "way", "id": 279683107, "nodes": [2838898645, 2838898646, 2838898647, 2838898644, 12307095680, 2838898645], "tags": {"addr:city": "Maip\u00fa", "addr:housenumber": "860", "addr:street": "San Jos\u00e9", "amenity": "school", "contact:email": "andalue@codeduc.cl", "name": "Escuela Especial Andalu\u00e9", "school:type": "212"}}, {"type": "way", "id": 279809435, "nodes": [12514232934, 2840009529, 12514232932, 12514232931, 2840009530, 2840009531, 2840009532, 1871847170, 1871847207, 1871847209, 12514232934], "tags": {"addr:city": "Maip\u00fa", "addr:housenumber": "1900", "addr:street": "Avenida Segunda Transversal", "amenity": "school", "contact:email": "mmuoz@codeduc.cl", "name": "Centro Educacional T\u00e9cnico-Profesional CODEDUC", "operator": "Ilustre Municipalidad de Maip\u00fa", "school:type": "10;110;510;610"}}, {"type": "way", "id": 282117320, "nodes": [2860528327, 5724379745, 5724379746, 5724379747, 5724379748, 2860528328, 2860528329, 2860528330, 2860528327], "tags": {"addr:city": "Maip\u00fa", "addr:housenumber": "8720", "addr:street": "Camino a Melipilla", "amenity": "school", "contact:email": "liceomaipu@codeduc.cl", "name": "Liceo Alcalde Gonzalo P\u00e9rez Llona", "operator": "Ilustre Municipalidad de Maip\u00fa", "school:type": "310"}}, {"type": "way", "id": 307818719, "nodes": [3130593438, 7488584974, 3130593439, 7488584975, 3130593440, 7488584976, 7488584977, 7488584978, 7488584979, 7488584980, 3130593441, 5355532496, 3130593442, 3130593443, 3130593444, 7488584963, 7488584964, 7488584965, 7488584962, 7488584966, 7488584961, 7488584960, 5355532493, 3130593445, 7488584967, 7488584968, 7488584969, 7488584970, 5355532492, 7488584971, 3672420209, 7488584972, 5355532494, 7488584973, 3130593438], "tags": {"addr:city": "Maip\u00fa", "addr:housenumber": "1811", "addr:street": "Asunci\u00f3n", "amenity": "school", "name": "Colegio Terraustral Del Sol"}}, {"type": "way", "id": 316975225, "nodes": [3231687044, 3231687045, 3231687046, 3231687049, 3231687044], "tags": {"addr:city": "Maip\u00fa", "addr:housenumber": "621", "addr:street": "San Jos\u00e9", "amenity": "school", "name": "Colegio de la Providencia Carmela Larra\u00edn de Infante", "phone": "+56225314157"}}, {"type": "way", "id": 319011819, "nodes": [3254269240, 3254269241, 3254269242, 3254269243, 3254269240], "tags": {"addr:city": "Maip\u00fa", "addr:housenumber": "756", "addr:street": "Chacabuco", "amenity": "school", "contact:email": "maipu@escuelasagazzi.cl", "name": "Escuela Especial Educacional Agazzi", "operator": "Escuelas Agazzi", "school:type": "212"}}, {"type": "way", "id": 324220864, "nodes": [5724379497, 3309473700, 3231687049, 3231687046, 3231687045, 3309473708, 3309473705, 5724379512, 5724379514, 5724379497], "tags": {"addr:city": "Maip\u00fa", "addr:housenumber": "557", "addr:street": "San Jos\u00e9", "amenity": "school", "contact:email": "colegiomaipu@piamarta.cl", "name": "Centro Educacional Piamartino Carolina Llona", "school:type": "10;110;310;510"}}, {"type": "way", "id": 324220866, "nodes": [3309473718, 3309473698, 3309473708, 3309473705, 3309473718], "tags": {"addr:city": "Maip\u00fa", "addr:housenumber": "577", "addr:street": "San Jos\u00e9", "amenity": "school", "contact:email": "josefuentesg@vtr.net", "name": "Colegio De Adultos Santa Mar\u00eda Del Trabajo", "school:type": "361"}}, {"type": "way", "id": 332036354, "nodes": [3391405983, 3391405985, 3391405987, 3391405981, 3391413493, 3391405988, 4947105972, 3391405992, 3391405983], "tags": {"addr:housenumber": "4201", "addr:street": "Avenida Pajaritos", "amenity": "school", "contact:email": "wburgosm@gmail.com", "contact:phone": "+56 2 7444081", "name": "Colegio Santa Mar\u00eda de Maip\u00fa", "operator": "3", "school:type": "110;310", "source": "Reconocimiento cartogr\u00e1fico de campo 2016 por KG"}}, {"type": "way", "id": 346100033, "nodes": [3527172233, 3527172234, 3527172238, 3527172237, 3527172236, 3527172235, 3527172233], "tags": {"addr:city": "Maip\u00fa", "addr:housenumber": "351", "addr:street": "Diego de Almagro", "amenity": "school", "name": "Escuela Particular Franz Liszt", "phone": "+56 225325356"}}, {"type": "way", "id": 385919115, "nodes": [3892582207, 3892582208, 5177372738, 5177372739, 5177372741, 5177372740, 3892582209, 3892582210, 3892582207], "tags": {"addr:city": "Maip\u00fa", "addr:housenumber": "1440", "addr:street": "Asunci\u00f3n", "amenity": "school", "name": "Escuela Tom\u00e1s Vargas y Arcaya"}}, {"type": "way", "id": 392951995, "nodes": [3961387749, 3961387752, 3961387745, 12179637061, 12179637060, 12179637016, 12179635275, 6981776907, 6981776908, 3961387738, 12179637131, 3961387749], "tags": {"addr:city": "Maipu", "addr:country": "CL", "addr:housenumber": "2800", "addr:street": "Agua Santa", "amenity": "school", "name": "Colegio Cardenal Carlos Oviedo Cavada", "note": "Correcciones masivas a ortograf\u00eda en nombres de importaciones hechas por equipo de gendarmer\u00eda"}}, {"type": "way", "id": 392951997, "nodes": [3961387740, 3961387737, 3961387736, 3961387746, 5878480121, 5355109350, 5355109351, 12179637161, 3961387740], "tags": {"addr:housenumber": "2020", "addr:street": "Avenida Las Naciones", "amenity": "school", "contact:email": "sandoval_patricio@yahoo.es", "contact:phone": "+56 2 5836566", "name": "Escuela B\u00e1sica Municipal N\u00b0 1543 \u201cSan Luis\u201d", "operator": "1", "school:type": "10;110;160;360;361", "source": "Gobierno Regional Metropolitano de Santiago (http://www.gobiernosantiago.cl/)"}}, {"type": "way", "id": 392952000, "nodes": [3961387747, 3961387748, 6985163938, 6985163939, 3961387754, 12179635241, 12179635242, 3961387743, 3961387742, 3961387747], "tags": {"addr:city": "Maip\u00fa", "addr:country": "CL", "addr:housenumber": "2115", "addr:street": "Avenida 4 Poniente", "amenity": "school", "contact:email": "Colegiodiegoportales@yahoo.es", "name": "Colegio Polivalente Diego Portales", "note": "Correcciones masivas a ortograf\u00eda en nombres de importaciones hechas por equipo de gendarmer\u00eda", "operator": "3", "school:type": "10;110;310;410", "source": "Gobierno Regional Metropolitano de Santiago (http://www.gobiernosantiago.cl/)"}}, {"type": "way", "id": 392952001, "nodes": [3961387739, 5759876129, 12179635256, 5685391784, 5685391785, 12179635264, 12179635265, 3961387748, 3961387747, 3961387741, 5759876131, 3961387739], "tags": {"addr:city": "Maip\u00fa", "addr:country": "CL", "addr:housenumber": "2264", "addr:street": "Mantos Blancos", "amenity": "school", "name": "Escuela B\u00e1sica Cristiano Los H\u00e9roes", "note": "Correcciones masivas a ortograf\u00eda en nombres de importaciones hechas por equipo de gendarmer\u00eda"}}, {"type": "way", "id": 399505692, "nodes": [4455271063, 4455271062, 5170028453, 6221321584, 4022397381, 4931884503, 4860861129, 4022397382, 5170028454, 4931884501, 6221321887, 5170028455, 6221321886, 6221321885, 4931884504, 6221321888, 5170072722, 6221321889, 5170072721, 4022397383, 4022397384, 1244621549, 4455271063], "tags": {"addr:city": "Maip\u00fa", "addr:housenumber": "500", "addr:street": "Avenida Parque Central Poniente", "amenity": "school", "contact:email": "correo@colegioalcazar.cl", "name": "Colegio Alc\u00e1zar de Maip\u00fa", "operator": "municipal", "operator:type": "government", "school:type": "10;110", "source": "Reconocimiento cartogr\u00e1fico de campo 2016 por KG"}}, {"type": "way", "id": 423639009, "nodes": [4231968306, 7488144056, 7488144057, 7488144041, 7488144040, 7488144039, 4231968307, 7488144038, 7488144037, 4231968308, 11735372386, 7488144058, 4231968312, 7488144059, 4231968301, 7488144043, 7488144044, 7488144045, 7488144046, 7488144047, 4231968303, 7488144048, 4231968298, 7488144049, 7488144050, 7488144051, 7488144052, 7488144053, 7488144054, 4231968304, 7488144042, 7488144055, 4231968306], "tags": {"addr:housename": "Colegio Alicante del Rosal", "addr:housenumber": "920", "addr:street": "Calle Ingeniero Eduardo Domingue", "amenity": "school", "name": "Colegio Alicante del Rosal", "operator": "3", "school:type": "10;110;310", "source": "Gobierno Regional Metropolitano de Santiago (http://www.gobiernosantiago.cl/)"}}, {"type": "way", "id": 446132649, "nodes": [4434583029, 4434583030, 9996419004, 4434583031, 4434583032, 7590112184, 4434583033, 7590112208, 4434583029], "tags": {"addr:housenumber": "3760", "addr:street": "Avenida Lumen", "amenity": "school", "contact:email": "contacto@colegioanglomaipu.cl", "name": "Colegio Anglo Maip\u00fa", "operator": "3", "school:type": "10;110;310", "source": "Reconocimiento cortogr\u00e1fico de campo 2016 por KG"}}, {"type": "way", "id": 446881411, "nodes": [4441019582, 4441019583, 4441019584, 4441019585, 4441019582], "tags": {"addr:city": "Maip\u00fa", "addr:street": "General Manuel Baquedano", "amenity": "school", "name": "Colegio de Parvulos San Leonardo", "source": "Reconocimiento cortogr\u00e1fico de campo 2016 por KG"}}, {"type": "way", "id": 446887065, "nodes": [4441070597, 4441070598, 4441070599, 4441070600, 4441070597], "tags": {"addr:city": "Maip\u00fa", "addr:housenumber": "2829", "addr:street": "Primera Transversal", "amenity": "school", "name": "Tommy's Garden", "source": "Reconocimiento cortogr\u00e1fico de campo 2016 por KG"}}, {"type": "way", "id": 446924885, "nodes": [5555363774, 4441405145, 4441405146, 4441405150, 4441405151, 5555363774], "tags": {"addr:city": "Maip\u00fa", "addr:country": "CL", "addr:housenumber": "150", "addr:street": "Avenida Central Gonzalo P\u00e9rez Llona", "amenity": "school", "name": "Colegio El Trigal", "note": "Correcciones masivas a ortograf\u00eda en nombres de importaciones hechas por equipo de gendarmer\u00eda"}}, {"type": "way", "id": 448519101, "nodes": [4455267480, 7821284520, 7821284525, 7821284515, 7485365999, 7485366000, 7485366001, 7485366002, 7485365996, 7485366007, 7485366008, 7485366009, 4455267482, 7485366010, 5524026940, 5524026941, 7821284518, 7821284521, 4455267480], "tags": {"addr:city": "Maip\u00fa", "addr:country": "CL", "addr:housenumber": "1380", "addr:street": "Avenida la Sinfon\u00eda", "amenity": "school", "contact:email": "farfana@bostoncollege.cl", "contact:phone": "+56 2 7629412", "name": "Colegio Boston College la Farfana", "name:es": "Colegio Boston College la Farfana", "note": "Correcciones masivas a ortograf\u00eda en nombres de importaciones hechas por equipo de gendarmer\u00eda", "operator": "3", "school:type": "10;110;310", "source": "Reconocimiento cartogr\u00e1fico 2016 por KG;Gobierno Regional Metropolitano de Santiago (http://www.gobiernosantiago.cl/)"}}, {"type": "way", "id": 448524041, "nodes": [4455313315, 4942944686, 4942944689, 4942944688, 4942944687, 4455313316, 4942944698, 4942944699, 4942944697, 4942944696, 4942944695, 4942944694, 4455313317, 4455313318, 4942944690, 4942944691, 4942944693, 4942944692, 4455313315], "tags": {"addr:city": "Maip\u00fa", "addr:housenumber": "2200", "addr:street": "Avenida Alcalde Jos\u00e9 Luis Infante Larra\u00edn", "amenity": "school", "building": "yes", "name": "Colegio Saint Louis School", "source": "Reconocimiento cartogr\u00e1fico de campo 2016 por KG"}}, {"type": "way", "id": 448717737, "nodes": [4457003463, 4457003464, 4457003465, 4457003466, 4457003467, 4457003468, 4457003463], "tags": {"addr:country": "CL", "addr:housenumber": "2803", "addr:street": "Avenida Los Pajaritos", "amenity": "school", "contact:email": "ceaw@123.cl", "name": "Complejo Educacional Alberto Widmer", "note": "Correcciones masivas a ortograf\u00eda en nombres de importaciones hechas por equipo de gendarmer\u00eda", "operator": "3", "school:type": "10;110;410", "source": "Reconocimiento cartogr\u00e1fico 2016 por KG."}}, {"type": "way", "id": 448846442, "nodes": [4458203476, 4458203477, 4458203478, 4458203479, 4458203476], "tags": {"addr:city": "Maip\u00fa", "addr:housenumber": "2285", "addr:street": "Calle Nueva San Martin", "amenity": "school", "name": "Escuela B\u00e1sica La Araucaria de Maip\u00fa", "operator": "3", "school:type": "110", "source": "Gobierno Regional Metropolitano de Santiago (http://www.gobiernosantiago.cl/)"}}, {"type": "way", "id": 449270609, "nodes": [4462422464, 4462422465, 4462422466, 4462422467, 4462422464], "tags": {"addr:city": "Maip\u00fa", "addr:country": "CL", "addr:housenumber": "241", "addr:street": "Trist\u00e1n Vald\u00e9s", "amenity": "school", "name": "Escuela de Lenguaje Nuestra Se\u00f1ora del Pilar", "note": "Correcciones masivas a ortograf\u00eda en nombres de importaciones hechas por equipo de gendarmer\u00eda", "phone": "+56225318721", "source": "Reconocimiento cortogr\u00e1fico de campo 2016 por KG"}}, {"type": "way", "id": 449416535, "nodes": [4463741377, 4463741376, 4463742794, 4463742795, 4463742796, 4463741377], "tags": {"addr:city": "Maip\u00fa", "addr:country": "CL", "addr:housenumber": "431", "addr:street": "Libertador Bernardo O'Higgins", "amenity": "school", "name": "Colegio Intercultural Trememn", "note": "Correcciones masivas a ortograf\u00eda en nombres de importaciones hechas por equipo de gendarmer\u00eda", "source": "Reconocimiento cortogr\u00e1fico de campo 2016 por KG"}}, {"type": "way", "id": 449443046, "nodes": [4436619812, 4436619808, 4463955210, 4463955211, 4463955212, 4463955213, 4463955214, 4436619812], "tags": {"addr:housenumber": "684", "addr:street": "Avenida Central", "amenity": "school", "building": "yes", "contact:email": "andrea_correa_38@hotmail.com", "contact:phone": "+56 2 5394265", "name": "Escuela de Lenguaje Mi Familia", "operator": "3", "school:type": "214", "source": "Reconocimiento cortogr\u00e1fico de campo 2016 por KG"}}, {"type": "way", "id": 449560744, "nodes": [4465090201, 4465090202, 4465090203, 4465090204, 4465090201], "tags": {"amenity": "school", "building": "yes", "name": "Escuela de Lenguaje Luna Azul", "source": "Reconocimiento cartogr\u00e1fico 2016 por KG"}}, {"type": "way", "id": 449569570, "nodes": [4465190905, 4465190906, 4465190907, 4465190908, 4465190905], "tags": {"addr:city": "Maip\u00fa", "addr:country": "CL", "addr:housenumber": "733", "addr:street": "Avenida 3 Poniente", "amenity": "school", "building": "yes", "name": "San Benito Educa", "note": "Correcciones masivas a ortograf\u00eda en nombres de importaciones hechas por equipo de gendarmer\u00eda", "source": "Reconocimiento cartogr\u00e1fico 2016 por KG"}}, {"type": "way", "id": 449726385, "nodes": [4466619244, 4466619245, 11445467605, 11445467604, 11445467603, 4466619246, 4466619247, 11445467602, 4466619248, 4466619244], "tags": {"addr:city": "Maip\u00fa", "addr:housenumber": "80", "addr:street": "Avenida Nueva San Mart\u00edn", "amenity": "school", "contact:email": "escuelasofiainfante@gmail.com", "name": "Colegio Sofia Infante Hurtado", "operator": "3", "school:type": "10;110;310", "source": "Gobierno Regional Metropolitano de Santiago (http://www.gobiernosantiago.cl/)"}}, {"type": "way", "id": 449729507, "nodes": [4466657757, 4466657758, 4466657759, 4466657760, 4466657761, 4466657757], "tags": {"amenity": "school", "building": "yes", "name": "Preutech", "source": "Reconocimiento cartogr\u00e1fico 2016 por KG"}}, {"type": "way", "id": 449983790, "nodes": [4469010513, 7491770813, 4469010514, 7491770814, 4469010518, 7491770815, 7491770816, 7491770817, 7491770801, 4469010515, 7491770802, 7491770803, 4469010516, 7491770804, 7491770805, 4469010517, 7491770806, 7491770807, 7491770800, 7491770808, 7491770809, 7491770799, 7491770810, 7491770798, 7491770811, 7491770797, 7491770812, 4469010513], "tags": {"addr:city": "Maip\u00fa", "addr:housenumber": "22", "addr:street": "2 Norte", "amenity": "school", "contact:email": "eduteclimitada@yahoo.com", "contact:phone": "+56 2 5577634", "name": "Liceo Politecnico Particular Hannover", "operator": "3", "school:type": "410;510", "source": "Gobierno Regional Metropolitano de Santiago (http://www.gobiernosantiago.cl/)"}}, {"type": "way", "id": 449989765, "nodes": [4469062986, 4469062987, 4469062988, 4469062989, 4469062986], "tags": {"addr:city": "Maip\u00fa", "addr:housenumber": "2321", "addr:street": "Capell\u00e1n Benavides", "amenity": "school", "contact:email": "contacto@liceosantiagobueras.cl", "name": "Liceo Santiago Bueras Y Avaria", "operator": "1", "school:type": "10;110;310", "source": "Reconocimiento cartogr\u00e1fico 2016 por KG."}}, {"type": "way", "id": 450381483, "nodes": [4473018931, 4473018932, 4473018933, 4473018934, 4473018931], "tags": {"addr:city": "Maip\u00fa", "addr:country": "CL", "addr:housenumber": "3101", "addr:street": "Avenida Las Parcelas", "amenity": "school", "name": "Escuela B\u00e1sica Echaurren N\u00ba 2", "note": "Correcciones masivas a ortograf\u00eda en nombres de importaciones hechas por equipo de gendarmer\u00eda", "operator": "3", "school:type": "10;110", "source": "Gobierno Regional Metropolitano de Santiago (http://www.gobiernosantiago.cl/)"}}, {"type": "way", "id": 533698845, "nodes": [5177357064, 5177357065, 10003218072, 5177357066, 5177357071, 5177357064], "tags": {"addr:city": "Maip\u00fa", "addr:housenumber": "510", "addr:street": "Libertad", "amenity": "school", "name": "Colegio Oxford", "phone": "+56 2 2531 8715", "website": "https://www.colegio-oxford.cl/"}}, {"type": "way", "id": 544657788, "nodes": [5503790417, 9997758098, 9997758093, 5503790420, 5503790419, 5503790418, 5503790417], "tags": {"addr:city": "Maip\u00fa", "addr:housenumber": "645", "addr:street": "General Ord\u00f3\u00f1ez", "amenity": "school", "email": "contacto@institutoamerica.cl", "name": "Escuela Particular Instituto Am\u00e9rica", "phone": "+56 2 2531 8610", "website": "https://www.colegioinstitutoamerica.cl/"}}, {"type": "way", "id": 552936515, "nodes": [5338126800, 4946317455, 5338126801, 5338126802, 7870044974, 5338126803, 5338126800], "tags": {"addr:city": "Maip\u00fa", "addr:housenumber": "18410", "addr:street": "Camino San Alberto Hurtado", "amenity": "school", "name": "Escuela de Artes y Tecnolog\u00eda de Maip\u00fa (EAT)", "website": "http://eatmaipu.cl/"}}, {"type": "way", "id": 553152615, "nodes": [5339930280, 12844080472, 12844080473, 5339930281, 5339930282, 6221321891, 5339930283, 5339930284, 5339930285, 5339930286, 5339930287, 5339930288, 5339930289, 5339930290, 5339930291, 5339930292, 5339930293, 6221321892, 6221321893, 5339930294, 5339930295, 5339930296, 5339930297, 5339930298, 5339930299, 6221321894, 5339930280], "tags": {"addr:city": "Maip\u00fa", "addr:country": "CL", "addr:housenumber": "1751", "addr:street": "Avenida Parque Central Poniente", "amenity": "school", "contact:email": "losalpes2003@hotmail.com", "name": "Colegio Los Alpes Maipu", "note": "Correcciones masivas a ortograf\u00eda en nombres de importaciones hechas por equipo de gendarmer\u00eda", "operator": "3", "school:type": "10;110;310", "source": "Gobierno Regional Metropolitano de Santiago (http://www.gobiernosantiago.cl/)", "website": "https://colegiolosalpes.cl/"}}, {"type": "way", "id": 553325790, "nodes": [5341309324, 5341309325, 5341309326, 5341309327, 5341309328, 5341309329, 5341309324], "tags": {"amenity": "school"}}, {"type": "way", "id": 559113534, "nodes": [5393146447, 5393146448, 5393146456, 5393146449, 7488479738, 5393146450, 10944097147, 7488479742, 7488479743, 5393146454, 7488479745, 10944097148, 5393146447], "tags": {"addr:city": "Maipu", "addr:housenumber": "1377", "addr:street": "Ingeniero Eduardo Dom\u00ednguez", "amenity": "school", "name": "Liceo Bicentenario de ni\u00f1as Maip\u00fa"}}, {"type": "way", "id": 572040941, "nodes": [5496355941, 5496355942, 5496355943, 5496355944, 5496355941], "tags": {"amenity": "school"}}, {"type": "way", "id": 576419137, "nodes": [5528620418, 5528620419, 5555363775, 5528620420, 5555363776, 5555363777, 7550528197, 7550528198, 5528620418], "tags": {"addr:city": "Maip\u00fa", "addr:housenumber": "60", "addr:street": "Avenida Central Gonzalo P\u00e9rez Llona", "amenity": "school", "name": "Colegio San Leonardo"}}, {"type": "way", "id": 591276791, "nodes": [5644724828, 5644724829, 5644724830, 5644724831, 5644724828], "tags": {"addr:city": "Maip\u00fa", "addr:housenumber": "500", "addr:street": "Elizabeth Heisse", "amenity": "school", "name": "Escuela B\u00e1sica Vicente Reyes Palazuelos"}}, {"type": "way", "id": 591279515, "nodes": [5644777372, 5644777373, 5644777377, 5644777375, 5644777372], "tags": {"addr:city": "Maip\u00fa", "addr:housenumber": "3016", "addr:street": "Mateo Toro y Zambrano", "amenity": "school", "contact:email": "kronberg_college@yahoo.com", "contact:phone": "+56 2 5571958", "name": "Colegio Kronberg College", "operator": "3", "school:type": "10;110;310", "source": "Gobierno Regional Metropolitano de Santiago (http://www.gobiernosantiago.cl/)"}}, {"type": "way", "id": 596990092, "nodes": [12468307451, 11012914310, 11012914309, 5685457400, 12115761644, 12115761643, 5685457401, 5685457402, 5685457403, 12468307449, 12468307451], "tags": {"addr:housenumber": "3120", "addr:street": "Camino a Rinconada", "amenity": "school", "name": "Complejo Educacional Maip\u00fa Anexo Rinconada"}}, {"type": "way", "id": 600024874, "nodes": [5707076140, 5707076141, 5707076142, 5707076143, 5707076140], "tags": {"addr:city": "Maip\u00fa", "addr:housenumber": "2400", "addr:street": "Avenida de la Victoria", "amenity": "school", "name": "Liceo Jos\u00e9 Ignacio Zenteno"}}, {"type": "way", "id": 601158155, "nodes": [5714307227, 5714307228, 5714307229, 5714307230, 5714307231, 5714307232, 5714307233, 9998358318, 5714307234, 5714307235, 5714307236, 5714307227], "tags": {"addr:city": "Maip\u00fa", "addr:housenumber": "2060", "addr:street": "Rep\u00fablica", "amenity": "school", "name": "Colegio Particular de As\u00eds"}}, {"type": "way", "id": 602307992, "nodes": [5721570589, 5721570590, 5721570591, 5721570592, 5721570593, 5721570594, 5721570589], "tags": {"addr:city": "Maip\u00fa", "addr:housenumber": "1111", "addr:street": "Blanco Encalada", "amenity": "school", "name": "Escuela B\u00e1sica N\u00b0263 Ram\u00f3n Freire"}}, {"type": "way", "id": 602308019, "nodes": [5721570694, 5721570695, 5721570696, 5721570697, 5721570694], "tags": {"addr:city": "Maip\u00fa", "addr:housenumber": "535", "addr:street": "Las Acacias", "amenity": "school", "name": "Escuela El Llano de Maip\u00fa"}}, {"type": "way", "id": 602762618, "nodes": [5724340239, 5724340240, 5724340241, 5724340242, 5724340239], "tags": {"amenity": "school"}}, {"type": "way", "id": 602762620, "nodes": [5724340243, 5724340244, 5724340245, 5724340246, 5724340243], "tags": {"addr:city": "Maip\u00fa", "addr:country": "CL", "addr:housenumber": "2035", "addr:street": "Avenida Ferrocarril", "amenity": "school", "contact:email": "csdali@gmail.com", "name": "Colegio Salvador Dal\u00ed", "note": "Correcciones masivas a ortograf\u00eda en nombres de importaciones hechas por equipo de gendarmer\u00eda", "operator": "3", "school:type": "10;110", "source": "Gobierno Regional Metropolitano de Santiago (http://www.gobiernosantiago.cl/)"}}, {"type": "way", "id": 602773304, "nodes": [5724399885, 5724399886, 5724399887, 5724399888, 5724399885], "tags": {"addr:country": "CL", "amenity": "school", "building": "house", "name": "Escuela de Lenguaje Nuestra Se\u00f1ora de San Ger\u00f3nimo", "note": "Correcciones masivas a ortograf\u00eda en nombres de importaciones hechas por equipo de gendarmer\u00eda"}}, {"type": "way", "id": 607822216, "nodes": [5759625921, 5759625923, 5759625924, 5759625925, 5759625926, 2295364561, 5759625921], "tags": {"addr:city": "Maip\u00fa", "addr:housenumber": "16916", "addr:street": "Calle Marco Antonio", "amenity": "school", "name": "Escuela Las Am\u00e9ricas", "website": "https://escuelalasamericas.cl/"}}, {"type": "way", "id": 618966484, "nodes": [5849738121, 5849738122, 5849738123, 5849738124, 5849738121], "tags": {"addr:city": "Maip\u00fa", "addr:housenumber": "1000", "addr:street": "Alberto Llona", "amenity": "school", "name": "Colegio Liceo Comercial San Jos\u00e9"}}, {"type": "way", "id": 621227165, "nodes": [5868536625, 7562037557, 5868536628, 7562037556, 5868536602, 7562037554, 7562037555, 7562037553, 7562037552, 7562037551, 7562037550, 7562037549, 7562037547, 7562037548, 7562037546, 5868536608, 7562037545, 7562037544, 7562037543, 7562037542, 5868536610, 7562037562, 7562037561, 7562037560, 9605968596, 5868536625], "tags": {"addr:city": "Maip\u00fa", "addr:housenumber": "1577", "addr:street": "Avenida Am\u00e9rico Vespucio", "alt_name": "Colegio Alicante", "amenity": "school", "name": "Colegio Alicante de Maip\u00fa"}}, {"type": "way", "id": 622502659, "nodes": [5880159506, 5880159507, 5880159508, 5880159509, 5880159510, 5880159511, 5880159512, 5880159513, 5880159506], "tags": {"addr:city": "Maip\u00fa", "addr:country": "CL", "addr:housenumber": "638", "addr:street": "Avenida Arquitecto Hugo Bravo", "amenity": "school", "denomination": "protestant", "name": "Colegio Cristiano Oriente", "note": "Correcciones masivas a ortograf\u00eda en nombres de importaciones hechas por equipo de gendarmer\u00eda", "religion": "christian"}}, {"type": "way", "id": 624792180, "nodes": [5899967567, 5899967568, 5899967569, 5899967570, 5899967567], "tags": {"addr:city": "Maip\u00fa", "addr:country": "CL", "addr:housenumber": "510", "addr:street": "Pasaje Alto Volta", "amenity": "school", "name": "Colegio Saint Francis College", "note": "Correcciones masivas a ortograf\u00eda en nombres de importaciones hechas por equipo de gendarmer\u00eda"}}, {"type": "way", "id": 628393567, "nodes": [5932533683, 5932533684, 5932533785, 5932533786, 5932533787, 5932533788, 5932533683], "tags": {"addr:housenumber": "276", "addr:street": "Centenario", "amenity": "school", "contact:email": "direccion@colegio-centenario.cl", "name": "Colegio Centenario", "operator": "4", "school:type": "10;110;310", "source": "Gobierno Regional Metropolitano de Santiago (http://www.gobiernosantiago.cl/)"}}, {"type": "way", "id": 628393568, "nodes": [5932533789, 5932533790, 5932533791, 5932533792, 5932533789], "tags": {"addr:city": "Maip\u00fa", "addr:country": "CL", "addr:housenumber": "276", "addr:street": "Centenario", "amenity": "school", "name": "Colegio Centenario", "note": "Correcciones masivas a ortograf\u00eda en nombres de importaciones hechas por equipo de gendarmer\u00eda"}}, {"type": "way", "id": 628395527, "nodes": [5932555693, 5932555694, 5932555695, 5932555696, 5932555697, 5932555698, 5932555693], "tags": {"addr:city": "Maip\u00fa", "addr:country": "CL", "addr:housenumber": "2510", "addr:street": "Bail\u00e9n", "amenity": "school", "name": "Instituto Luis Gandarillas", "note": "Correcciones masivas a ortograf\u00eda en nombres de importaciones hechas por equipo de gendarmer\u00eda"}}, {"type": "way", "id": 648868690, "nodes": [443979658, 6090947736, 6090947737, 6090947738, 6090947735, 6090947734, 8213596472, 8213596473, 6008978355, 6008978356, 443979658], "tags": {"addr:housenumber": "4550", "addr:street": "Avenida Los Pajaritos", "amenity": "school", "name": "Colegio Internacional Alba", "operator": "4", "school:type": "10;110;310", "source": "Gobierno Regional Metropolitano de Santiago (http://www.gobiernosantiago.cl/)"}}, {"type": "way", "id": 737453784, "nodes": [6904266036, 6904266037, 6346426322, 6904266038, 6904266036], "tags": {"amenity": "school", "name": "Colegio Castengaldolfo"}}, {"type": "way", "id": 737453785, "nodes": [6346426322, 6346426321, 6904266039, 6904266038, 6346426322], "tags": {"amenity": "school", "name": "Complejo Educacional Altair"}}, {"type": "way", "id": 737456377, "nodes": [6904266039, 6904379831, 4961032846, 4961032847, 6904379832, 6346426321, 6904266039], "tags": {"addr:city": "Padre Hurtado", "addr:country": "CL", "addr:housenumber": "720", "addr:street": "La Piramide", "amenity": "school", "contact:email": "santarosa.Escuela@gmail.com", "contact:phone": "+56 2 8340946", "name": "Escuela Santa Rosa de Chena", "note": "Correcciones masivas a ortograf\u00eda en nombres de importaciones hechas por equipo de gendarmer\u00eda", "operator": "3", "school:type": "110;214", "source": "Gobierno Regional Metropolitano de Santiago (http://www.gobiernosantiago.cl/)"}}, {"type": "way", "id": 737765524, "nodes": [6907633617, 6907633618, 6907633619, 6907633620, 6907633621, 6907633622, 6907633623, 6907633624, 6907633625, 6907633626, 6907633617], "tags": {"addr:city": "Maip\u00fa", "addr:country": "CL", "addr:housenumber": "2200", "addr:street": "Avenida Alcalde Jos\u00e9 Luis Infante Larra\u00edn", "amenity": "school", "email": "comunicaciones@stls.cl", "name": "Colegio Saint Louis School", "note": "Correcciones masivas a ortograf\u00eda en nombres de importaciones hechas por equipo de gendarmer\u00eda", "website": "https://saintlouisschool.cl/maipu/"}}, {"type": "way", "id": 746021144, "nodes": [6981794827, 6981794828, 6981794829, 6981794830, 6981794827], "tags": {"addr:city": "Maip\u00fa", "addr:country": "CL", "addr:housenumber": "1710", "addr:street": "Avenida Nueva San Mart\u00edn", "amenity": "school", "name": "King Edwards School I", "note": "Correcciones masivas a ortograf\u00eda en nombres de importaciones hechas por equipo de gendarmer\u00eda"}}, {"type": "way", "id": 746025804, "nodes": [906399382, 6981798964, 12174160731, 12174160730, 12174160729, 12174160734, 12174160735, 6981798965, 12174146292, 12174146291, 12174146289, 12174146288, 12174160733, 6981798966, 12174160732, 906399382], "tags": {"addr:city": "Maipu", "addr:country": "CL", "addr:housenumber": "2370", "addr:street": "La Galaxia", "amenity": "school", "contact:email": "cgarcia@codeduc.cl", "name": "Colegio San Sebasti\u00e1n De La Rinconada", "operator": "1", "school:type": "10;110;161", "source": "Gobierno Regional Metropolitano De Santiago (http://www.gobiernosantiago.cl/)"}}, {"type": "way", "id": 833605929, "nodes": [7781734755, 7781734756, 7781734757, 7781734758, 7781734755], "tags": {"addr:city": "Maip\u00fa", "addr:country": "CL", "addr:housenumber": "1356", "addr:street": "Campo de Batalla", "amenity": "school", "contact:email": "ecodiser@terra.cl", "contact:phone": "+56 2 7626112", "name": "Escuela B\u00e1sica y Especial Mario Baeza", "note": "Correcciones masivas a ortograf\u00eda en nombres de importaciones hechas por equipo de gendarmer\u00eda", "operator": "3", "school:type": "110;214", "source": "Gobierno Regional Metropolitano de Santiago (http://www.gobiernosantiago.cl/)"}}, {"type": "way", "id": 964048743, "nodes": [8917338810, 5521377953, 8917338809, 8917338812, 8929528869, 8917338811, 8917338810], "tags": {"addr:city": "Maip\u00fa", "addr:housenumber": "1177", "addr:street": "Avenida Arquitecto Hugo Bravo", "amenity": "school", "contact:email": "mpoblete@codeduc.cl", "contact:phone": "+56 2 5836562", "name": "Escuela B\u00e1sica Reina de Suecia", "school:type": "10;110", "source": "Reconocimiento cartogr\u00e1fico 2016 por KG."}}, {"type": "way", "id": 1075417937, "nodes": [9862953923, 9862953924, 9862953925, 9862953926, 9862953927, 9862953928, 9862953929, 9862953930, 9862953931, 9862953932, 9862953933, 9862953934, 9862953935, 9862953936, 9862953937, 9862953938, 9862953939, 9862953940, 9862953923], "tags": {"addr:city": "Maip\u00fa", "addr:housenumber": "575", "addr:street": "Avenida Esquina Blanca", "amenity": "school", "building": "yes", "name": "Colegio Santa \u00darsula"}}, {"type": "way", "id": 1075417971, "nodes": [9862954092, 9862954093, 9862954094, 9862954095, 9862954096, 9862954097, 9862954092], "tags": {"addr:city": "Maip\u00fa", "addr:housenumber": "680", "addr:street": "Pasaje Los Andes", "amenity": "school", "name": "Escuela Le\u00f3n Humberto Valenzuela"}}, {"type": "way", "id": 1091391887, "nodes": [9996110004, 9996110005, 9996110006, 9996110007, 9996110008, 9996110004], "tags": {"addr:city": "Maip\u00fa", "addr:housenumber": "927", "addr:street": "Avenida Los Pajaritos", "amenity": "school", "name": "Escuela Particular Rub\u00e9n Dar\u00edo"}}, {"type": "way", "id": 1091625484, "nodes": [9997757991, 9997757992, 9997757993, 9997757994, 9997757995, 9997757996, 9997757997, 9997757998, 9997757991], "tags": {"addr:city": "Maip\u00fa", "addr:country": "CL", "addr:housenumber": "350", "addr:street": "Chacabuco", "amenity": "school", "building": "house", "name": "Escuela de Lenguaje Comun\u00edcate", "note": "Correcciones masivas a ortograf\u00eda en nombres de importaciones hechas por equipo de gendarmer\u00eda"}}, {"type": "way", "id": 1091625515, "nodes": [9997758153, 9997758154, 9997758155, 9997758156, 9997758153], "tags": {"addr:city": "Maip\u00fa", "addr:housenumber": "2375", "addr:street": "Rep\u00fablica", "amenity": "school", "name": "Colegio Ellen College"}}, {"type": "way", "id": 1092234006, "nodes": [10003218161, 10003218162, 10003218163, 10003218164, 10003218161], "tags": {"addr:city": "Maip\u00fa", "addr:housenumber": "2678", "addr:street": "General San Mart\u00edn", "amenity": "school", "name": "Colegio El Redentor"}}, {"type": "way", "id": 1107891879, "nodes": [10136710295, 10136710296, 10136710297, 10136710298, 10136710299, 10136710300, 10136710295], "tags": {"addr:city": "Maip\u00fa", "addr:country": "CL", "addr:housenumber": "1401", "addr:street": "Libertador Bernardo O'Higgins", "amenity": "school", "contact:email": "eneas_carlo@hotmail.com", "name": "Colegio Adultos Alfred Nobel", "operator": "3", "school:type": "160;361", "source": "Gobierno Regional Metropolitano De Santiago (http://www.gobiernosantiago.cl/)"}}, {"type": "way", "id": 1126392038, "nodes": [906405849, 10299679254, 10299679255, 10299679256, 906405849], "tags": {"addr:housenumber": "4130", "addr:street": "Pasaje Kant", "amenity": "school", "contact:email": "mdlmorris@hotmail.com", "name": "Colegio Lo Err\u00e1zuriz", "operator": "3", "school:type": "10;110", "source": "Gobierno Regional Metropolitano de Santiago (http://www.gobiernosantiago.cl/)"}}, {"type": "way", "id": 1178104766, "nodes": [10944101721, 10944101722, 10944101723, 10944101724, 10944101721], "tags": {"addr:country": "CL", "amenity": "school", "building": "house", "name": "Escuela Especial Voces", "note": "Correcciones masivas a ortograf\u00eda en nombres de importaciones hechas por equipo de gendarmer\u00eda"}}, {"type": "way", "id": 1178108999, "nodes": [10944140355, 10944140356, 10944140357, 10944140358, 10944140355], "tags": {"amenity": "school", "building": "house", "name": "Escuela de P\u00e1rvulos T\u00eda Lorena"}}, {"type": "way", "id": 1179839968, "nodes": [10958165967, 10958165968, 10958165969, 10958165970, 10958165967], "tags": {"addr:city": "Maip\u00fa", "addr:country": "CL", "addr:housenumber": "624", "addr:street": "Presidente Jorge Alessandri Rodr\u00edguez", "amenity": "school", "name": "Centro Educacional Russeau", "note": "Correcciones masivas a ortograf\u00eda en nombres de importaciones hechas por equipo de gendarmer\u00eda"}}, {"type": "way", "id": 1179883463, "nodes": [5967768759, 5967768760, 7782861349, 7782861350, 7782861351, 7782861352, 7782861362, 7782861356, 7782861354, 5967768759], "tags": {"amenity": "school"}}, {"type": "way", "id": 1180711507, "nodes": [10965832772, 10965832773, 10965832774, 10965832772], "tags": {"addr:city": "Maip\u00fa", "addr:postcode": "w", "addr:street": "Diagonal Arquitecto Mardones Restat", "amenity": "school", "name": "Escuela de Lenguaje Plaza Sesamo"}}, {"type": "way", "id": 1181511145, "nodes": [10972336277, 10972336278, 10972336279, 10972336280, 10972336281, 10972336277], "tags": {"addr:city": "Maip\u00fa", "addr:housenumber": "3315", "addr:street": "Presidente Germ\u00e1n Riesco", "amenity": "school", "name": "Rep\u00fablica de Guatemala"}}, {"type": "way", "id": 1182374225, "nodes": [10979874359, 10979874360, 10979874361, 10979874362, 10979874359], "tags": {"amenity": "school"}}, {"type": "way", "id": 1183522085, "nodes": [10978955570, 10990468228, 12174160758, 12174160759, 12174160762, 10990468229, 12174160763, 10990468230, 10978955570], "tags": {"addr:city": "Maipu", "addr:housenumber": "2377", "addr:street": "La Galaxia", "amenity": "school", "name": "Escuela de P\u00e1rvulos Cemar"}}, {"type": "way", "id": 1221316406, "nodes": [11326083016, 11326083017, 11326083018, 11326083019, 11326083020, 11326083021, 11326083022, 11326083013, 11326083016], "tags": {"addr:city": "Maip\u00fa", "addr:country": "CL", "addr:housenumber": "1025", "addr:street": "Avenida Nueva San Mart\u00edn", "amenity": "school", "name": "Escuela de Lenguaje Adonay", "note": "Correcciones masivas a ortograf\u00eda en nombres de importaciones hechas por equipo de gendarmer\u00eda"}}, {"type": "way", "id": 1222754917, "nodes": [11341420458, 11341420459, 11341420460, 11341420461, 11341420458], "tags": {"addr:city": "Maip\u00fa", "addr:country": "CL", "addr:housenumber": "3173", "addr:street": "Lugo", "amenity": "school", "contact:email": "myluga@hotmail.com", "name": "Escuela B\u00e1sica El Array\u00e1n de Maip\u00fa", "note": "Correcciones masivas a ortograf\u00eda en nombres de importaciones hechas por equipo de gendarmer\u00eda", "operator": "3", "school:type": "10;110", "source": "Gobierno Regional Metropolitano de Santiago (http://www.gobiernosantiago.cl/)"}}, {"type": "way", "id": 1222755126, "nodes": [11341421334, 11341421335, 11341421336, 11341421337, 11341421334], "tags": {"addr:city": "Maip\u00fa", "addr:country": "CL", "addr:housenumber": "1491", "addr:street": "Los Ministros", "amenity": "school", "name": "Colegio San Andr\u00e9s Maip\u00fa"}}, {"type": "way", "id": 1233449628, "nodes": [10979280355, 11445453012, 11445453007, 11445453008, 11590218078, 11445453009, 11445453010, 11445453011, 10979280355], "tags": {"addr:city": "Maip\u00fa", "addr:country": "CL", "addr:housenumber": "3600", "addr:street": "Ren\u00e9 Olivares Becerra", "amenity": "school", "name": "Colegio San Andr\u00e9s Maip\u00fa El Bosque"}}, {"type": "way", "id": 1233449629, "nodes": [11409533807, 11445453056, 11445453055, 11445453013, 11445453014, 11445453015, 11445453016, 11445453017, 11445453018, 11445453019, 11409533807], "tags": {"addr:city": "Maip\u00fa", "addr:housenumber": "121", "addr:street": "San Manuel", "amenity": "school", "name": "Colegio San Francisco de Sales"}}, {"type": "way", "id": 1233449641, "nodes": [906399311, 11445467574, 11445467575, 11445467576, 906399311], "tags": {"addr:city": "Maip\u00fa", "addr:country": "CL", "addr:housenumber": "3460", "addr:street": "Senadora Mar\u00eda de la Cruz", "amenity": "school", "contact:email": "colegiosjdg@gmail.com", "contact:phone": "+56 2 5143872", "name": "Colegio San Juan Diego De Guadalupe", "operator": "3", "school:type": "110;160;310;361", "source": "Gobierno Regional Metropolitano De Santiago (http://www.gobiernosantiago.cl/)"}}, {"type": "way", "id": 1233449642, "nodes": [3309462126, 906399355, 11445467577, 3309462125, 3309462126], "tags": {"addr:city": "Maip\u00fa", "addr:housenumber": "1044", "addr:street": "El Cid", "amenity": "school", "contact:email": "jmvelasco1044@gmail.com", "contact:phone": "+56 2 5311427", "name": "Colegio Escuela Jos\u00e9 Manso de Velasco", "operator": "3", "school:type": "10;110;160;360;361", "source": "Gobierno Regional Metropolitano de Santiago (http://www.gobiernosantiago.cl/)"}}, {"type": "way", "id": 1233449644, "nodes": [906399343, 11445467582, 11445467583, 11445467584, 906399343], "tags": {"addr:housenumber": "730", "addr:street": "Calle Del Rey", "amenity": "school", "contact:email": "marantonio@vtr.net", "name": "Colegio Polivalente Santa Cecilia De Ma", "operator": "3", "school:type": "10;110;310;610", "source": "Gobierno Regional Metropolitano de Santiago (http://www.gobiernosantiago.cl/)"}}, {"type": "way", "id": 1233449645, "nodes": [906399339, 11445467585, 11445467586, 11445467587, 11445467588, 11445467589, 11445467590, 11445467591, 906399339], "tags": {"addr:city": "Maip\u00fa", "addr:housenumber": "138", "addr:street": "R\u00edo \u00c9ufrates", "amenity": "school", "name": "Colegio Rosita S\u00e1nchez", "operator": "3", "school:type": "10;110", "source": "Gobierno Regional Metropolitano de Santiago (http://www.gobiernosantiago.cl/)"}}, {"type": "way", "id": 1233449647, "nodes": [10057252144, 906399349, 11851069387, 11445467597, 11445467598, 11445467599, 11445467600, 11445467601, 10057252146, 10057252145, 10057252144], "tags": {"addr:city": "Maip\u00fa", "addr:housenumber": "101", "addr:street": "San Ram\u00f3n", "amenity": "school", "contact:email": "bsanchez@codeduc.cl", "name": "Escuela Presidente Germ\u00e1n Riesco Err\u00e1zuriz", "operator": "1", "school:type": "10;110", "source": "Gobierno Regional Metropolitano de Santiago (http://www.gobiernosantiago.cl/)"}}, {"type": "way", "id": 1233449666, "nodes": [906399394, 11445467710, 11445467711, 11445467712, 906399394], "tags": {"addr:city": "Maip\u00fa", "addr:housenumber": "572", "addr:street": "Chile", "amenity": "school", "contact:email": "profesormarcos@hotmail.com", "contact:phone": "+56 2 7933425", "name": "Colegio Hermanos Carrera de Chile", "operator": "3", "school:type": "10;110;310", "source": "Gobierno Regional Metropolitano de Santiago (http://www.gobiernosantiago.cl/)"}}, {"type": "way", "id": 1233449671, "nodes": [10977221819, 11445467737, 11445467738, 11445467739, 10977221819], "tags": {"addr:city": "Maipu", "addr:country": "CL", "addr:housenumber": "17121", "addr:street": "El Labrador", "amenity": "school", "name": "Escuela Especial renacer"}}, {"type": "way", "id": 1274639625, "nodes": [11835176328, 11835176329, 11835176330, 11835176331, 11835176332, 11835176333, 11835176328], "tags": {"addr:city": "Maip\u00fa", "addr:housenumber": "255", "addr:street": "General Bueras", "amenity": "school", "contact:email": "lpoveda@vtr.net", "name": "Liceo San Pedro Poveda", "operator": "3", "school:type": "310", "source": "Gobierno Regional Metropolitano de Santiago (http://www.gobiernosantiago.cl/)"}}, {"type": "way", "id": 1274639637, "nodes": [11835176390, 11835176391, 11835176392, 11835176393, 11835176394, 11835176395, 11835176396, 11835176397, 11835176390], "tags": {"addr:city": "Maip\u00fa", "addr:housenumber": "147", "addr:street": "Centenario", "amenity": "school", "contact:email": "albertoperez@vtr.net", "name": "Colegio Alberto P\u00e9rez", "operator": "3", "school:type": "10;110;310", "source": "Gobierno Regional Metropolitano de Santiago (http://www.gobiernosantiago.cl/)"}}, {"type": "way", "id": 1276525538, "nodes": [11329161910, 11851069378, 11851069379, 11851069380, 11851069381, 11851069382, 11329161910], "tags": {"addr:city": "Maip\u00fa", "addr:country": "CL", "addr:housenumber": "1481", "addr:street": "Presidente Arturo Alessandri Palma", "amenity": "school", "name": "El Alfarero", "note": "Correcciones masivas a ortograf\u00eda en nombres de importaciones hechas por equipo de gendarmer\u00eda"}}, {"type": "way", "id": 1276525544, "nodes": [906399369, 11851069408, 11851069409, 11851069410, 906399369], "tags": {"addr:city": "Maip\u00fa", "addr:housenumber": "215", "addr:street": "Cuatro \u00c1lamos", "amenity": "school", "name": "Liceo Industrial Domingo Matte P\u00e9rez", "operator": "5", "school:type": "160;360;510;560", "source": "Gobierno Regional Metropolitano de Santiago (http://www.gobiernosantiago.cl/)"}}, {"type": "way", "id": 1299297419, "nodes": [12035954146, 12035954145, 12035954144, 12035954143, 12035954142, 12035954141, 12035954140, 12035954146], "tags": {"addr:city": "Maip\u00fa", "addr:country": "CL", "addr:housenumber": "3426", "addr:street": "General San Mart\u00edn", "amenity": "school", "name": "Colegio Santa Cecilia de Maip\u00fa", "note": "Correcciones masivas a ortograf\u00eda en nombres de importaciones hechas por equipo de gendarmer\u00eda"}}, {"type": "way", "id": 1303684236, "nodes": [5882206132, 5882206123, 5882206121, 5882206135, 5882206132], "tags": {"amenity": "school"}}, {"type": "way", "id": 1327496554, "nodes": [12281588706, 12281588707, 12281588750, 12281588708, 12281588709, 12281588706], "tags": {"addr:city": "Maip\u00fa", "addr:housenumber": "2032", "addr:street": "Avenida El Olimpo", "amenity": "school", "email": "Escuelasantajaviera@yahoo.es", "name": "Escuela Especial Santa Javiera", "operator": "3", "school:type": "214"}}, {"type": "way", "id": 1329361148, "nodes": [12299314415, 12299314414, 12299314416, 12299314422, 12299314423, 12299314489, 12299314490, 12299314457, 12299314456, 12299314415], "tags": {"amenity": "school"}}]}