{"version": 0.6, "generator": "Overpass API 0.7.62.8 e802775f", "osm3s": {"timestamp_osm_base": "2025-08-31T22:51:30Z", "copyright": "The data included in this document is from www.openstreetmap.org. The data is made available under ODbL."}, "elements": [{"type": "node", "id": 3739646535, "lat": -33.4907259, "lon": -70.6750489, "tags": {"addr:housenumber": "4845", "addr:street": "Avenida Clotario Blest", "amenity": "restaurant", "cuisine": "chinese", "name": "Wazimi", "smoking": "no", "takeaway": "only", "wheelchair": "yes"}}, {"type": "node", "id": 4431138655, "lat": -33.4784469, "lon": -70.670623, "tags": {"addr:street": "Avenida Alcalde Carlos Valdovinos", "amenity": "restaurant", "cuisine": "sushi", "name": "Suchi Tota", "source": "Reconocimiento cortogr\u00e1fico de campo 2016 por KG"}}, {"type": "node", "id": 4431138656, "lat": -33.478446, "lon": -70.6706778, "tags": {"amenity": "restaurant", "name": "Talcahuano", "source": "Reconocimiento cortogr\u00e1fico de campo 2016 por KG"}}, {"type": "node", "id": 4457910162, "lat": -33.4785594, "lon": -70.6624116}, {"type": "node", "id": 4457910163, "lat": -33.4786371, "lon": -70.6624152}, {"type": "node", "id": 4457910164, "lat": -33.4786393, "lon": -70.6623466}, {"type": "node", "id": 4457910165, "lat": -33.4785616, "lon": -70.6623431}, {"type": "node", "id": 4459612602, "lat": -33.478737, "lon": -70.6704448}, {"type": "node", "id": 4459612603, "lat": -33.4788163, "lon": -70.6704773}, {"type": "node", "id": 4459612604, "lat": -33.4788298, "lon": -70.6704301}, {"type": "node", "id": 4459612605, "lat": -33.4787756, "lon": -70.6704079}, {"type": "node", "id": 4459612606, "lat": -33.4787794, "lon": -70.6703382}, {"type": "node", "id": 4459612607, "lat": -33.478743, "lon": -70.6703354}, {"type": "node", "id": 4459626016, "lat": -33.4787624, "lon": -70.670213}, {"type": "node", "id": 4459626017, "lat": -33.4788184, "lon": -70.6702204}, {"type": "node", "id": 4459626018, "lat": -33.4788268, "lon": -70.6701288}, {"type": "node", "id": 4459626019, "lat": -33.4787708, "lon": -70.6701214}, {"type": "node", "id": 6560254386, "lat": -33.4786486, "lon": -70.6614862, "tags": {"addr:housenumber": "1951", "addr:street": "Avenida Alcalde Carlos Valdovinos", "amenity": "restaurant", "cuisine": "local", "name": "Bar Victoria", "opening_hours": "Mo-Sa 13:00-04:00"}}, {"type": "node", "id": 11011262331, "lat": -33.4896204, "lon": -70.6616107, "tags": {"addr:housenumber": "1679", "addr:street": "Avenida Presidente Salvador Allende Gossens", "air_conditioning": "yes", "amenity": "restaurant", "bar": "no", "brewery": "no", "capacity": "0", "check_date": "2023-06-27", "cuisine": "sushi", "delivery": "yes", "diet:vegan": "yes", "diet:vegetarian": "yes", "highchair": "no", "internet_access": "no", "microbrewery": "no", "name": "Magick Sushi", "opening_hours": "Mo-Th 17:00-22:30; Fr-Su 17:00-24:00", "outdoor_seating": "no", "payment:american_express": "yes", "payment:apple_pay": "yes", "payment:cash": "yes", "payment:contactless": "yes", "payment:credit_cards": "yes", "payment:debit_cards": "yes", "payment:mastercard": "yes", "payment:mastercard_contactless": "yes", "payment:transferencia": "yes", "payment:visa": "yes", "payment:visa_debit": "yes", "phone": "+56 9 7520 2252", "reservation": "no", "smoking": "no", "source": "local knowledge;survey", "takeaway": "yes", "toilets": "no", "toilets:wheelchair": "no", "wheelchair": "no"}}, {"type": "node", "id": 13096459832, "lat": -33.4988971, "lon": -70.6868609, "tags": {"amenity": "restaurant", "cuisine": "sushi", "name": "Jasushi Fusion"}}, {"type": "way", "id": 448817134, "nodes": [4457910162, 4457910163, 4457910164, 4457910165, 4457910162], "tags": {"addr:street": "Avenida Alcalde Carlos Valdovinos", "amenity": "restaurant", "building": "yes", "name": "Restaurant Xing Bao", "source": "Reconocimiento cartogr\u00e1fico 2016 por KG."}}, {"type": "way", "id": 448996292, "nodes": [4459612602, 4459612603, 4459612604, 4459612605, 4459612606, 4459612607, 4459612602], "tags": {"addr:city": "Santiago", "addr:street": "Avenida Alcalde Carlos Valdovinos", "amenity": "restaurant", "building": "yes", "cuisine": "asian", "name": "Dragon Restaurant", "source": "Reconocimiento cartogr\u00e1fico 2016 por KG."}}, {"type": "way", "id": 448997517, "nodes": [4459626016, 4459626017, 4459626018, 4459626019, 4459626016], "tags": {"addr:city": "Santiago", "addr:street": "Avenida Alcalde Carlos Valdovinos", "amenity": "restaurant", "building": "yes", "name": "Huala\u00f1\u00e9", "source": "Reconocimiento cartogr\u00e1fico 2016 por KG."}}]}